[{"NoOfRooms":4,"NoOfBathrooms":4,"SqFeet":6901,"Address1":"58 Dapin Way","Address2":"Room 707","City":"San Mateo","State":"CA","Zip":"94405","Description":null,"SalesValue":"$6990791.18"},
{"NoOfRooms":3,"NoOfBathrooms":1,"SqFeet":2039,"Address1":"9451 Michigan Court","Address2":"Apt 1168","City":"San Jose","State":"CA","Zip":"95138","Description":null,"SalesValue":"$7036033.69"},
{"NoOfRooms":2,"NoOfBathrooms":1,"SqFeet":1504,"Address1":"58229 Sommers Lane","Address2":"Suite 89","City":"Sacramento","State":"CA","Zip":"94257","Description":null,"SalesValue":"$7062341.54"},
{"NoOfRooms":3,"NoOfBathrooms":4,"SqFeet":3990,"Address1":"337 Gina Point","Address2":"Suite 35","City":"San Francisco","State":"CA","Zip":"94137","Description":null,"SalesValue":"$6999011.44"},
{"NoOfRooms":4,"NoOfBathrooms":5,"SqFeet":9846,"Address1":"433 Autumn Leaf Junction","Address2":"9th Floor","City":"San Bernardino","State":"CA","Zip":"92410","Description":null,"SalesValue":"$7093220.23"},
{"NoOfRooms":2,"NoOfBathrooms":5,"SqFeet":2730,"Address1":"011 Bultman Alley","Address2":"Suite 14","City":"San Jose","State":"CA","Zip":"95123","Description":null,"SalesValue":"$4830572.32"},
{"NoOfRooms":5,"NoOfBathrooms":5,"SqFeet":4718,"Address1":"0 David Alley","Address2":"Suite 20","City":"Pasadena","State":"CA","Zip":"91109","Description":null,"SalesValue":"$7763622.72"},
{"NoOfRooms":5,"NoOfBathrooms":5,"SqFeet":9232,"Address1":"7306 Hazelcrest Alley","Address2":"Apt 1950","City":"San Jose","State":"CA","Zip":"95113","Description":null,"SalesValue":"$4220292.90"},
{"NoOfRooms":2,"NoOfBathrooms":3,"SqFeet":5512,"Address1":"930 Talisman Center","Address2":"PO Box 42859","City":"Newport Beach","State":"CA","Zip":"92662","Description":null,"SalesValue":"$2131664.18"},
{"NoOfRooms":2,"NoOfBathrooms":4,"SqFeet":1134,"Address1":"81 Wayridge Lane","Address2":"PO Box 31396","City":"Fresno","State":"CA","Zip":"93721","Description":null,"SalesValue":"$1749520.36"},
{"NoOfRooms":2,"NoOfBathrooms":4,"SqFeet":5708,"Address1":"75124 Arkansas Hill","Address2":"Apt 1980","City":"Long Beach","State":"CA","Zip":"90805","Description":null,"SalesValue":"$8594920.56"},
{"NoOfRooms":4,"NoOfBathrooms":4,"SqFeet":1006,"Address1":"7886 Coolidge Terrace","Address2":"Suite 83","City":"Los Angeles","State":"CA","Zip":"90094","Description":null,"SalesValue":"$8024121.73"},
{"NoOfRooms":1,"NoOfBathrooms":2,"SqFeet":4290,"Address1":"985 Evergreen Court","Address2":"Room 1289","City":"San Francisco","State":"CA","Zip":"94116","Description":null,"SalesValue":"$8479866.97"},
{"NoOfRooms":4,"NoOfBathrooms":1,"SqFeet":2886,"Address1":"76 Lakewood Plaza","Address2":"PO Box 10625","City":"Santa Clara","State":"CA","Zip":"95054","Description":null,"SalesValue":"$7580545.89"},
{"NoOfRooms":5,"NoOfBathrooms":4,"SqFeet":8089,"Address1":"651 Bartelt Junction","Address2":"20th Floor","City":"Fresno","State":"CA","Zip":"93704","Description":null,"SalesValue":"$4136334.04"},
{"NoOfRooms":5,"NoOfBathrooms":4,"SqFeet":863,"Address1":"27 Debs Lane","Address2":"7th Floor","City":"Sacramento","State":"CA","Zip":"94250","Description":null,"SalesValue":"$2117290.28"},
{"NoOfRooms":2,"NoOfBathrooms":3,"SqFeet":5345,"Address1":"30247 Surrey Parkway","Address2":"Suite 86","City":"San Bernardino","State":"CA","Zip":"92424","Description":null,"SalesValue":"$8676703.30"},
{"NoOfRooms":5,"NoOfBathrooms":2,"SqFeet":5684,"Address1":"39617 Riverside Way","Address2":"Room 1345","City":"North Hollywood","State":"CA","Zip":"91606","Description":null,"SalesValue":"$5259818.23"},
{"NoOfRooms":5,"NoOfBathrooms":3,"SqFeet":9102,"Address1":"67 Ronald Regan Place","Address2":"PO Box 65978","City":"Corona","State":"CA","Zip":"92883","Description":null,"SalesValue":"$7599479.11"},
{"NoOfRooms":5,"NoOfBathrooms":3,"SqFeet":192,"Address1":"612 Grayhawk Park","Address2":"16th Floor","City":"Pasadena","State":"CA","Zip":"91117","Description":null,"SalesValue":"$7803046.77"},
{"NoOfRooms":5,"NoOfBathrooms":2,"SqFeet":6177,"Address1":"957 Fulton Avenue","Address2":"Suite 82","City":"Sacramento","State":"CA","Zip":"94207","Description":null,"SalesValue":"$1352255.32"},
{"NoOfRooms":4,"NoOfBathrooms":2,"SqFeet":586,"Address1":"1799 Merrick Point","Address2":"PO Box 79454","City":"San Francisco","State":"CA","Zip":"94164","Description":null,"SalesValue":"$5813285.37"},
{"NoOfRooms":5,"NoOfBathrooms":3,"SqFeet":2518,"Address1":"76698 Sutherland Plaza","Address2":"PO Box 24924","City":"San Jose","State":"CA","Zip":"95160","Description":null,"SalesValue":"$1024621.92"},
{"NoOfRooms":3,"NoOfBathrooms":2,"SqFeet":2535,"Address1":"6 Atwood Drive","Address2":"1st Floor","City":"Anaheim","State":"CA","Zip":"92825","Description":null,"SalesValue":"$6864616.58"},
{"NoOfRooms":4,"NoOfBathrooms":3,"SqFeet":2473,"Address1":"46123 Birchwood Junction","Address2":"PO Box 89665","City":"Long Beach","State":"CA","Zip":"90847","Description":null,"SalesValue":"$9850150.33"},
{"NoOfRooms":2,"NoOfBathrooms":5,"SqFeet":5702,"Address1":"9053 Center Lane","Address2":"3rd Floor","City":"San Jose","State":"CA","Zip":"95113","Description":null,"SalesValue":"$734804.51"},
{"NoOfRooms":3,"NoOfBathrooms":1,"SqFeet":5810,"Address1":"98710 Cascade Lane","Address2":"Room 67","City":"South Lake Tahoe","State":"CA","Zip":"96154","Description":null,"SalesValue":"$8643575.95"},
{"NoOfRooms":3,"NoOfBathrooms":1,"SqFeet":3139,"Address1":"12 Sachs Lane","Address2":"2nd Floor","City":"San Diego","State":"CA","Zip":"92105","Description":null,"SalesValue":"$3495656.39"},
{"NoOfRooms":5,"NoOfBathrooms":2,"SqFeet":481,"Address1":"459 Donald Avenue","Address2":"Apt 736","City":"Burbank","State":"CA","Zip":"91520","Description":null,"SalesValue":"$1048436.94"},
{"NoOfRooms":1,"NoOfBathrooms":1,"SqFeet":524,"Address1":"79 La Follette Circle","Address2":"Apt 1486","City":"Los Angeles","State":"CA","Zip":"90010","Description":null,"SalesValue":"$7803432.87"},
{"NoOfRooms":1,"NoOfBathrooms":2,"SqFeet":3667,"Address1":"0 Towne Parkway","Address2":"PO Box 43756","City":"South Lake Tahoe","State":"CA","Zip":"96154","Description":null,"SalesValue":"$1233360.05"},
{"NoOfRooms":1,"NoOfBathrooms":2,"SqFeet":7594,"Address1":"020 Jana Lane","Address2":"PO Box 58825","City":"Sacramento","State":"CA","Zip":"94245","Description":null,"SalesValue":"$5231636.20"},
{"NoOfRooms":4,"NoOfBathrooms":3,"SqFeet":2433,"Address1":"308 Westport Center","Address2":"Room 1630","City":"Santa Ana","State":"CA","Zip":"92705","Description":null,"SalesValue":"$2537297.64"},
{"NoOfRooms":1,"NoOfBathrooms":2,"SqFeet":7022,"Address1":"4881 Pierstorff Center","Address2":"Suite 2","City":"Corona","State":"CA","Zip":"92878","Description":null,"SalesValue":"$1240932.08"},
{"NoOfRooms":4,"NoOfBathrooms":1,"SqFeet":4020,"Address1":"18063 Clarendon Plaza","Address2":"Room 96","City":"Fresno","State":"CA","Zip":"93786","Description":null,"SalesValue":"$6872843.34"},
{"NoOfRooms":2,"NoOfBathrooms":4,"SqFeet":7450,"Address1":"7777 Surrey Alley","Address2":"PO Box 9844","City":"Santa Monica","State":"CA","Zip":"90410","Description":null,"SalesValue":"$3772787.57"},
{"NoOfRooms":5,"NoOfBathrooms":2,"SqFeet":9716,"Address1":"1725 Farmco Junction","Address2":"Suite 3","City":"Fresno","State":"CA","Zip":"93773","Description":null,"SalesValue":"$1511896.45"},
{"NoOfRooms":1,"NoOfBathrooms":2,"SqFeet":1416,"Address1":"7828 Aberg Circle","Address2":"7th Floor","City":"Sacramento","State":"CA","Zip":"94280","Description":null,"SalesValue":"$8958699.50"},
{"NoOfRooms":1,"NoOfBathrooms":1,"SqFeet":9657,"Address1":"24 Browning Parkway","Address2":"Suite 51","City":"San Francisco","State":"CA","Zip":"94169","Description":null,"SalesValue":"$4955956.17"},
{"NoOfRooms":2,"NoOfBathrooms":4,"SqFeet":8421,"Address1":"8136 Grover Street","Address2":"Suite 28","City":"Santa Barbara","State":"CA","Zip":"93106","Description":null,"SalesValue":"$6688593.73"},
{"NoOfRooms":3,"NoOfBathrooms":2,"SqFeet":7223,"Address1":"2 Bashford Trail","Address2":"PO Box 75522","City":"Corona","State":"CA","Zip":"92878","Description":null,"SalesValue":"$1735963.21"},
{"NoOfRooms":4,"NoOfBathrooms":1,"SqFeet":4980,"Address1":"2 Continental Terrace","Address2":"Apt 318","City":"Mountain View","State":"CA","Zip":"94042","Description":null,"SalesValue":"$6907742.86"},
{"NoOfRooms":1,"NoOfBathrooms":5,"SqFeet":2890,"Address1":"696 Anderson Street","Address2":"PO Box 22391","City":"San Francisco","State":"CA","Zip":"94137","Description":null,"SalesValue":"$4428878.68"},
{"NoOfRooms":1,"NoOfBathrooms":3,"SqFeet":2527,"Address1":"48 Shasta Terrace","Address2":"PO Box 48773","City":"Sacramento","State":"CA","Zip":"95894","Description":null,"SalesValue":"$8487675.83"},
{"NoOfRooms":4,"NoOfBathrooms":4,"SqFeet":3321,"Address1":"3809 Aberg Place","Address2":"Room 180","City":"Sacramento","State":"CA","Zip":"94263","Description":null,"SalesValue":"$8040863.03"},
{"NoOfRooms":4,"NoOfBathrooms":1,"SqFeet":8111,"Address1":"51 Corry Place","Address2":"PO Box 85658","City":"Anaheim","State":"CA","Zip":"92825","Description":null,"SalesValue":"$1347252.84"},
{"NoOfRooms":1,"NoOfBathrooms":3,"SqFeet":6507,"Address1":"3880 Morrow Alley","Address2":"Suite 12","City":"Pasadena","State":"CA","Zip":"91103","Description":null,"SalesValue":"$4764322.89"},
{"NoOfRooms":2,"NoOfBathrooms":5,"SqFeet":7852,"Address1":"4 Calypso Terrace","Address2":"PO Box 71816","City":"San Diego","State":"CA","Zip":"92127","Description":null,"SalesValue":"$2745194.07"},
{"NoOfRooms":1,"NoOfBathrooms":2,"SqFeet":5022,"Address1":"31544 Sachtjen Point","Address2":"Room 1531","City":"San Jose","State":"CA","Zip":"95128","Description":null,"SalesValue":"$6492997.47"},
{"NoOfRooms":2,"NoOfBathrooms":3,"SqFeet":7029,"Address1":"50 Namekagon Plaza","Address2":"Apt 1205","City":"San Francisco","State":"CA","Zip":"94142","Description":null,"SalesValue":"$8163328.88"},
{"NoOfRooms":3,"NoOfBathrooms":1,"SqFeet":196,"Address1":"51 Ridge Oak Pass","Address2":"Suite 31","City":"Pasadena","State":"CA","Zip":"91103","Description":null,"SalesValue":"$5091704.71"},
{"NoOfRooms":5,"NoOfBathrooms":5,"SqFeet":233,"Address1":"338 2nd Alley","Address2":"PO Box 8324","City":"Sacramento","State":"CA","Zip":"94230","Description":null,"SalesValue":"$1289445.44"},
{"NoOfRooms":2,"NoOfBathrooms":5,"SqFeet":4957,"Address1":"95 Alpine Court","Address2":"Room 215","City":"Los Angeles","State":"CA","Zip":"90035","Description":null,"SalesValue":"$4366656.61"},
{"NoOfRooms":3,"NoOfBathrooms":2,"SqFeet":2415,"Address1":"1 Nancy Junction","Address2":"Suite 50","City":"Bakersfield","State":"CA","Zip":"93399","Description":null,"SalesValue":"$4907492.75"},
{"NoOfRooms":1,"NoOfBathrooms":2,"SqFeet":9343,"Address1":"671 Namekagon Park","Address2":"Apt 1827","City":"San Francisco","State":"CA","Zip":"94105","Description":null,"SalesValue":"$8748405.55"},
{"NoOfRooms":5,"NoOfBathrooms":5,"SqFeet":5718,"Address1":"733 Thackeray Road","Address2":"Apt 860","City":"Los Angeles","State":"CA","Zip":"90101","Description":null,"SalesValue":"$4053229.38"},
{"NoOfRooms":5,"NoOfBathrooms":3,"SqFeet":117,"Address1":"03722 Arkansas Crossing","Address2":"7th Floor","City":"Pasadena","State":"CA","Zip":"91117","Description":null,"SalesValue":"$7947165.99"},
{"NoOfRooms":5,"NoOfBathrooms":5,"SqFeet":8025,"Address1":"4 Green Hill","Address2":"Apt 279","City":"Orange","State":"CA","Zip":"92668","Description":null,"SalesValue":"$7618625.64"},
{"NoOfRooms":3,"NoOfBathrooms":3,"SqFeet":3620,"Address1":"022 Buhler Road","Address2":"Suite 11","City":"Sacramento","State":"CA","Zip":"95833","Description":null,"SalesValue":"$5221211.29"},
{"NoOfRooms":1,"NoOfBathrooms":1,"SqFeet":8131,"Address1":"29 Pankratz Avenue","Address2":"PO Box 66107","City":"San Bernardino","State":"CA","Zip":"92415","Description":null,"SalesValue":"$8745378.16"},
{"NoOfRooms":1,"NoOfBathrooms":4,"SqFeet":5787,"Address1":"90078 Mayer Trail","Address2":"Apt 617","City":"Petaluma","State":"CA","Zip":"94975","Description":null,"SalesValue":"$5364101.61"},
{"NoOfRooms":2,"NoOfBathrooms":3,"SqFeet":5754,"Address1":"54 Main Parkway","Address2":"4th Floor","City":"Fresno","State":"CA","Zip":"93740","Description":null,"SalesValue":"$3634259.58"},
{"NoOfRooms":2,"NoOfBathrooms":3,"SqFeet":3404,"Address1":"5421 Carioca Road","Address2":"PO Box 49595","City":"Los Angeles","State":"CA","Zip":"90076","Description":null,"SalesValue":"$3055649.07"},
{"NoOfRooms":2,"NoOfBathrooms":2,"SqFeet":587,"Address1":"24 Mifflin Circle","Address2":"Apt 373","City":"Sacramento","State":"CA","Zip":"94273","Description":null,"SalesValue":"$2755969.84"},
{"NoOfRooms":3,"NoOfBathrooms":2,"SqFeet":670,"Address1":"88 Annamark Alley","Address2":"Room 61","City":"Escondido","State":"CA","Zip":"92030","Description":null,"SalesValue":"$8684579.11"},
{"NoOfRooms":5,"NoOfBathrooms":2,"SqFeet":7883,"Address1":"17 Petterle Road","Address2":"Room 723","City":"San Diego","State":"CA","Zip":"92132","Description":null,"SalesValue":"$7566720.62"},
{"NoOfRooms":4,"NoOfBathrooms":1,"SqFeet":5315,"Address1":"07266 Florence Avenue","Address2":"PO Box 34138","City":"Sacramento","State":"CA","Zip":"95852","Description":null,"SalesValue":"$1120722.94"},
{"NoOfRooms":3,"NoOfBathrooms":1,"SqFeet":8035,"Address1":"1694 Macpherson Park","Address2":"Suite 73","City":"San Diego","State":"CA","Zip":"92115","Description":null,"SalesValue":"$9504491.07"},
{"NoOfRooms":3,"NoOfBathrooms":4,"SqFeet":4556,"Address1":"204 Roth Drive","Address2":"Room 1201","City":"Fresno","State":"CA","Zip":"93704","Description":null,"SalesValue":"$3539078.03"},
{"NoOfRooms":1,"NoOfBathrooms":3,"SqFeet":4598,"Address1":"02 Saint Paul Crossing","Address2":"15th Floor","City":"Chico","State":"CA","Zip":"95973","Description":null,"SalesValue":"$2426708.64"},
{"NoOfRooms":4,"NoOfBathrooms":3,"SqFeet":8946,"Address1":"66969 Buell Trail","Address2":"PO Box 79740","City":"Redwood City","State":"CA","Zip":"94064","Description":null,"SalesValue":"$4557037.62"},
{"NoOfRooms":5,"NoOfBathrooms":2,"SqFeet":3102,"Address1":"6 Westerfield Junction","Address2":"Apt 1912","City":"Fresno","State":"CA","Zip":"93715","Description":null,"SalesValue":"$2123024.53"},
{"NoOfRooms":5,"NoOfBathrooms":5,"SqFeet":9653,"Address1":"64 Cambridge Way","Address2":"PO Box 25040","City":"Fresno","State":"CA","Zip":"93740","Description":null,"SalesValue":"$1421694.12"},
{"NoOfRooms":5,"NoOfBathrooms":1,"SqFeet":6539,"Address1":"880 Sauthoff Place","Address2":"Suite 39","City":"San Francisco","State":"CA","Zip":"94110","Description":null,"SalesValue":"$2708754.78"},
{"NoOfRooms":5,"NoOfBathrooms":2,"SqFeet":3707,"Address1":"23937 Summit Lane","Address2":"Room 1533","City":"Pasadena","State":"CA","Zip":"91199","Description":null,"SalesValue":"$7187859.34"},
{"NoOfRooms":5,"NoOfBathrooms":2,"SqFeet":3783,"Address1":"093 Harper Point","Address2":"Apt 1200","City":"Santa Clara","State":"CA","Zip":"95054","Description":null,"SalesValue":"$605554.99"},
{"NoOfRooms":4,"NoOfBathrooms":2,"SqFeet":281,"Address1":"1553 Luster Lane","Address2":"12th Floor","City":"Sacramento","State":"CA","Zip":"95823","Description":null,"SalesValue":"$6373769.75"},
{"NoOfRooms":1,"NoOfBathrooms":4,"SqFeet":368,"Address1":"9884 Rockefeller Avenue","Address2":"Suite 31","City":"Sacramento","State":"CA","Zip":"94237","Description":null,"SalesValue":"$4408385.78"},
{"NoOfRooms":1,"NoOfBathrooms":3,"SqFeet":106,"Address1":"383 Golf View Crossing","Address2":"12th Floor","City":"Glendale","State":"CA","Zip":"91210","Description":null,"SalesValue":"$4970240.29"},
{"NoOfRooms":3,"NoOfBathrooms":4,"SqFeet":2976,"Address1":"273 Debra Park","Address2":"7th Floor","City":"San Diego","State":"CA","Zip":"92165","Description":null,"SalesValue":"$2488391.96"},
{"NoOfRooms":5,"NoOfBathrooms":1,"SqFeet":500,"Address1":"45 Pearson Street","Address2":"Suite 1","City":"Fresno","State":"CA","Zip":"93726","Description":null,"SalesValue":"$8176826.04"},
{"NoOfRooms":3,"NoOfBathrooms":3,"SqFeet":6969,"Address1":"87032 Mayfield Place","Address2":"PO Box 95226","City":"Los Angeles","State":"CA","Zip":"90035","Description":null,"SalesValue":"$9326441.86"},
{"NoOfRooms":1,"NoOfBathrooms":5,"SqFeet":1177,"Address1":"47 Roth Pass","Address2":"PO Box 5066","City":"Anaheim","State":"CA","Zip":"92825","Description":null,"SalesValue":"$2203734.08"},
{"NoOfRooms":5,"NoOfBathrooms":5,"SqFeet":6847,"Address1":"9 Kim Point","Address2":"Apt 1849","City":"Los Angeles","State":"CA","Zip":"90045","Description":null,"SalesValue":"$3239802.10"},
{"NoOfRooms":3,"NoOfBathrooms":4,"SqFeet":640,"Address1":"3470 Fremont Junction","Address2":"Suite 23","City":"Pasadena","State":"CA","Zip":"91117","Description":null,"SalesValue":"$4431862.26"},
{"NoOfRooms":3,"NoOfBathrooms":4,"SqFeet":4079,"Address1":"7925 Twin Pines Court","Address2":"Apt 1804","City":"Los Angeles","State":"CA","Zip":"90101","Description":null,"SalesValue":"$7427780.37"},
{"NoOfRooms":4,"NoOfBathrooms":3,"SqFeet":7664,"Address1":"955 Dwight Road","Address2":"Room 72","City":"Los Angeles","State":"CA","Zip":"90081","Description":null,"SalesValue":"$4113834.75"},
{"NoOfRooms":5,"NoOfBathrooms":3,"SqFeet":7016,"Address1":"45307 Pennsylvania Terrace","Address2":"Suite 58","City":"Orange","State":"CA","Zip":"92862","Description":null,"SalesValue":"$9419091.09"},
{"NoOfRooms":5,"NoOfBathrooms":4,"SqFeet":1471,"Address1":"6870 Haas Court","Address2":"Room 325","City":"San Luis Obispo","State":"CA","Zip":"93407","Description":null,"SalesValue":"$8133805.16"},
{"NoOfRooms":3,"NoOfBathrooms":4,"SqFeet":5511,"Address1":"9401 Warrior Center","Address2":"Apt 719","City":"San Francisco","State":"CA","Zip":"94126","Description":null,"SalesValue":"$764120.42"},
{"NoOfRooms":1,"NoOfBathrooms":3,"SqFeet":2441,"Address1":"8 Stoughton Alley","Address2":"PO Box 85791","City":"San Jose","State":"CA","Zip":"95108","Description":null,"SalesValue":"$2848782.07"},
{"NoOfRooms":1,"NoOfBathrooms":1,"SqFeet":1419,"Address1":"563 Knutson Circle","Address2":"Suite 62","City":"Pasadena","State":"CA","Zip":"91117","Description":null,"SalesValue":"$3074378.36"},
{"NoOfRooms":5,"NoOfBathrooms":1,"SqFeet":2886,"Address1":"1 Butterfield Drive","Address2":"Room 1993","City":"Orange","State":"CA","Zip":"92668","Description":null,"SalesValue":"$7660740.20"},
{"NoOfRooms":1,"NoOfBathrooms":3,"SqFeet":9284,"Address1":"6651 Eagan Way","Address2":"Suite 10","City":"Sacramento","State":"CA","Zip":"94297","Description":null,"SalesValue":"$6905147.18"},
{"NoOfRooms":3,"NoOfBathrooms":4,"SqFeet":882,"Address1":"30 Ridgeway Crossing","Address2":"11th Floor","City":"San Jose","State":"CA","Zip":"95108","Description":null,"SalesValue":"$3079769.99"},
{"NoOfRooms":2,"NoOfBathrooms":2,"SqFeet":2259,"Address1":"18 Linden Park","Address2":"Suite 81","City":"Glendale","State":"CA","Zip":"91205","Description":null,"SalesValue":"$4419261.45"},
{"NoOfRooms":2,"NoOfBathrooms":2,"SqFeet":196,"Address1":"51089 Oriole Way","Address2":"Suite 16","City":"Santa Barbara","State":"CA","Zip":"93111","Description":null,"SalesValue":"$3994651.52"},
{"NoOfRooms":2,"NoOfBathrooms":1,"SqFeet":7232,"Address1":"227 Lawn Pass","Address2":"Room 672","City":"Irvine","State":"CA","Zip":"92612","Description":null,"SalesValue":"$5257708.55"},
{"NoOfRooms":1,"NoOfBathrooms":4,"SqFeet":4900,"Address1":"67394 Starling Parkway","Address2":"Room 707","City":"Santa Ana","State":"CA","Zip":"92705","Description":null,"SalesValue":"$8372652.02"},
{"NoOfRooms":3,"NoOfBathrooms":3,"SqFeet":3081,"Address1":"62947 Maple Place","Address2":"4th Floor","City":"Oakland","State":"CA","Zip":"94611","Description":null,"SalesValue":"$8631480.27"},
{"NoOfRooms":4,"NoOfBathrooms":4,"SqFeet":420,"Address1":"84 Hovde Park","Address2":"Apt 1242","City":"Sacramento","State":"CA","Zip":"94250","Description":null,"SalesValue":"$3814383.91"},
{"NoOfRooms":1,"NoOfBathrooms":2,"SqFeet":1178,"Address1":"43 Michigan Alley","Address2":"Suite 33","City":"Los Angeles","State":"CA","Zip":"90189","Description":null,"SalesValue":"$1768341.74"},
{"NoOfRooms":1,"NoOfBathrooms":1,"SqFeet":2963,"Address1":"628 Kim Street","Address2":"Apt 1213","City":"Sunnyvale","State":"CA","Zip":"94089","Description":null,"SalesValue":"$3160372.42"},
{"NoOfRooms":3,"NoOfBathrooms":3,"SqFeet":4238,"Address1":"7980 Manufacturers Crossing","Address2":"Room 892","City":"Los Angeles","State":"CA","Zip":"90020","Description":null,"SalesValue":"$6863876.01"},
{"NoOfRooms":4,"NoOfBathrooms":5,"SqFeet":2926,"Address1":"53764 Carpenter Avenue","Address2":"Apt 655","City":"Bakersfield","State":"CA","Zip":"93381","Description":null,"SalesValue":"$9112045.27"},
{"NoOfRooms":1,"NoOfBathrooms":4,"SqFeet":2489,"Address1":"8 Sheridan Court","Address2":"Suite 66","City":"Anaheim","State":"CA","Zip":"92805","Description":null,"SalesValue":"$7599729.00"},
{"NoOfRooms":4,"NoOfBathrooms":4,"SqFeet":6555,"Address1":"09 Texas Park","Address2":"6th Floor","City":"Los Angeles","State":"CA","Zip":"90071","Description":null,"SalesValue":"$7332896.10"},
{"NoOfRooms":2,"NoOfBathrooms":4,"SqFeet":4643,"Address1":"2585 Mccormick Hill","Address2":"Suite 36","City":"Inglewood","State":"CA","Zip":"90398","Description":null,"SalesValue":"$9722201.18"},
{"NoOfRooms":3,"NoOfBathrooms":5,"SqFeet":6850,"Address1":"23 Kim Drive","Address2":"Room 1578","City":"Garden Grove","State":"CA","Zip":"92645","Description":null,"SalesValue":"$3098855.15"},
{"NoOfRooms":4,"NoOfBathrooms":1,"SqFeet":454,"Address1":"39 Barby Lane","Address2":"1st Floor","City":"Modesto","State":"CA","Zip":"95397","Description":null,"SalesValue":"$9969497.16"},
{"NoOfRooms":5,"NoOfBathrooms":2,"SqFeet":1753,"Address1":"6050 Rieder Drive","Address2":"13th Floor","City":"San Diego","State":"CA","Zip":"92186","Description":null,"SalesValue":"$9035434.24"},
{"NoOfRooms":5,"NoOfBathrooms":1,"SqFeet":8306,"Address1":"589 Dawn Alley","Address2":"Suite 79","City":"Fresno","State":"CA","Zip":"93709","Description":null,"SalesValue":"$1165916.69"},
{"NoOfRooms":1,"NoOfBathrooms":3,"SqFeet":4463,"Address1":"3 Northview Junction","Address2":"13th Floor","City":"Santa Rosa","State":"CA","Zip":"95405","Description":null,"SalesValue":"$3759114.72"},
{"NoOfRooms":1,"NoOfBathrooms":5,"SqFeet":2093,"Address1":"09 Ronald Regan Parkway","Address2":"PO Box 99273","City":"San Francisco","State":"CA","Zip":"94116","Description":null,"SalesValue":"$6707263.96"},
{"NoOfRooms":3,"NoOfBathrooms":2,"SqFeet":3508,"Address1":"49794 Westridge Circle","Address2":"10th Floor","City":"Anaheim","State":"CA","Zip":"92825","Description":null,"SalesValue":"$5999508.38"},
{"NoOfRooms":5,"NoOfBathrooms":2,"SqFeet":7430,"Address1":"72948 Farragut Circle","Address2":"17th Floor","City":"Santa Monica","State":"CA","Zip":"90410","Description":null,"SalesValue":"$8529689.90"},
{"NoOfRooms":1,"NoOfBathrooms":3,"SqFeet":1647,"Address1":"7 Oak Trail","Address2":"Room 560","City":"Los Angeles","State":"CA","Zip":"90045","Description":null,"SalesValue":"$7879457.11"},
{"NoOfRooms":1,"NoOfBathrooms":3,"SqFeet":1221,"Address1":"26 Judy Lane","Address2":"Apt 1328","City":"San Francisco","State":"CA","Zip":"94177","Description":null,"SalesValue":"$7532206.02"},
{"NoOfRooms":1,"NoOfBathrooms":1,"SqFeet":1289,"Address1":"93429 American Court","Address2":"Room 1775","City":"Brea","State":"CA","Zip":"92822","Description":null,"SalesValue":"$6286096.79"},
{"NoOfRooms":2,"NoOfBathrooms":3,"SqFeet":3979,"Address1":"1232 Spenser Parkway","Address2":"PO Box 20496","City":"San Rafael","State":"CA","Zip":"94913","Description":null,"SalesValue":"$7089616.36"},
{"NoOfRooms":1,"NoOfBathrooms":5,"SqFeet":9174,"Address1":"19972 Pearson Center","Address2":"Apt 364","City":"Visalia","State":"CA","Zip":"93291","Description":null,"SalesValue":"$1836717.69"},
{"NoOfRooms":4,"NoOfBathrooms":1,"SqFeet":9474,"Address1":"6 Sachtjen Alley","Address2":"8th Floor","City":"Pasadena","State":"CA","Zip":"91117","Description":null,"SalesValue":"$7788392.65"},
{"NoOfRooms":2,"NoOfBathrooms":2,"SqFeet":8181,"Address1":"32 Sutteridge Parkway","Address2":"PO Box 22219","City":"Oakland","State":"CA","Zip":"94611","Description":null,"SalesValue":"$1363410.81"},
{"NoOfRooms":2,"NoOfBathrooms":4,"SqFeet":6523,"Address1":"5271 Blaine Alley","Address2":"Suite 35","City":"Sacramento","State":"CA","Zip":"94280","Description":null,"SalesValue":"$8378962.21"},
{"NoOfRooms":4,"NoOfBathrooms":1,"SqFeet":3358,"Address1":"95 Drewry Drive","Address2":"13th Floor","City":"Stockton","State":"CA","Zip":"95205","Description":null,"SalesValue":"$2397661.03"},
{"NoOfRooms":3,"NoOfBathrooms":1,"SqFeet":4635,"Address1":"4 High Crossing Avenue","Address2":"3rd Floor","City":"Los Angeles","State":"CA","Zip":"90025","Description":null,"SalesValue":"$8323113.12"},
{"NoOfRooms":5,"NoOfBathrooms":5,"SqFeet":8111,"Address1":"9 Ruskin Trail","Address2":"Room 131","City":"Riverside","State":"CA","Zip":"92519","Description":null,"SalesValue":"$3023443.55"},
{"NoOfRooms":5,"NoOfBathrooms":4,"SqFeet":7936,"Address1":"60 Forest Hill","Address2":"Apt 132","City":"Orange","State":"CA","Zip":"92862","Description":null,"SalesValue":"$2530597.67"},
{"NoOfRooms":5,"NoOfBathrooms":1,"SqFeet":4537,"Address1":"80 Acker Plaza","Address2":"Suite 41","City":"San Diego","State":"CA","Zip":"92170","Description":null,"SalesValue":"$1872656.76"},
{"NoOfRooms":1,"NoOfBathrooms":4,"SqFeet":7391,"Address1":"8 Manufacturers Center","Address2":"PO Box 42886","City":"Sacramento","State":"CA","Zip":"94297","Description":null,"SalesValue":"$4326348.14"},
{"NoOfRooms":1,"NoOfBathrooms":5,"SqFeet":900,"Address1":"4 Dapin Plaza","Address2":"PO Box 15376","City":"Pasadena","State":"CA","Zip":"91131","Description":null,"SalesValue":"$4340399.55"},
{"NoOfRooms":2,"NoOfBathrooms":4,"SqFeet":5947,"Address1":"6 Anniversary Circle","Address2":"Apt 562","City":"Anaheim","State":"CA","Zip":"92812","Description":null,"SalesValue":"$3929825.83"},
{"NoOfRooms":2,"NoOfBathrooms":2,"SqFeet":6863,"Address1":"245 Golf View Center","Address2":"Apt 344","City":"Garden Grove","State":"CA","Zip":"92645","Description":null,"SalesValue":"$746405.79"},
{"NoOfRooms":3,"NoOfBathrooms":4,"SqFeet":7440,"Address1":"94999 Village Green Plaza","Address2":"Apt 1256","City":"Anaheim","State":"CA","Zip":"92805","Description":null,"SalesValue":"$6943672.25"},
{"NoOfRooms":1,"NoOfBathrooms":2,"SqFeet":1924,"Address1":"540 Sommers Park","Address2":"Apt 973","City":"Garden Grove","State":"CA","Zip":"92645","Description":null,"SalesValue":"$7938743.68"},
{"NoOfRooms":4,"NoOfBathrooms":5,"SqFeet":172,"Address1":"4758 Dayton Point","Address2":"Apt 985","City":"Anaheim","State":"CA","Zip":"92825","Description":null,"SalesValue":"$3427614.60"},
{"NoOfRooms":3,"NoOfBathrooms":4,"SqFeet":4678,"Address1":"934 Beilfuss Alley","Address2":"Apt 277","City":"Los Angeles","State":"CA","Zip":"90071","Description":null,"SalesValue":"$3146174.26"},
{"NoOfRooms":2,"NoOfBathrooms":2,"SqFeet":4627,"Address1":"680 Merry Plaza","Address2":"Room 1311","City":"San Diego","State":"CA","Zip":"92170","Description":null,"SalesValue":"$3127544.56"},
{"NoOfRooms":2,"NoOfBathrooms":2,"SqFeet":8009,"Address1":"023 Canary Way","Address2":"Suite 10","City":"San Diego","State":"CA","Zip":"92121","Description":null,"SalesValue":"$6604548.13"},
{"NoOfRooms":2,"NoOfBathrooms":3,"SqFeet":8637,"Address1":"5 Hoffman Crossing","Address2":"Apt 1649","City":"Los Angeles","State":"CA","Zip":"90025","Description":null,"SalesValue":"$1559816.46"},
{"NoOfRooms":5,"NoOfBathrooms":1,"SqFeet":8202,"Address1":"38 Bashford Center","Address2":"Suite 97","City":"San Diego","State":"CA","Zip":"92191","Description":null,"SalesValue":"$1251772.20"},
{"NoOfRooms":2,"NoOfBathrooms":2,"SqFeet":6172,"Address1":"8034 Lindbergh Parkway","Address2":"Room 1761","City":"Garden Grove","State":"CA","Zip":"92844","Description":null,"SalesValue":"$2969903.97"},
{"NoOfRooms":1,"NoOfBathrooms":1,"SqFeet":6229,"Address1":"99 Service Parkway","Address2":"3rd Floor","City":"Los Angeles","State":"CA","Zip":"90060","Description":null,"SalesValue":"$2142204.14"},
{"NoOfRooms":3,"NoOfBathrooms":4,"SqFeet":874,"Address1":"3 Amoth Lane","Address2":"Room 816","City":"Sacramento","State":"CA","Zip":"94230","Description":null,"SalesValue":"$2682136.60"},
{"NoOfRooms":2,"NoOfBathrooms":4,"SqFeet":1658,"Address1":"1 Novick Way","Address2":"13th Floor","City":"Bakersfield","State":"CA","Zip":"93399","Description":null,"SalesValue":"$5325786.80"},
{"NoOfRooms":1,"NoOfBathrooms":4,"SqFeet":7945,"Address1":"789 American Ash Junction","Address2":"PO Box 1666","City":"Los Angeles","State":"CA","Zip":"90094","Description":null,"SalesValue":"$1616161.53"},
{"NoOfRooms":5,"NoOfBathrooms":2,"SqFeet":5007,"Address1":"76 Ronald Regan Junction","Address2":"Apt 95","City":"Riverside","State":"CA","Zip":"92505","Description":null,"SalesValue":"$7329593.18"},
{"NoOfRooms":5,"NoOfBathrooms":5,"SqFeet":6253,"Address1":"7 Jenifer Trail","Address2":"Room 178","City":"Oxnard","State":"CA","Zip":"93034","Description":null,"SalesValue":"$8246686.81"},
{"NoOfRooms":4,"NoOfBathrooms":1,"SqFeet":6068,"Address1":"59 Brickson Park Lane","Address2":"Apt 991","City":"Moreno Valley","State":"CA","Zip":"92555","Description":null,"SalesValue":"$7040590.55"},
{"NoOfRooms":5,"NoOfBathrooms":1,"SqFeet":2279,"Address1":"18744 Westerfield Lane","Address2":"Room 85","City":"Concord","State":"CA","Zip":"94522","Description":null,"SalesValue":"$7534908.14"},
{"NoOfRooms":5,"NoOfBathrooms":2,"SqFeet":4752,"Address1":"24 Summerview Court","Address2":"4th Floor","City":"Irvine","State":"CA","Zip":"92717","Description":null,"SalesValue":"$7249302.90"},
{"NoOfRooms":1,"NoOfBathrooms":5,"SqFeet":1233,"Address1":"58 Butternut Crossing","Address2":"Apt 1328","City":"San Jose","State":"CA","Zip":"95173","Description":null,"SalesValue":"$7014021.17"},
{"NoOfRooms":4,"NoOfBathrooms":5,"SqFeet":9795,"Address1":"1 Straubel Way","Address2":"Room 1289","City":"Salinas","State":"CA","Zip":"93907","Description":null,"SalesValue":"$8611946.73"},
{"NoOfRooms":1,"NoOfBathrooms":2,"SqFeet":8702,"Address1":"05359 Crest Line Point","Address2":"PO Box 5763","City":"San Jose","State":"CA","Zip":"95118","Description":null,"SalesValue":"$6098608.19"},
{"NoOfRooms":4,"NoOfBathrooms":3,"SqFeet":2554,"Address1":"6239 Norway Maple Point","Address2":"Room 775","City":"San Bernardino","State":"CA","Zip":"92410","Description":null,"SalesValue":"$3781727.76"},
{"NoOfRooms":2,"NoOfBathrooms":1,"SqFeet":5088,"Address1":"08 Meadow Vale Place","Address2":"PO Box 78502","City":"Fresno","State":"CA","Zip":"93762","Description":null,"SalesValue":"$8921484.28"},
{"NoOfRooms":1,"NoOfBathrooms":2,"SqFeet":3732,"Address1":"61972 Commercial Lane","Address2":"20th Floor","City":"San Bernardino","State":"CA","Zip":"92410","Description":null,"SalesValue":"$7534361.21"},
{"NoOfRooms":4,"NoOfBathrooms":3,"SqFeet":2727,"Address1":"96147 Memorial Avenue","Address2":"PO Box 32692","City":"Sacramento","State":"CA","Zip":"94230","Description":null,"SalesValue":"$6103422.46"},
{"NoOfRooms":2,"NoOfBathrooms":1,"SqFeet":6960,"Address1":"8 Scoville Terrace","Address2":"Suite 78","City":"San Jose","State":"CA","Zip":"95155","Description":null,"SalesValue":"$8552958.76"},
{"NoOfRooms":1,"NoOfBathrooms":1,"SqFeet":9774,"Address1":"7625 Meadow Ridge Hill","Address2":"Apt 1154","City":"San Diego","State":"CA","Zip":"92165","Description":null,"SalesValue":"$5645430.35"},
{"NoOfRooms":3,"NoOfBathrooms":5,"SqFeet":5002,"Address1":"23 Sutteridge Parkway","Address2":"Room 1737","City":"Corona","State":"CA","Zip":"92878","Description":null,"SalesValue":"$9160623.57"},
{"NoOfRooms":5,"NoOfBathrooms":3,"SqFeet":4441,"Address1":"326 Mallard Crossing","Address2":"5th Floor","City":"Stockton","State":"CA","Zip":"95219","Description":null,"SalesValue":"$1451503.18"},
{"NoOfRooms":1,"NoOfBathrooms":4,"SqFeet":9042,"Address1":"84628 Hayes Circle","Address2":"20th Floor","City":"Pasadena","State":"CA","Zip":"91131","Description":null,"SalesValue":"$3805491.50"},
{"NoOfRooms":4,"NoOfBathrooms":5,"SqFeet":9112,"Address1":"436 Bluestem Road","Address2":"Room 1291","City":"San Francisco","State":"CA","Zip":"94164","Description":null,"SalesValue":"$3175301.25"},
{"NoOfRooms":1,"NoOfBathrooms":2,"SqFeet":2381,"Address1":"25 Amoth Trail","Address2":"1st Floor","City":"Oakland","State":"CA","Zip":"94627","Description":null,"SalesValue":"$4391350.41"},
{"NoOfRooms":1,"NoOfBathrooms":3,"SqFeet":6758,"Address1":"96835 Logan Crossing","Address2":"Apt 88","City":"Bakersfield","State":"CA","Zip":"93305","Description":null,"SalesValue":"$3550017.93"},
{"NoOfRooms":3,"NoOfBathrooms":3,"SqFeet":7803,"Address1":"7 Ruskin Plaza","Address2":"17th Floor","City":"Los Angeles","State":"CA","Zip":"90015","Description":null,"SalesValue":"$2998627.30"},
{"NoOfRooms":3,"NoOfBathrooms":1,"SqFeet":9981,"Address1":"2 Loeprich Trail","Address2":"Room 24","City":"Los Angeles","State":"CA","Zip":"90087","Description":null,"SalesValue":"$3943426.05"},
{"NoOfRooms":4,"NoOfBathrooms":2,"SqFeet":2706,"Address1":"0278 Derek Drive","Address2":"Suite 2","City":"San Jose","State":"CA","Zip":"95160","Description":null,"SalesValue":"$3564304.46"},
{"NoOfRooms":3,"NoOfBathrooms":2,"SqFeet":3689,"Address1":"2 Hanson Road","Address2":"Room 1070","City":"Pasadena","State":"CA","Zip":"91186","Description":null,"SalesValue":"$7058889.36"},
{"NoOfRooms":1,"NoOfBathrooms":4,"SqFeet":5132,"Address1":"5 Corry Crossing","Address2":"Suite 58","City":"San Jose","State":"CA","Zip":"95150","Description":null,"SalesValue":"$6531224.51"},
{"NoOfRooms":1,"NoOfBathrooms":2,"SqFeet":7958,"Address1":"28415 Green Ridge Crossing","Address2":"Room 908","City":"San Francisco","State":"CA","Zip":"94105","Description":null,"SalesValue":"$7548083.97"},
{"NoOfRooms":4,"NoOfBathrooms":1,"SqFeet":1451,"Address1":"0053 Ilene Circle","Address2":"Room 1942","City":"Los Angeles","State":"CA","Zip":"90071","Description":null,"SalesValue":"$7770179.12"},
{"NoOfRooms":3,"NoOfBathrooms":1,"SqFeet":9238,"Address1":"47894 Waywood Street","Address2":"Apt 863","City":"Inglewood","State":"CA","Zip":"90305","Description":null,"SalesValue":"$8628896.37"},
{"NoOfRooms":2,"NoOfBathrooms":2,"SqFeet":3423,"Address1":"377 Kropf Way","Address2":"Room 236","City":"San Francisco","State":"CA","Zip":"94159","Description":null,"SalesValue":"$1226284.22"},
{"NoOfRooms":5,"NoOfBathrooms":3,"SqFeet":2039,"Address1":"18 Waubesa Terrace","Address2":"Room 148","City":"San Diego","State":"CA","Zip":"92105","Description":null,"SalesValue":"$8093391.49"},
{"NoOfRooms":4,"NoOfBathrooms":5,"SqFeet":808,"Address1":"25212 Eastlawn Center","Address2":"16th Floor","City":"Carlsbad","State":"CA","Zip":"92013","Description":null,"SalesValue":"$8499232.40"},
{"NoOfRooms":4,"NoOfBathrooms":5,"SqFeet":6858,"Address1":"4705 Roth Way","Address2":"PO Box 25478","City":"San Diego","State":"CA","Zip":"92160","Description":null,"SalesValue":"$7536472.25"},
{"NoOfRooms":1,"NoOfBathrooms":4,"SqFeet":7259,"Address1":"849 Anhalt Point","Address2":"PO Box 40605","City":"North Hollywood","State":"CA","Zip":"91606","Description":null,"SalesValue":"$6214382.84"},
{"NoOfRooms":1,"NoOfBathrooms":2,"SqFeet":745,"Address1":"587 Oxford Center","Address2":"PO Box 93961","City":"Van Nuys","State":"CA","Zip":"91406","Description":null,"SalesValue":"$1888003.71"},
{"NoOfRooms":2,"NoOfBathrooms":1,"SqFeet":7642,"Address1":"8842 Union Place","Address2":"Room 426","City":"Los Angeles","State":"CA","Zip":"90015","Description":null,"SalesValue":"$9981238.05"},
{"NoOfRooms":3,"NoOfBathrooms":2,"SqFeet":3564,"Address1":"2676 Buell Circle","Address2":"PO Box 84266","City":"San Diego","State":"CA","Zip":"92191","Description":null,"SalesValue":"$8903110.54"},
{"NoOfRooms":1,"NoOfBathrooms":3,"SqFeet":3739,"Address1":"66070 Bellgrove Street","Address2":"Suite 93","City":"San Francisco","State":"CA","Zip":"94137","Description":null,"SalesValue":"$3430203.54"},
{"NoOfRooms":4,"NoOfBathrooms":5,"SqFeet":7394,"Address1":"5705 Pepper Wood Way","Address2":"Suite 9","City":"Inglewood","State":"CA","Zip":"90310","Description":null,"SalesValue":"$1158988.95"},
{"NoOfRooms":4,"NoOfBathrooms":5,"SqFeet":542,"Address1":"9384 Hansons Lane","Address2":"19th Floor","City":"Fresno","State":"CA","Zip":"93709","Description":null,"SalesValue":"$7713882.22"},
{"NoOfRooms":4,"NoOfBathrooms":4,"SqFeet":3438,"Address1":"96 Debra Court","Address2":"Suite 85","City":"Santa Monica","State":"CA","Zip":"90405","Description":null,"SalesValue":"$9471589.39"},
{"NoOfRooms":5,"NoOfBathrooms":3,"SqFeet":1668,"Address1":"35925 Eggendart Circle","Address2":"Apt 1910","City":"Pasadena","State":"CA","Zip":"91186","Description":null,"SalesValue":"$759347.11"},
{"NoOfRooms":1,"NoOfBathrooms":3,"SqFeet":2312,"Address1":"9 Weeping Birch Circle","Address2":"Apt 523","City":"North Hollywood","State":"CA","Zip":"91616","Description":null,"SalesValue":"$9062437.56"},
{"NoOfRooms":1,"NoOfBathrooms":1,"SqFeet":8759,"Address1":"974 Meadow Vale Point","Address2":"Room 989","City":"Fullerton","State":"CA","Zip":"92640","Description":null,"SalesValue":"$6077824.81"},
{"NoOfRooms":5,"NoOfBathrooms":4,"SqFeet":7658,"Address1":"495 Mayfield Crossing","Address2":"Room 631","City":"Irvine","State":"CA","Zip":"92710","Description":null,"SalesValue":"$3270297.89"},
{"NoOfRooms":5,"NoOfBathrooms":4,"SqFeet":9818,"Address1":"99546 Sommers Alley","Address2":"16th Floor","City":"Stockton","State":"CA","Zip":"95298","Description":null,"SalesValue":"$2621763.11"},
{"NoOfRooms":1,"NoOfBathrooms":5,"SqFeet":5749,"Address1":"935 Pond Terrace","Address2":"Room 772","City":"Sacramento","State":"CA","Zip":"94250","Description":null,"SalesValue":"$6801369.36"},
{"NoOfRooms":1,"NoOfBathrooms":1,"SqFeet":7681,"Address1":"9914 Troy Center","Address2":"10th Floor","City":"Pasadena","State":"CA","Zip":"91199","Description":null,"SalesValue":"$775556.09"},
{"NoOfRooms":5,"NoOfBathrooms":5,"SqFeet":5532,"Address1":"28 Texas Junction","Address2":"Suite 35","City":"Los Angeles","State":"CA","Zip":"90065","Description":null,"SalesValue":"$9016746.98"},
{"NoOfRooms":5,"NoOfBathrooms":4,"SqFeet":6500,"Address1":"5 Tennessee Place","Address2":"Apt 57","City":"Los Angeles","State":"CA","Zip":"90035","Description":null,"SalesValue":"$4804597.82"},
{"NoOfRooms":1,"NoOfBathrooms":3,"SqFeet":1278,"Address1":"08200 Moulton Road","Address2":"Apt 294","City":"San Diego","State":"CA","Zip":"92160","Description":null,"SalesValue":"$1683002.83"},
{"NoOfRooms":4,"NoOfBathrooms":3,"SqFeet":9008,"Address1":"08430 Susan Avenue","Address2":"Room 1979","City":"Sacramento","State":"CA","Zip":"94263","Description":null,"SalesValue":"$4014262.46"},
{"NoOfRooms":2,"NoOfBathrooms":2,"SqFeet":7112,"Address1":"37265 Comanche Way","Address2":"PO Box 90890","City":"Pasadena","State":"CA","Zip":"91199","Description":null,"SalesValue":"$9956908.54"},
{"NoOfRooms":2,"NoOfBathrooms":4,"SqFeet":747,"Address1":"278 Monument Crossing","Address2":"12th Floor","City":"Santa Barbara","State":"CA","Zip":"93111","Description":null,"SalesValue":"$5434188.70"},
{"NoOfRooms":4,"NoOfBathrooms":3,"SqFeet":5398,"Address1":"93 Mcguire Point","Address2":"Suite 15","City":"Newport Beach","State":"CA","Zip":"92662","Description":null,"SalesValue":"$2028527.08"},
{"NoOfRooms":2,"NoOfBathrooms":2,"SqFeet":7868,"Address1":"93 Rockefeller Drive","Address2":"Room 848","City":"San Diego","State":"CA","Zip":"92127","Description":null,"SalesValue":"$7628971.00"},
{"NoOfRooms":2,"NoOfBathrooms":4,"SqFeet":4324,"Address1":"87442 Ronald Regan Alley","Address2":"1st Floor","City":"Sacramento","State":"CA","Zip":"95813","Description":null,"SalesValue":"$6970288.02"},
{"NoOfRooms":1,"NoOfBathrooms":4,"SqFeet":1881,"Address1":"211 Gale Drive","Address2":"Suite 8","City":"Santa Ana","State":"CA","Zip":"92725","Description":null,"SalesValue":"$8487264.50"},
{"NoOfRooms":3,"NoOfBathrooms":2,"SqFeet":4684,"Address1":"734 Fairview Center","Address2":"Suite 22","City":"Fullerton","State":"CA","Zip":"92835","Description":null,"SalesValue":"$2727752.44"},
{"NoOfRooms":2,"NoOfBathrooms":1,"SqFeet":6001,"Address1":"7986 Raven Court","Address2":"Suite 36","City":"Van Nuys","State":"CA","Zip":"91406","Description":null,"SalesValue":"$6791063.86"},
{"NoOfRooms":5,"NoOfBathrooms":1,"SqFeet":1144,"Address1":"104 John Wall Crossing","Address2":"PO Box 78862","City":"Redwood City","State":"CA","Zip":"94064","Description":null,"SalesValue":"$2149032.59"},
{"NoOfRooms":3,"NoOfBathrooms":2,"SqFeet":8244,"Address1":"1 Eggendart Hill","Address2":"PO Box 97476","City":"Oakland","State":"CA","Zip":"94605","Description":null,"SalesValue":"$6743209.60"},
{"NoOfRooms":5,"NoOfBathrooms":4,"SqFeet":5210,"Address1":"755 Carpenter Place","Address2":"Room 1699","City":"Torrance","State":"CA","Zip":"90510","Description":null,"SalesValue":"$3701065.76"},
{"NoOfRooms":5,"NoOfBathrooms":1,"SqFeet":1460,"Address1":"3 Manufacturers Point","Address2":"Apt 1726","City":"Long Beach","State":"CA","Zip":"90805","Description":null,"SalesValue":"$5248744.64"},
{"NoOfRooms":1,"NoOfBathrooms":3,"SqFeet":6852,"Address1":"3 Schurz Trail","Address2":"20th Floor","City":"San Francisco","State":"CA","Zip":"94116","Description":null,"SalesValue":"$692332.68"},
{"NoOfRooms":5,"NoOfBathrooms":5,"SqFeet":2652,"Address1":"6736 Mcguire Court","Address2":"PO Box 74858","City":"Orange","State":"CA","Zip":"92862","Description":null,"SalesValue":"$7442267.70"},
{"NoOfRooms":2,"NoOfBathrooms":3,"SqFeet":8472,"Address1":"11312 Hayes Junction","Address2":"PO Box 30776","City":"San Francisco","State":"CA","Zip":"94154","Description":null,"SalesValue":"$7384876.51"},
{"NoOfRooms":5,"NoOfBathrooms":2,"SqFeet":7573,"Address1":"1199 Londonderry Plaza","Address2":"Room 858","City":"Garden Grove","State":"CA","Zip":"92844","Description":null,"SalesValue":"$7820375.89"},
{"NoOfRooms":4,"NoOfBathrooms":4,"SqFeet":7085,"Address1":"8 Village Street","Address2":"8th Floor","City":"Fresno","State":"CA","Zip":"93786","Description":null,"SalesValue":"$2887298.80"},
{"NoOfRooms":2,"NoOfBathrooms":5,"SqFeet":7189,"Address1":"9278 Lakewood Plaza","Address2":"13th Floor","City":"Garden Grove","State":"CA","Zip":"92645","Description":null,"SalesValue":"$8432373.34"},
{"NoOfRooms":2,"NoOfBathrooms":5,"SqFeet":5314,"Address1":"02 Del Mar Trail","Address2":"Apt 99","City":"San Diego","State":"CA","Zip":"92176","Description":null,"SalesValue":"$5426259.07"},
{"NoOfRooms":2,"NoOfBathrooms":1,"SqFeet":5943,"Address1":"9364 Farragut Lane","Address2":"PO Box 85477","City":"Torrance","State":"CA","Zip":"90505","Description":null,"SalesValue":"$1891405.10"},
{"NoOfRooms":4,"NoOfBathrooms":3,"SqFeet":8877,"Address1":"360 Rieder Place","Address2":"Suite 62","City":"Fresno","State":"CA","Zip":"93794","Description":null,"SalesValue":"$715364.73"},
{"NoOfRooms":5,"NoOfBathrooms":5,"SqFeet":9231,"Address1":"4 Lien Parkway","Address2":"Suite 77","City":"Santa Monica","State":"CA","Zip":"90405","Description":null,"SalesValue":"$2931848.82"},
{"NoOfRooms":3,"NoOfBathrooms":4,"SqFeet":5631,"Address1":"6237 Northport Street","Address2":"Apt 567","City":"San Diego","State":"CA","Zip":"92110","Description":null,"SalesValue":"$4859613.05"},
{"NoOfRooms":1,"NoOfBathrooms":1,"SqFeet":7429,"Address1":"96 Hagan Center","Address2":"Room 1207","City":"Whittier","State":"CA","Zip":"90610","Description":null,"SalesValue":"$4970939.09"},
{"NoOfRooms":1,"NoOfBathrooms":3,"SqFeet":1003,"Address1":"06 Stone Corner Alley","Address2":"19th Floor","City":"Sacramento","State":"CA","Zip":"95823","Description":null,"SalesValue":"$867745.05"},
{"NoOfRooms":1,"NoOfBathrooms":3,"SqFeet":3141,"Address1":"0 Brown Avenue","Address2":"Room 244","City":"Concord","State":"CA","Zip":"94522","Description":null,"SalesValue":"$8713217.09"},
{"NoOfRooms":1,"NoOfBathrooms":4,"SqFeet":5666,"Address1":"9 Carberry Hill","Address2":"PO Box 54453","City":"San Francisco","State":"CA","Zip":"94116","Description":null,"SalesValue":"$7335835.22"},
{"NoOfRooms":5,"NoOfBathrooms":1,"SqFeet":2320,"Address1":"7877 Ludington Drive","Address2":"Room 1972","City":"Van Nuys","State":"CA","Zip":"91411","Description":null,"SalesValue":"$2577929.38"},
{"NoOfRooms":1,"NoOfBathrooms":1,"SqFeet":1112,"Address1":"8 8th Hill","Address2":"18th Floor","City":"Riverside","State":"CA","Zip":"92513","Description":null,"SalesValue":"$9283405.52"},
{"NoOfRooms":5,"NoOfBathrooms":5,"SqFeet":4552,"Address1":"093 Atwood Center","Address2":"2nd Floor","City":"Oakland","State":"CA","Zip":"94627","Description":null,"SalesValue":"$9586798.53"},
{"NoOfRooms":5,"NoOfBathrooms":5,"SqFeet":2205,"Address1":"94 Lukken Point","Address2":"PO Box 16633","City":"Garden Grove","State":"CA","Zip":"92844","Description":null,"SalesValue":"$8244902.77"},
{"NoOfRooms":1,"NoOfBathrooms":4,"SqFeet":9539,"Address1":"75108 Elka Place","Address2":"Suite 58","City":"Fresno","State":"CA","Zip":"93740","Description":null,"SalesValue":"$6696828.45"},
{"NoOfRooms":5,"NoOfBathrooms":4,"SqFeet":8331,"Address1":"95 Harbort Way","Address2":"Room 1895","City":"Pasadena","State":"CA","Zip":"91131","Description":null,"SalesValue":"$3055536.08"},
{"NoOfRooms":4,"NoOfBathrooms":3,"SqFeet":4489,"Address1":"45 Delladonna Way","Address2":"14th Floor","City":"San Francisco","State":"CA","Zip":"94110","Description":null,"SalesValue":"$2946542.55"},
{"NoOfRooms":5,"NoOfBathrooms":3,"SqFeet":3302,"Address1":"27542 Lunder Crossing","Address2":"Room 476","City":"San Francisco","State":"CA","Zip":"94177","Description":null,"SalesValue":"$6982363.88"},
{"NoOfRooms":1,"NoOfBathrooms":2,"SqFeet":8547,"Address1":"600 Roth Center","Address2":"PO Box 76906","City":"Sacramento","State":"CA","Zip":"95852","Description":null,"SalesValue":"$2221341.44"},
{"NoOfRooms":4,"NoOfBathrooms":4,"SqFeet":1842,"Address1":"761 Bluestem Alley","Address2":"1st Floor","City":"Sacramento","State":"CA","Zip":"94237","Description":null,"SalesValue":"$4023499.15"},
{"NoOfRooms":3,"NoOfBathrooms":2,"SqFeet":5763,"Address1":"89 Portage Crossing","Address2":"Room 844","City":"San Mateo","State":"CA","Zip":"94405","Description":null,"SalesValue":"$4273616.56"},
{"NoOfRooms":4,"NoOfBathrooms":4,"SqFeet":4019,"Address1":"7 Colorado Terrace","Address2":"Suite 68","City":"Long Beach","State":"CA","Zip":"90805","Description":null,"SalesValue":"$5026173.99"},
{"NoOfRooms":3,"NoOfBathrooms":5,"SqFeet":1073,"Address1":"6293 Nelson Place","Address2":"12th Floor","City":"Petaluma","State":"CA","Zip":"94975","Description":null,"SalesValue":"$2452778.48"},
{"NoOfRooms":5,"NoOfBathrooms":3,"SqFeet":3650,"Address1":"29 Mayer Terrace","Address2":"2nd Floor","City":"Fresno","State":"CA","Zip":"93794","Description":null,"SalesValue":"$2335849.10"},
{"NoOfRooms":2,"NoOfBathrooms":3,"SqFeet":9101,"Address1":"40 Mccormick Street","Address2":"Suite 22","City":"San Diego","State":"CA","Zip":"92145","Description":null,"SalesValue":"$6881644.34"},
{"NoOfRooms":5,"NoOfBathrooms":1,"SqFeet":2842,"Address1":"89488 Tennyson Parkway","Address2":"Room 1542","City":"Oakland","State":"CA","Zip":"94627","Description":null,"SalesValue":"$2003822.33"},
{"NoOfRooms":1,"NoOfBathrooms":3,"SqFeet":4590,"Address1":"95 Declaration Circle","Address2":"3rd Floor","City":"San Francisco","State":"CA","Zip":"94154","Description":null,"SalesValue":"$8980715.61"},
{"NoOfRooms":4,"NoOfBathrooms":4,"SqFeet":7156,"Address1":"64 Weeping Birch Plaza","Address2":"PO Box 56209","City":"Salinas","State":"CA","Zip":"93907","Description":null,"SalesValue":"$2489309.63"},
{"NoOfRooms":1,"NoOfBathrooms":5,"SqFeet":7108,"Address1":"5429 Glendale Park","Address2":"8th Floor","City":"San Bernardino","State":"CA","Zip":"92410","Description":null,"SalesValue":"$7890879.20"},
{"NoOfRooms":4,"NoOfBathrooms":3,"SqFeet":926,"Address1":"75384 Becker Park","Address2":"PO Box 86087","City":"Sacramento","State":"CA","Zip":"94230","Description":null,"SalesValue":"$4915340.13"},
{"NoOfRooms":2,"NoOfBathrooms":1,"SqFeet":2897,"Address1":"7 Shasta Parkway","Address2":"Suite 2","City":"Fresno","State":"CA","Zip":"93762","Description":null,"SalesValue":"$2267411.61"},
{"NoOfRooms":4,"NoOfBathrooms":2,"SqFeet":4993,"Address1":"17831 Buhler Park","Address2":"Apt 81","City":"San Francisco","State":"CA","Zip":"94169","Description":null,"SalesValue":"$9214640.93"},
{"NoOfRooms":3,"NoOfBathrooms":2,"SqFeet":6840,"Address1":"852 Annamark Place","Address2":"Room 459","City":"Sacramento","State":"CA","Zip":"94297","Description":null,"SalesValue":"$9450726.14"},
{"NoOfRooms":4,"NoOfBathrooms":4,"SqFeet":9526,"Address1":"94 Karstens Place","Address2":"3rd Floor","City":"Pasadena","State":"CA","Zip":"91186","Description":null,"SalesValue":"$6077722.16"},
{"NoOfRooms":1,"NoOfBathrooms":1,"SqFeet":2124,"Address1":"18 Debra Crossing","Address2":"PO Box 85793","City":"Lancaster","State":"CA","Zip":"93584","Description":null,"SalesValue":"$3153819.19"},
{"NoOfRooms":3,"NoOfBathrooms":2,"SqFeet":3786,"Address1":"1163 Golf Course Hill","Address2":"Suite 100","City":"San Diego","State":"CA","Zip":"92176","Description":null,"SalesValue":"$3546734.36"},
{"NoOfRooms":1,"NoOfBathrooms":3,"SqFeet":2071,"Address1":"9408 Eagan Park","Address2":"Apt 1721","City":"Richmond","State":"CA","Zip":"94807","Description":null,"SalesValue":"$5123426.38"},
{"NoOfRooms":1,"NoOfBathrooms":1,"SqFeet":3244,"Address1":"722 Independence Parkway","Address2":"Apt 1145","City":"San Francisco","State":"CA","Zip":"94116","Description":null,"SalesValue":"$2389251.25"},
{"NoOfRooms":2,"NoOfBathrooms":2,"SqFeet":6761,"Address1":"94 Kingsford Hill","Address2":"PO Box 24287","City":"Pasadena","State":"CA","Zip":"91125","Description":null,"SalesValue":"$7407501.35"},
{"NoOfRooms":5,"NoOfBathrooms":2,"SqFeet":9768,"Address1":"904 Village Circle","Address2":"Room 1677","City":"Sacramento","State":"CA","Zip":"94263","Description":null,"SalesValue":"$7180126.52"},
{"NoOfRooms":2,"NoOfBathrooms":1,"SqFeet":5419,"Address1":"550 Sommers Parkway","Address2":"PO Box 15733","City":"Palmdale","State":"CA","Zip":"93591","Description":null,"SalesValue":"$6040775.78"},
{"NoOfRooms":2,"NoOfBathrooms":5,"SqFeet":4080,"Address1":"28610 Thackeray Pass","Address2":"Apt 875","City":"San Bernardino","State":"CA","Zip":"92415","Description":null,"SalesValue":"$9714368.55"},
{"NoOfRooms":3,"NoOfBathrooms":3,"SqFeet":2887,"Address1":"2916 Judy Terrace","Address2":"Suite 30","City":"Sacramento","State":"CA","Zip":"94280","Description":null,"SalesValue":"$7723236.17"},
{"NoOfRooms":1,"NoOfBathrooms":3,"SqFeet":2841,"Address1":"372 Delladonna Point","Address2":"PO Box 6340","City":"Los Angeles","State":"CA","Zip":"90015","Description":null,"SalesValue":"$2685681.28"},
{"NoOfRooms":5,"NoOfBathrooms":3,"SqFeet":5150,"Address1":"93 Annamark Terrace","Address2":"7th Floor","City":"Newport Beach","State":"CA","Zip":"92662","Description":null,"SalesValue":"$7103205.92"},
{"NoOfRooms":2,"NoOfBathrooms":5,"SqFeet":9321,"Address1":"3 Waxwing Trail","Address2":"Apt 807","City":"Garden Grove","State":"CA","Zip":"92645","Description":null,"SalesValue":"$666771.70"},
{"NoOfRooms":3,"NoOfBathrooms":4,"SqFeet":8283,"Address1":"965 Crowley Alley","Address2":"Apt 21","City":"Sacramento","State":"CA","Zip":"95852","Description":null,"SalesValue":"$2661781.64"},
{"NoOfRooms":3,"NoOfBathrooms":5,"SqFeet":5832,"Address1":"401 Ilene Center","Address2":"Apt 161","City":"Los Angeles","State":"CA","Zip":"90101","Description":null,"SalesValue":"$1494995.43"},
{"NoOfRooms":4,"NoOfBathrooms":4,"SqFeet":4717,"Address1":"82 Hovde Lane","Address2":"Apt 1624","City":"Moreno Valley","State":"CA","Zip":"92555","Description":null,"SalesValue":"$4917865.41"},
{"NoOfRooms":4,"NoOfBathrooms":3,"SqFeet":6314,"Address1":"31773 Truax Junction","Address2":"Apt 645","City":"Oakland","State":"CA","Zip":"94611","Description":null,"SalesValue":"$4959089.74"},
{"NoOfRooms":2,"NoOfBathrooms":1,"SqFeet":2369,"Address1":"2968 Harper Road","Address2":"Suite 12","City":"Los Angeles","State":"CA","Zip":"90045","Description":null,"SalesValue":"$3528482.42"},
{"NoOfRooms":3,"NoOfBathrooms":4,"SqFeet":2529,"Address1":"26551 Lukken Hill","Address2":"3rd Floor","City":"Fresno","State":"CA","Zip":"93773","Description":null,"SalesValue":"$4737376.59"},
{"NoOfRooms":5,"NoOfBathrooms":3,"SqFeet":4737,"Address1":"788 Continental Circle","Address2":"Room 784","City":"Oakland","State":"CA","Zip":"94622","Description":null,"SalesValue":"$1480885.32"},
{"NoOfRooms":1,"NoOfBathrooms":4,"SqFeet":7354,"Address1":"69 Norway Maple Place","Address2":"Suite 48","City":"San Francisco","State":"CA","Zip":"94110","Description":null,"SalesValue":"$7729844.09"},
{"NoOfRooms":2,"NoOfBathrooms":4,"SqFeet":2331,"Address1":"72266 Coolidge Plaza","Address2":"Room 238","City":"Redwood City","State":"CA","Zip":"94064","Description":null,"SalesValue":"$2813086.09"},
{"NoOfRooms":4,"NoOfBathrooms":2,"SqFeet":4681,"Address1":"4961 Oriole Avenue","Address2":"Room 650","City":"Berkeley","State":"CA","Zip":"94705","Description":null,"SalesValue":"$6573640.81"},
{"NoOfRooms":3,"NoOfBathrooms":3,"SqFeet":8613,"Address1":"4062 Mcguire Alley","Address2":"Apt 719","City":"Los Angeles","State":"CA","Zip":"90101","Description":null,"SalesValue":"$7508189.62"},
{"NoOfRooms":5,"NoOfBathrooms":2,"SqFeet":135,"Address1":"91 Delaware Park","Address2":"Apt 76","City":"Pasadena","State":"CA","Zip":"91103","Description":null,"SalesValue":"$6942171.94"},
{"NoOfRooms":1,"NoOfBathrooms":3,"SqFeet":9059,"Address1":"76750 Longview Crossing","Address2":"PO Box 79578","City":"Long Beach","State":"CA","Zip":"90840","Description":null,"SalesValue":"$8707634.49"},
{"NoOfRooms":5,"NoOfBathrooms":3,"SqFeet":6281,"Address1":"55 Maple Wood Circle","Address2":"8th Floor","City":"Long Beach","State":"CA","Zip":"90831","Description":null,"SalesValue":"$1065737.48"},
{"NoOfRooms":4,"NoOfBathrooms":2,"SqFeet":8910,"Address1":"96 Merchant Drive","Address2":"Apt 990","City":"Corona","State":"CA","Zip":"92883","Description":null,"SalesValue":"$9341154.56"},
{"NoOfRooms":2,"NoOfBathrooms":4,"SqFeet":1320,"Address1":"2694 Meadow Vale Terrace","Address2":"Suite 70","City":"Stockton","State":"CA","Zip":"95219","Description":null,"SalesValue":"$2177032.02"},
{"NoOfRooms":3,"NoOfBathrooms":2,"SqFeet":6636,"Address1":"49735 Goodland Center","Address2":"15th Floor","City":"Santa Barbara","State":"CA","Zip":"93111","Description":null,"SalesValue":"$8734035.44"},
{"NoOfRooms":1,"NoOfBathrooms":1,"SqFeet":1830,"Address1":"0178 Meadow Valley Court","Address2":"Suite 44","City":"Sacramento","State":"CA","Zip":"95852","Description":null,"SalesValue":"$2473853.21"},
{"NoOfRooms":1,"NoOfBathrooms":5,"SqFeet":7403,"Address1":"52596 Saint Paul Avenue","Address2":"Room 1053","City":"San Diego","State":"CA","Zip":"92145","Description":null,"SalesValue":"$7879278.77"},
{"NoOfRooms":2,"NoOfBathrooms":4,"SqFeet":5070,"Address1":"29 Mendota Plaza","Address2":"Room 695","City":"Redwood City","State":"CA","Zip":"94064","Description":null,"SalesValue":"$7557708.76"},
{"NoOfRooms":3,"NoOfBathrooms":3,"SqFeet":6866,"Address1":"3 Rockefeller Center","Address2":"10th Floor","City":"San Francisco","State":"CA","Zip":"94154","Description":null,"SalesValue":"$2824840.55"},
{"NoOfRooms":5,"NoOfBathrooms":1,"SqFeet":7255,"Address1":"34 Hazelcrest Lane","Address2":"Suite 58","City":"Fresno","State":"CA","Zip":"93786","Description":null,"SalesValue":"$6673198.19"},
{"NoOfRooms":5,"NoOfBathrooms":4,"SqFeet":2247,"Address1":"67 Glacier Hill Crossing","Address2":"Suite 39","City":"Los Angeles","State":"CA","Zip":"90045","Description":null,"SalesValue":"$1791014.34"},
{"NoOfRooms":5,"NoOfBathrooms":2,"SqFeet":2325,"Address1":"74 Dwight Center","Address2":"PO Box 99379","City":"Oakland","State":"CA","Zip":"94616","Description":null,"SalesValue":"$3838018.81"},
{"NoOfRooms":1,"NoOfBathrooms":5,"SqFeet":6871,"Address1":"85857 Packers Park","Address2":"16th Floor","City":"Palo Alto","State":"CA","Zip":"94302","Description":null,"SalesValue":"$7751177.14"},
{"NoOfRooms":5,"NoOfBathrooms":3,"SqFeet":1123,"Address1":"53 Hintze Way","Address2":"4th Floor","City":"Orange","State":"CA","Zip":"92862","Description":null,"SalesValue":"$7025813.29"},
{"NoOfRooms":3,"NoOfBathrooms":3,"SqFeet":3683,"Address1":"2166 6th Park","Address2":"Apt 1016","City":"Los Angeles","State":"CA","Zip":"90030","Description":null,"SalesValue":"$2976741.46"},
{"NoOfRooms":2,"NoOfBathrooms":2,"SqFeet":7389,"Address1":"5 Merchant Junction","Address2":"Suite 78","City":"Richmond","State":"CA","Zip":"94807","Description":null,"SalesValue":"$3909645.03"},
{"NoOfRooms":2,"NoOfBathrooms":5,"SqFeet":9351,"Address1":"3 Sloan Park","Address2":"12th Floor","City":"Bakersfield","State":"CA","Zip":"93305","Description":null,"SalesValue":"$2422179.00"},
{"NoOfRooms":1,"NoOfBathrooms":2,"SqFeet":2327,"Address1":"70507 Nobel Junction","Address2":"PO Box 99341","City":"San Jose","State":"CA","Zip":"95155","Description":null,"SalesValue":"$7103032.29"},
{"NoOfRooms":5,"NoOfBathrooms":5,"SqFeet":6556,"Address1":"27284 Comanche Court","Address2":"Apt 1971","City":"Oakland","State":"CA","Zip":"94616","Description":null,"SalesValue":"$3658143.69"},
{"NoOfRooms":5,"NoOfBathrooms":2,"SqFeet":4876,"Address1":"339 Grayhawk Point","Address2":"Apt 1669","City":"Sacramento","State":"CA","Zip":"95894","Description":null,"SalesValue":"$822549.65"},
{"NoOfRooms":4,"NoOfBathrooms":5,"SqFeet":1987,"Address1":"2510 Duke Drive","Address2":"Suite 61","City":"Simi Valley","State":"CA","Zip":"93094","Description":null,"SalesValue":"$1797195.73"},
{"NoOfRooms":1,"NoOfBathrooms":3,"SqFeet":1970,"Address1":"30390 Pine View Point","Address2":"Apt 315","City":"Berkeley","State":"CA","Zip":"94705","Description":null,"SalesValue":"$857142.16"},
{"NoOfRooms":1,"NoOfBathrooms":2,"SqFeet":3294,"Address1":"059 Westerfield Pass","Address2":"Room 876","City":"Sacramento","State":"CA","Zip":"95833","Description":null,"SalesValue":"$1375971.56"},
{"NoOfRooms":1,"NoOfBathrooms":2,"SqFeet":471,"Address1":"094 1st Circle","Address2":"Suite 84","City":"Modesto","State":"CA","Zip":"95397","Description":null,"SalesValue":"$927862.32"},
{"NoOfRooms":5,"NoOfBathrooms":3,"SqFeet":9026,"Address1":"41531 Erie Drive","Address2":"5th Floor","City":"San Jose","State":"CA","Zip":"95123","Description":null,"SalesValue":"$5369551.81"},
{"NoOfRooms":1,"NoOfBathrooms":1,"SqFeet":3556,"Address1":"761 Riverside Alley","Address2":"15th Floor","City":"San Francisco","State":"CA","Zip":"94164","Description":null,"SalesValue":"$9979169.13"},
{"NoOfRooms":3,"NoOfBathrooms":5,"SqFeet":9005,"Address1":"49054 Merrick Junction","Address2":"Apt 109","City":"Fresno","State":"CA","Zip":"93794","Description":null,"SalesValue":"$4177343.32"},
{"NoOfRooms":5,"NoOfBathrooms":2,"SqFeet":7988,"Address1":"866 Onsgard Court","Address2":"Apt 1892","City":"Los Angeles","State":"CA","Zip":"90005","Description":null,"SalesValue":"$8998577.37"},
{"NoOfRooms":3,"NoOfBathrooms":5,"SqFeet":113,"Address1":"0980 Evergreen Hill","Address2":"Apt 1474","City":"Sacramento","State":"CA","Zip":"95894","Description":null,"SalesValue":"$2075799.83"},
{"NoOfRooms":4,"NoOfBathrooms":3,"SqFeet":4053,"Address1":"4960 Service Way","Address2":"Room 669","City":"Sacramento","State":"CA","Zip":"95865","Description":null,"SalesValue":"$7805895.25"},
{"NoOfRooms":2,"NoOfBathrooms":5,"SqFeet":8033,"Address1":"987 Roth Junction","Address2":"Suite 43","City":"Fresno","State":"CA","Zip":"93786","Description":null,"SalesValue":"$1319400.77"},
{"NoOfRooms":4,"NoOfBathrooms":3,"SqFeet":4273,"Address1":"158 Morning Court","Address2":"Room 1699","City":"Los Angeles","State":"CA","Zip":"90005","Description":null,"SalesValue":"$5919140.50"},
{"NoOfRooms":4,"NoOfBathrooms":4,"SqFeet":3782,"Address1":"8735 Anderson Parkway","Address2":"Suite 75","City":"Fresno","State":"CA","Zip":"93721","Description":null,"SalesValue":"$1013135.01"},
{"NoOfRooms":4,"NoOfBathrooms":1,"SqFeet":7096,"Address1":"735 Ridgeway Lane","Address2":"Apt 1224","City":"Hayward","State":"CA","Zip":"94544","Description":null,"SalesValue":"$7455466.68"},
{"NoOfRooms":5,"NoOfBathrooms":1,"SqFeet":4862,"Address1":"57974 Oak Valley Court","Address2":"PO Box 68291","City":"Bakersfield","State":"CA","Zip":"93386","Description":null,"SalesValue":"$1306380.27"},
{"NoOfRooms":5,"NoOfBathrooms":3,"SqFeet":9405,"Address1":"7 Manufacturers Drive","Address2":"6th Floor","City":"Garden Grove","State":"CA","Zip":"92844","Description":null,"SalesValue":"$856061.09"},
{"NoOfRooms":2,"NoOfBathrooms":5,"SqFeet":5187,"Address1":"64089 Hoffman Point","Address2":"19th Floor","City":"Stockton","State":"CA","Zip":"95205","Description":null,"SalesValue":"$4871382.26"},
{"NoOfRooms":5,"NoOfBathrooms":5,"SqFeet":1873,"Address1":"69 5th Park","Address2":"Suite 60","City":"Anaheim","State":"CA","Zip":"92825","Description":null,"SalesValue":"$4519866.08"},
{"NoOfRooms":4,"NoOfBathrooms":4,"SqFeet":5963,"Address1":"80145 Grim Drive","Address2":"Room 1378","City":"Chico","State":"CA","Zip":"95973","Description":null,"SalesValue":"$1689590.31"},
{"NoOfRooms":1,"NoOfBathrooms":3,"SqFeet":941,"Address1":"393 Schlimgen Pass","Address2":"Apt 1523","City":"San Rafael","State":"CA","Zip":"94913","Description":null,"SalesValue":"$4678980.98"},
{"NoOfRooms":5,"NoOfBathrooms":5,"SqFeet":6020,"Address1":"673 Lakewood Hill","Address2":"Apt 1327","City":"San Bernardino","State":"CA","Zip":"92424","Description":null,"SalesValue":"$7498900.47"},
{"NoOfRooms":2,"NoOfBathrooms":5,"SqFeet":5242,"Address1":"4478 Goodland Circle","Address2":"Room 990","City":"San Francisco","State":"CA","Zip":"94159","Description":null,"SalesValue":"$4709144.45"},
{"NoOfRooms":4,"NoOfBathrooms":3,"SqFeet":8899,"Address1":"85634 Donald Park","Address2":"11th Floor","City":"Los Angeles","State":"CA","Zip":"90076","Description":null,"SalesValue":"$7895366.19"},
{"NoOfRooms":4,"NoOfBathrooms":3,"SqFeet":2087,"Address1":"71432 Talmadge Drive","Address2":"Suite 74","City":"Whittier","State":"CA","Zip":"90610","Description":null,"SalesValue":"$6981794.90"},
{"NoOfRooms":5,"NoOfBathrooms":3,"SqFeet":8723,"Address1":"684 Laurel Circle","Address2":"Suite 53","City":"Irvine","State":"CA","Zip":"92717","Description":null,"SalesValue":"$3617982.98"},
{"NoOfRooms":4,"NoOfBathrooms":1,"SqFeet":317,"Address1":"69 Lukken Way","Address2":"Room 1330","City":"Fresno","State":"CA","Zip":"93715","Description":null,"SalesValue":"$1867554.24"},
{"NoOfRooms":4,"NoOfBathrooms":1,"SqFeet":6786,"Address1":"73533 Dawn Point","Address2":"Apt 867","City":"Los Angeles","State":"CA","Zip":"90055","Description":null,"SalesValue":"$736517.92"},
{"NoOfRooms":3,"NoOfBathrooms":2,"SqFeet":2417,"Address1":"3 Schmedeman Lane","Address2":"Room 1715","City":"Bakersfield","State":"CA","Zip":"93399","Description":null,"SalesValue":"$7763015.51"},
{"NoOfRooms":4,"NoOfBathrooms":3,"SqFeet":661,"Address1":"43553 Independence Place","Address2":"Suite 46","City":"South Lake Tahoe","State":"CA","Zip":"96154","Description":null,"SalesValue":"$8168590.63"},
{"NoOfRooms":1,"NoOfBathrooms":5,"SqFeet":5461,"Address1":"811 Graedel Lane","Address2":"Suite 13","City":"Salinas","State":"CA","Zip":"93907","Description":null,"SalesValue":"$7333789.75"},
{"NoOfRooms":2,"NoOfBathrooms":5,"SqFeet":4518,"Address1":"4086 Heffernan Place","Address2":"Suite 84","City":"Fresno","State":"CA","Zip":"93704","Description":null,"SalesValue":"$7448623.24"},
{"NoOfRooms":1,"NoOfBathrooms":5,"SqFeet":4966,"Address1":"81282 Upham Parkway","Address2":"Suite 45","City":"San Jose","State":"CA","Zip":"95173","Description":null,"SalesValue":"$713513.71"},
{"NoOfRooms":3,"NoOfBathrooms":1,"SqFeet":6425,"Address1":"60852 Mesta Plaza","Address2":"18th Floor","City":"Fresno","State":"CA","Zip":"93794","Description":null,"SalesValue":"$7677865.85"},
{"NoOfRooms":4,"NoOfBathrooms":4,"SqFeet":3260,"Address1":"5 Bunting Parkway","Address2":"Suite 73","City":"San Jose","State":"CA","Zip":"95160","Description":null,"SalesValue":"$3211666.61"},
{"NoOfRooms":4,"NoOfBathrooms":5,"SqFeet":8637,"Address1":"3478 Hoffman Point","Address2":"PO Box 17119","City":"Torrance","State":"CA","Zip":"90510","Description":null,"SalesValue":"$3688557.84"},
{"NoOfRooms":2,"NoOfBathrooms":1,"SqFeet":8498,"Address1":"30779 Stone Corner Pass","Address2":"PO Box 659","City":"Van Nuys","State":"CA","Zip":"91406","Description":null,"SalesValue":"$4599500.79"},
{"NoOfRooms":2,"NoOfBathrooms":3,"SqFeet":5358,"Address1":"17449 Morningstar Trail","Address2":"Apt 825","City":"Pasadena","State":"CA","Zip":"91117","Description":null,"SalesValue":"$702486.38"},
{"NoOfRooms":5,"NoOfBathrooms":1,"SqFeet":332,"Address1":"290 Coleman Circle","Address2":"Room 1867","City":"Bakersfield","State":"CA","Zip":"93311","Description":null,"SalesValue":"$770679.55"},
{"NoOfRooms":5,"NoOfBathrooms":4,"SqFeet":6479,"Address1":"3 Luster Trail","Address2":"PO Box 96211","City":"Fresno","State":"CA","Zip":"93715","Description":null,"SalesValue":"$5322694.77"},
{"NoOfRooms":5,"NoOfBathrooms":2,"SqFeet":3828,"Address1":"349 1st Plaza","Address2":"Room 1236","City":"Concord","State":"CA","Zip":"94522","Description":null,"SalesValue":"$6264193.30"},
{"NoOfRooms":3,"NoOfBathrooms":2,"SqFeet":6436,"Address1":"5960 Browning Crossing","Address2":"Suite 29","City":"Whittier","State":"CA","Zip":"90610","Description":null,"SalesValue":"$7891199.69"},
{"NoOfRooms":2,"NoOfBathrooms":3,"SqFeet":8211,"Address1":"0696 Sundown Plaza","Address2":"16th Floor","City":"Pasadena","State":"CA","Zip":"91131","Description":null,"SalesValue":"$4954899.84"},
{"NoOfRooms":1,"NoOfBathrooms":4,"SqFeet":4869,"Address1":"4064 Schmedeman Pass","Address2":"Apt 844","City":"Stockton","State":"CA","Zip":"95205","Description":null,"SalesValue":"$5327927.40"},
{"NoOfRooms":5,"NoOfBathrooms":1,"SqFeet":4186,"Address1":"2 David Court","Address2":"Apt 1197","City":"San Diego","State":"CA","Zip":"92137","Description":null,"SalesValue":"$9077956.72"},
{"NoOfRooms":2,"NoOfBathrooms":4,"SqFeet":9990,"Address1":"184 Melvin Circle","Address2":"Apt 330","City":"San Diego","State":"CA","Zip":"92137","Description":null,"SalesValue":"$6215072.39"},
{"NoOfRooms":4,"NoOfBathrooms":1,"SqFeet":9295,"Address1":"68821 Marquette Road","Address2":"PO Box 85342","City":"San Diego","State":"CA","Zip":"92115","Description":null,"SalesValue":"$6379396.73"},
{"NoOfRooms":1,"NoOfBathrooms":2,"SqFeet":9891,"Address1":"4 Golf Junction","Address2":"Suite 8","City":"Fresno","State":"CA","Zip":"93778","Description":null,"SalesValue":"$9158218.73"},
{"NoOfRooms":4,"NoOfBathrooms":4,"SqFeet":9116,"Address1":"7 Northport Point","Address2":"Room 1742","City":"Santa Barbara","State":"CA","Zip":"93106","Description":null,"SalesValue":"$5082527.58"},
{"NoOfRooms":3,"NoOfBathrooms":1,"SqFeet":5570,"Address1":"8 Claremont Park","Address2":"1st Floor","City":"Simi Valley","State":"CA","Zip":"93094","Description":null,"SalesValue":"$3092718.52"},
{"NoOfRooms":1,"NoOfBathrooms":4,"SqFeet":2818,"Address1":"79 Lillian Place","Address2":"Room 495","City":"San Bernardino","State":"CA","Zip":"92405","Description":null,"SalesValue":"$5648217.62"},
{"NoOfRooms":3,"NoOfBathrooms":2,"SqFeet":9678,"Address1":"243 Rockefeller Plaza","Address2":"Apt 1539","City":"Los Angeles","State":"CA","Zip":"90065","Description":null,"SalesValue":"$8077787.43"},
{"NoOfRooms":1,"NoOfBathrooms":1,"SqFeet":7028,"Address1":"9385 Kennedy Trail","Address2":"18th Floor","City":"San Francisco","State":"CA","Zip":"94154","Description":null,"SalesValue":"$8803489.32"},
{"NoOfRooms":3,"NoOfBathrooms":3,"SqFeet":3775,"Address1":"83 Mitchell Plaza","Address2":"Room 1984","City":"Northridge","State":"CA","Zip":"91328","Description":null,"SalesValue":"$4163473.23"},
{"NoOfRooms":2,"NoOfBathrooms":3,"SqFeet":1688,"Address1":"29682 South Drive","Address2":"Room 1886","City":"San Jose","State":"CA","Zip":"95138","Description":null,"SalesValue":"$5005303.48"},
{"NoOfRooms":1,"NoOfBathrooms":4,"SqFeet":6423,"Address1":"520 Carioca Road","Address2":"Apt 1687","City":"Inglewood","State":"CA","Zip":"90310","Description":null,"SalesValue":"$6410648.91"},
{"NoOfRooms":2,"NoOfBathrooms":5,"SqFeet":3019,"Address1":"4 Debs Street","Address2":"Suite 27","City":"San Francisco","State":"CA","Zip":"94121","Description":null,"SalesValue":"$2627067.29"},
{"NoOfRooms":5,"NoOfBathrooms":2,"SqFeet":4418,"Address1":"37 Spohn Junction","Address2":"PO Box 98998","City":"Whittier","State":"CA","Zip":"90605","Description":null,"SalesValue":"$1413423.75"},
{"NoOfRooms":5,"NoOfBathrooms":3,"SqFeet":7774,"Address1":"5525 Luster Street","Address2":"Apt 1239","City":"San Francisco","State":"CA","Zip":"94121","Description":null,"SalesValue":"$4716236.22"},
{"NoOfRooms":2,"NoOfBathrooms":1,"SqFeet":2006,"Address1":"92 Service Trail","Address2":"Suite 37","City":"Huntington Beach","State":"CA","Zip":"92648","Description":null,"SalesValue":"$6007445.31"},
{"NoOfRooms":1,"NoOfBathrooms":4,"SqFeet":405,"Address1":"07 New Castle Terrace","Address2":"Apt 1764","City":"Oxnard","State":"CA","Zip":"93034","Description":null,"SalesValue":"$4877788.78"},
{"NoOfRooms":3,"NoOfBathrooms":2,"SqFeet":1310,"Address1":"3135 Summit Lane","Address2":"PO Box 4511","City":"Fresno","State":"CA","Zip":"93721","Description":null,"SalesValue":"$5802219.53"},
{"NoOfRooms":1,"NoOfBathrooms":5,"SqFeet":1568,"Address1":"3 Mandrake Plaza","Address2":"4th Floor","City":"Sacramento","State":"CA","Zip":"94286","Description":null,"SalesValue":"$5498684.14"},
{"NoOfRooms":2,"NoOfBathrooms":3,"SqFeet":2568,"Address1":"2574 Longview Lane","Address2":"9th Floor","City":"Sacramento","State":"CA","Zip":"94263","Description":null,"SalesValue":"$5901185.98"},
{"NoOfRooms":3,"NoOfBathrooms":3,"SqFeet":9508,"Address1":"010 American Ash Hill","Address2":"Apt 1223","City":"South Lake Tahoe","State":"CA","Zip":"96154","Description":null,"SalesValue":"$6309435.91"},
{"NoOfRooms":3,"NoOfBathrooms":5,"SqFeet":5203,"Address1":"00942 Eastlawn Point","Address2":"Room 899","City":"San Francisco","State":"CA","Zip":"94147","Description":null,"SalesValue":"$2694990.82"},
{"NoOfRooms":1,"NoOfBathrooms":3,"SqFeet":4616,"Address1":"2951 Oriole Plaza","Address2":"Apt 1954","City":"Sacramento","State":"CA","Zip":"95865","Description":null,"SalesValue":"$6611637.95"},
{"NoOfRooms":2,"NoOfBathrooms":2,"SqFeet":1595,"Address1":"680 Monument Avenue","Address2":"PO Box 77615","City":"Escondido","State":"CA","Zip":"92030","Description":null,"SalesValue":"$5774249.68"},
{"NoOfRooms":4,"NoOfBathrooms":4,"SqFeet":7967,"Address1":"1 Green Street","Address2":"Suite 38","City":"Lancaster","State":"CA","Zip":"93584","Description":null,"SalesValue":"$3335706.26"},
{"NoOfRooms":1,"NoOfBathrooms":5,"SqFeet":1399,"Address1":"35339 Lunder Street","Address2":"PO Box 3365","City":"Bakersfield","State":"CA","Zip":"93311","Description":null,"SalesValue":"$3813538.91"},
{"NoOfRooms":4,"NoOfBathrooms":5,"SqFeet":173,"Address1":"57455 Sycamore Drive","Address2":"1st Floor","City":"San Diego","State":"CA","Zip":"92121","Description":null,"SalesValue":"$9100412.86"},
{"NoOfRooms":2,"NoOfBathrooms":3,"SqFeet":4543,"Address1":"23 Schmedeman Court","Address2":"Room 539","City":"Oakland","State":"CA","Zip":"94627","Description":null,"SalesValue":"$5842226.51"},
{"NoOfRooms":2,"NoOfBathrooms":4,"SqFeet":7752,"Address1":"8921 Rutledge Trail","Address2":"Room 1235","City":"San Diego","State":"CA","Zip":"92153","Description":null,"SalesValue":"$8293451.00"},
{"NoOfRooms":4,"NoOfBathrooms":5,"SqFeet":9903,"Address1":"15 Eastlawn Park","Address2":"Room 735","City":"San Jose","State":"CA","Zip":"95150","Description":null,"SalesValue":"$2818653.71"},
{"NoOfRooms":5,"NoOfBathrooms":4,"SqFeet":7003,"Address1":"677 Becker Lane","Address2":"5th Floor","City":"San Diego","State":"CA","Zip":"92170","Description":null,"SalesValue":"$6611133.81"},
{"NoOfRooms":5,"NoOfBathrooms":3,"SqFeet":8124,"Address1":"289 Charing Cross Street","Address2":"PO Box 22826","City":"Berkeley","State":"CA","Zip":"94712","Description":null,"SalesValue":"$5385944.15"},
{"NoOfRooms":4,"NoOfBathrooms":5,"SqFeet":8968,"Address1":"32346 Dapin Court","Address2":"PO Box 49284","City":"Fresno","State":"CA","Zip":"93750","Description":null,"SalesValue":"$5415284.38"},
{"NoOfRooms":3,"NoOfBathrooms":5,"SqFeet":3180,"Address1":"15 Hayes Place","Address2":"Room 412","City":"Los Angeles","State":"CA","Zip":"90094","Description":null,"SalesValue":"$3148791.96"},
{"NoOfRooms":4,"NoOfBathrooms":3,"SqFeet":1053,"Address1":"525 Burrows Plaza","Address2":"PO Box 81705","City":"Los Angeles","State":"CA","Zip":"90050","Description":null,"SalesValue":"$3443022.85"},
{"NoOfRooms":2,"NoOfBathrooms":1,"SqFeet":2830,"Address1":"264 Aberg Street","Address2":"Suite 86","City":"Redwood City","State":"CA","Zip":"94064","Description":null,"SalesValue":"$7335972.30"},
{"NoOfRooms":1,"NoOfBathrooms":2,"SqFeet":5259,"Address1":"1 Mifflin Parkway","Address2":"Apt 283","City":"San Francisco","State":"CA","Zip":"94169","Description":null,"SalesValue":"$4179932.32"},
{"NoOfRooms":3,"NoOfBathrooms":3,"SqFeet":3112,"Address1":"03708 Corben Plaza","Address2":"Suite 64","City":"Long Beach","State":"CA","Zip":"90831","Description":null,"SalesValue":"$5496260.03"},
{"NoOfRooms":2,"NoOfBathrooms":1,"SqFeet":311,"Address1":"96 Nancy Terrace","Address2":"Room 1472","City":"San Diego","State":"CA","Zip":"92165","Description":null,"SalesValue":"$2096550.17"},
{"NoOfRooms":4,"NoOfBathrooms":5,"SqFeet":5433,"Address1":"410 Everett Circle","Address2":"Suite 50","City":"Pasadena","State":"CA","Zip":"91186","Description":null,"SalesValue":"$4835537.00"},
{"NoOfRooms":1,"NoOfBathrooms":2,"SqFeet":5033,"Address1":"47013 Main Terrace","Address2":"Apt 502","City":"Pasadena","State":"CA","Zip":"91109","Description":null,"SalesValue":"$838844.04"},
{"NoOfRooms":4,"NoOfBathrooms":2,"SqFeet":4864,"Address1":"4740 Dakota Plaza","Address2":"PO Box 99984","City":"Burbank","State":"CA","Zip":"91520","Description":null,"SalesValue":"$774880.50"},
{"NoOfRooms":3,"NoOfBathrooms":3,"SqFeet":5369,"Address1":"2608 Ridge Oak Road","Address2":"PO Box 32646","City":"Fresno","State":"CA","Zip":"93762","Description":null,"SalesValue":"$1667509.85"},
{"NoOfRooms":3,"NoOfBathrooms":2,"SqFeet":4546,"Address1":"7 Dennis Way","Address2":"Suite 67","City":"Visalia","State":"CA","Zip":"93291","Description":null,"SalesValue":"$7597075.43"},
{"NoOfRooms":3,"NoOfBathrooms":4,"SqFeet":3962,"Address1":"6099 1st Parkway","Address2":"Room 954","City":"Fresno","State":"CA","Zip":"93715","Description":null,"SalesValue":"$9160174.54"},
{"NoOfRooms":5,"NoOfBathrooms":3,"SqFeet":5497,"Address1":"316 Petterle Way","Address2":"PO Box 21663","City":"Van Nuys","State":"CA","Zip":"91406","Description":null,"SalesValue":"$9534502.77"},
{"NoOfRooms":4,"NoOfBathrooms":2,"SqFeet":5357,"Address1":"8713 International Trail","Address2":"PO Box 82576","City":"Pasadena","State":"CA","Zip":"91186","Description":null,"SalesValue":"$6893819.65"},
{"NoOfRooms":4,"NoOfBathrooms":5,"SqFeet":445,"Address1":"32244 Oak Hill","Address2":"6th Floor","City":"San Francisco","State":"CA","Zip":"94116","Description":null,"SalesValue":"$1891642.62"},
{"NoOfRooms":4,"NoOfBathrooms":3,"SqFeet":9016,"Address1":"8775 Mendota Way","Address2":"PO Box 61218","City":"Los Angeles","State":"CA","Zip":"90010","Description":null,"SalesValue":"$804794.50"},
{"NoOfRooms":1,"NoOfBathrooms":4,"SqFeet":9854,"Address1":"288 Delladonna Drive","Address2":"Suite 50","City":"Sacramento","State":"CA","Zip":"94291","Description":null,"SalesValue":"$6576932.41"},
{"NoOfRooms":2,"NoOfBathrooms":5,"SqFeet":3515,"Address1":"90783 Linden Drive","Address2":"Apt 898","City":"San Diego","State":"CA","Zip":"92132","Description":null,"SalesValue":"$3012935.94"},
{"NoOfRooms":2,"NoOfBathrooms":5,"SqFeet":3016,"Address1":"1 Hagan Trail","Address2":"PO Box 17088","City":"Santa Clara","State":"CA","Zip":"95054","Description":null,"SalesValue":"$2139957.90"},
{"NoOfRooms":5,"NoOfBathrooms":5,"SqFeet":9805,"Address1":"381 Pond Trail","Address2":"PO Box 81301","City":"San Diego","State":"CA","Zip":"92165","Description":null,"SalesValue":"$5019236.02"},
{"NoOfRooms":5,"NoOfBathrooms":4,"SqFeet":9106,"Address1":"4259 Petterle Parkway","Address2":"Room 320","City":"San Diego","State":"CA","Zip":"92137","Description":null,"SalesValue":"$4097306.81"},
{"NoOfRooms":3,"NoOfBathrooms":3,"SqFeet":8874,"Address1":"86547 Eggendart Park","Address2":"Room 1736","City":"San Francisco","State":"CA","Zip":"94137","Description":null,"SalesValue":"$9552592.00"},
{"NoOfRooms":1,"NoOfBathrooms":4,"SqFeet":8421,"Address1":"98281 Toban Plaza","Address2":"PO Box 85956","City":"San Jose","State":"CA","Zip":"95123","Description":null,"SalesValue":"$6787619.06"},
{"NoOfRooms":3,"NoOfBathrooms":5,"SqFeet":5356,"Address1":"20129 Little Fleur Circle","Address2":"Suite 25","City":"San Diego","State":"CA","Zip":"92105","Description":null,"SalesValue":"$7019011.98"},
{"NoOfRooms":4,"NoOfBathrooms":5,"SqFeet":8548,"Address1":"653 Novick Avenue","Address2":"Apt 1147","City":"Garden Grove","State":"CA","Zip":"92645","Description":null,"SalesValue":"$9916798.66"},
{"NoOfRooms":1,"NoOfBathrooms":3,"SqFeet":6426,"Address1":"9856 Del Sol Center","Address2":"Suite 38","City":"San Diego","State":"CA","Zip":"92170","Description":null,"SalesValue":"$5768053.69"},
{"NoOfRooms":1,"NoOfBathrooms":5,"SqFeet":6950,"Address1":"34166 Dunning Court","Address2":"PO Box 79441","City":"Los Angeles","State":"CA","Zip":"90065","Description":null,"SalesValue":"$2958810.66"},
{"NoOfRooms":1,"NoOfBathrooms":4,"SqFeet":7822,"Address1":"96 Gerald Point","Address2":"Room 1675","City":"Fresno","State":"CA","Zip":"93715","Description":null,"SalesValue":"$1393075.19"},
{"NoOfRooms":3,"NoOfBathrooms":2,"SqFeet":1927,"Address1":"7 Debs Way","Address2":"Room 645","City":"Redwood City","State":"CA","Zip":"94064","Description":null,"SalesValue":"$5043887.90"},
{"NoOfRooms":5,"NoOfBathrooms":3,"SqFeet":9794,"Address1":"5 American Plaza","Address2":"Suite 98","City":"San Diego","State":"CA","Zip":"92132","Description":null,"SalesValue":"$1684727.20"},
{"NoOfRooms":2,"NoOfBathrooms":5,"SqFeet":5202,"Address1":"05579 Brown Alley","Address2":"PO Box 57739","City":"Long Beach","State":"CA","Zip":"90847","Description":null,"SalesValue":"$1088401.87"},
{"NoOfRooms":3,"NoOfBathrooms":4,"SqFeet":1532,"Address1":"40022 Village Trail","Address2":"Apt 1353","City":"Glendale","State":"CA","Zip":"91210","Description":null,"SalesValue":"$2171243.89"},
{"NoOfRooms":3,"NoOfBathrooms":4,"SqFeet":5358,"Address1":"03314 Hallows Alley","Address2":"Apt 167","City":"San Diego","State":"CA","Zip":"92176","Description":null,"SalesValue":"$6217421.17"},
{"NoOfRooms":1,"NoOfBathrooms":2,"SqFeet":4728,"Address1":"1 Dawn Pass","Address2":"Apt 148","City":"Glendale","State":"CA","Zip":"91205","Description":null,"SalesValue":"$7699078.00"},
{"NoOfRooms":5,"NoOfBathrooms":1,"SqFeet":8882,"Address1":"2883 Waxwing Hill","Address2":"3rd Floor","City":"Garden Grove","State":"CA","Zip":"92844","Description":null,"SalesValue":"$4412550.88"},
{"NoOfRooms":5,"NoOfBathrooms":3,"SqFeet":6253,"Address1":"92139 7th Point","Address2":"Suite 10","City":"Santa Ana","State":"CA","Zip":"92705","Description":null,"SalesValue":"$1301851.42"},
{"NoOfRooms":4,"NoOfBathrooms":2,"SqFeet":6431,"Address1":"938 Redwing Junction","Address2":"18th Floor","City":"San Jose","State":"CA","Zip":"95150","Description":null,"SalesValue":"$8957008.24"},
{"NoOfRooms":1,"NoOfBathrooms":3,"SqFeet":9496,"Address1":"941 Merry Pass","Address2":"7th Floor","City":"San Francisco","State":"CA","Zip":"94154","Description":null,"SalesValue":"$5975023.98"},
{"NoOfRooms":1,"NoOfBathrooms":3,"SqFeet":8234,"Address1":"37 Meadow Valley Parkway","Address2":"Apt 5","City":"Fullerton","State":"CA","Zip":"92640","Description":null,"SalesValue":"$7630414.70"},
{"NoOfRooms":1,"NoOfBathrooms":4,"SqFeet":5214,"Address1":"5 Continental Trail","Address2":"Room 1495","City":"San Francisco","State":"CA","Zip":"94132","Description":null,"SalesValue":"$2832480.14"},
{"NoOfRooms":2,"NoOfBathrooms":5,"SqFeet":1256,"Address1":"414 Main Alley","Address2":"Apt 1495","City":"Garden Grove","State":"CA","Zip":"92645","Description":null,"SalesValue":"$9234266.08"},
{"NoOfRooms":4,"NoOfBathrooms":3,"SqFeet":8267,"Address1":"21378 Mayer Avenue","Address2":"Apt 59","City":"Sacramento","State":"CA","Zip":"95828","Description":null,"SalesValue":"$5343418.21"},
{"NoOfRooms":2,"NoOfBathrooms":4,"SqFeet":6102,"Address1":"5574 Gerald Parkway","Address2":"Suite 96","City":"San Francisco","State":"CA","Zip":"94142","Description":null,"SalesValue":"$9270523.57"},
{"NoOfRooms":4,"NoOfBathrooms":2,"SqFeet":4215,"Address1":"3 Fordem Street","Address2":"Apt 1815","City":"Carlsbad","State":"CA","Zip":"92013","Description":null,"SalesValue":"$3097137.89"},
{"NoOfRooms":1,"NoOfBathrooms":3,"SqFeet":8657,"Address1":"75 Loomis Court","Address2":"Room 1283","City":"San Diego","State":"CA","Zip":"92153","Description":null,"SalesValue":"$5230013.62"},
{"NoOfRooms":5,"NoOfBathrooms":2,"SqFeet":5584,"Address1":"25717 Valley Edge Court","Address2":"Apt 1683","City":"Oakland","State":"CA","Zip":"94622","Description":null,"SalesValue":"$3747406.30"},
{"NoOfRooms":4,"NoOfBathrooms":4,"SqFeet":456,"Address1":"3 Fulton Lane","Address2":"PO Box 63796","City":"Los Angeles","State":"CA","Zip":"90040","Description":null,"SalesValue":"$8634873.07"},
{"NoOfRooms":3,"NoOfBathrooms":3,"SqFeet":2937,"Address1":"982 Oak Avenue","Address2":"Room 1586","City":"South Lake Tahoe","State":"CA","Zip":"96154","Description":null,"SalesValue":"$2581512.42"},
{"NoOfRooms":1,"NoOfBathrooms":4,"SqFeet":5252,"Address1":"138 Nova Way","Address2":"Room 275","City":"San Diego","State":"CA","Zip":"92105","Description":null,"SalesValue":"$9278370.23"},
{"NoOfRooms":4,"NoOfBathrooms":2,"SqFeet":4444,"Address1":"1 Weeping Birch Point","Address2":"Suite 75","City":"Glendale","State":"CA","Zip":"91205","Description":null,"SalesValue":"$1577734.07"},
{"NoOfRooms":2,"NoOfBathrooms":5,"SqFeet":2950,"Address1":"03 Warbler Point","Address2":"Apt 1244","City":"Pomona","State":"CA","Zip":"91797","Description":null,"SalesValue":"$5625640.27"},
{"NoOfRooms":1,"NoOfBathrooms":1,"SqFeet":7304,"Address1":"6828 Prairieview Road","Address2":"Apt 598","City":"Pasadena","State":"CA","Zip":"91117","Description":null,"SalesValue":"$4693555.63"},
{"NoOfRooms":2,"NoOfBathrooms":1,"SqFeet":1881,"Address1":"735 Tomscot Hill","Address2":"PO Box 69930","City":"Santa Rosa","State":"CA","Zip":"95405","Description":null,"SalesValue":"$3034245.94"},
{"NoOfRooms":4,"NoOfBathrooms":5,"SqFeet":5375,"Address1":"05 Forster Avenue","Address2":"Room 39","City":"San Diego","State":"CA","Zip":"92132","Description":null,"SalesValue":"$8494289.25"},
{"NoOfRooms":2,"NoOfBathrooms":5,"SqFeet":9045,"Address1":"188 Arapahoe Lane","Address2":"PO Box 44715","City":"Sacramento","State":"CA","Zip":"94286","Description":null,"SalesValue":"$3015241.20"},
{"NoOfRooms":1,"NoOfBathrooms":2,"SqFeet":5941,"Address1":"6277 Towne Park","Address2":"1st Floor","City":"San Jose","State":"CA","Zip":"95173","Description":null,"SalesValue":"$4586149.22"},
{"NoOfRooms":4,"NoOfBathrooms":4,"SqFeet":2928,"Address1":"35818 Surrey Parkway","Address2":"PO Box 32943","City":"San Diego","State":"CA","Zip":"92110","Description":null,"SalesValue":"$5656698.59"},
{"NoOfRooms":2,"NoOfBathrooms":5,"SqFeet":5872,"Address1":"41860 Birchwood Point","Address2":"PO Box 40015","City":"South Lake Tahoe","State":"CA","Zip":"96154","Description":null,"SalesValue":"$6557046.04"},
{"NoOfRooms":1,"NoOfBathrooms":2,"SqFeet":2497,"Address1":"4 Springview Road","Address2":"Apt 1713","City":"Van Nuys","State":"CA","Zip":"91499","Description":null,"SalesValue":"$3406440.40"},
{"NoOfRooms":3,"NoOfBathrooms":4,"SqFeet":6667,"Address1":"04471 Nobel Circle","Address2":"PO Box 18233","City":"Sacramento","State":"CA","Zip":"94286","Description":null,"SalesValue":"$5225879.37"},
{"NoOfRooms":5,"NoOfBathrooms":1,"SqFeet":8976,"Address1":"3627 Bellgrove Park","Address2":"Suite 76","City":"Sacramento","State":"CA","Zip":"94273","Description":null,"SalesValue":"$7102853.66"},
{"NoOfRooms":5,"NoOfBathrooms":5,"SqFeet":8919,"Address1":"4877 Caliangt Park","Address2":"Room 417","City":"Los Angeles","State":"CA","Zip":"90035","Description":null,"SalesValue":"$8805954.53"},
{"NoOfRooms":2,"NoOfBathrooms":4,"SqFeet":7228,"Address1":"845 Rusk Street","Address2":"Suite 32","City":"Fresno","State":"CA","Zip":"93773","Description":null,"SalesValue":"$7003393.80"},
{"NoOfRooms":4,"NoOfBathrooms":3,"SqFeet":7852,"Address1":"412 Caliangt Court","Address2":"Room 1338","City":"Stockton","State":"CA","Zip":"95205","Description":null,"SalesValue":"$6607700.59"},
{"NoOfRooms":4,"NoOfBathrooms":5,"SqFeet":420,"Address1":"511 High Crossing Crossing","Address2":"PO Box 38515","City":"San Diego","State":"CA","Zip":"92105","Description":null,"SalesValue":"$2478095.48"},
{"NoOfRooms":1,"NoOfBathrooms":1,"SqFeet":3428,"Address1":"68026 North Way","Address2":"Room 1604","City":"Pasadena","State":"CA","Zip":"91199","Description":null,"SalesValue":"$822637.61"},
{"NoOfRooms":3,"NoOfBathrooms":1,"SqFeet":8489,"Address1":"599 Longview Circle","Address2":"Apt 1219","City":"San Diego","State":"CA","Zip":"92186","Description":null,"SalesValue":"$6986319.20"},
{"NoOfRooms":3,"NoOfBathrooms":2,"SqFeet":1871,"Address1":"79 Redwing Street","Address2":"Suite 83","City":"Sacramento","State":"CA","Zip":"94237","Description":null,"SalesValue":"$7516379.17"},
{"NoOfRooms":5,"NoOfBathrooms":1,"SqFeet":4202,"Address1":"6895 Mariners Cove Point","Address2":"16th Floor","City":"Sacramento","State":"CA","Zip":"94263","Description":null,"SalesValue":"$1695707.60"},
{"NoOfRooms":2,"NoOfBathrooms":2,"SqFeet":9622,"Address1":"2939 Porter Circle","Address2":"Suite 25","City":"Los Angeles","State":"CA","Zip":"90087","Description":null,"SalesValue":"$3543363.18"},
{"NoOfRooms":4,"NoOfBathrooms":5,"SqFeet":4912,"Address1":"2812 Burrows Alley","Address2":"PO Box 84943","City":"San Francisco","State":"CA","Zip":"94142","Description":null,"SalesValue":"$776486.67"},
{"NoOfRooms":3,"NoOfBathrooms":3,"SqFeet":8129,"Address1":"17060 Morrow Park","Address2":"Suite 87","City":"Whittier","State":"CA","Zip":"90610","Description":null,"SalesValue":"$6651705.97"},
{"NoOfRooms":2,"NoOfBathrooms":1,"SqFeet":6545,"Address1":"248 Schmedeman Parkway","Address2":"Apt 1941","City":"Inglewood","State":"CA","Zip":"90398","Description":null,"SalesValue":"$1372292.29"},
{"NoOfRooms":3,"NoOfBathrooms":1,"SqFeet":4591,"Address1":"48067 Dunning Road","Address2":"Apt 577","City":"Sacramento","State":"CA","Zip":"94257","Description":null,"SalesValue":"$4374240.69"},
{"NoOfRooms":5,"NoOfBathrooms":2,"SqFeet":5050,"Address1":"292 Jackson Street","Address2":"Apt 705","City":"San Jose","State":"CA","Zip":"95123","Description":null,"SalesValue":"$6614394.88"},
{"NoOfRooms":3,"NoOfBathrooms":2,"SqFeet":488,"Address1":"764 Warbler Street","Address2":"18th Floor","City":"San Jose","State":"CA","Zip":"95128","Description":null,"SalesValue":"$5780310.00"},
{"NoOfRooms":3,"NoOfBathrooms":3,"SqFeet":1294,"Address1":"31623 Harbort Trail","Address2":"PO Box 38163","City":"Orange","State":"CA","Zip":"92668","Description":null,"SalesValue":"$3138574.13"},
{"NoOfRooms":3,"NoOfBathrooms":4,"SqFeet":8164,"Address1":"760 Truax Park","Address2":"PO Box 28354","City":"Santa Clara","State":"CA","Zip":"95054","Description":null,"SalesValue":"$9184549.10"},
{"NoOfRooms":3,"NoOfBathrooms":2,"SqFeet":3662,"Address1":"9043 Lakewood Crossing","Address2":"Apt 707","City":"Sacramento","State":"CA","Zip":"95828","Description":null,"SalesValue":"$3218817.92"},
{"NoOfRooms":4,"NoOfBathrooms":5,"SqFeet":4485,"Address1":"3 Northview Road","Address2":"3rd Floor","City":"Bakersfield","State":"CA","Zip":"93311","Description":null,"SalesValue":"$2284053.82"},
{"NoOfRooms":4,"NoOfBathrooms":1,"SqFeet":8955,"Address1":"878 Clyde Gallagher Drive","Address2":"Suite 91","City":"San Francisco","State":"CA","Zip":"94105","Description":null,"SalesValue":"$2554190.86"},
{"NoOfRooms":2,"NoOfBathrooms":4,"SqFeet":6910,"Address1":"40 Fremont Street","Address2":"15th Floor","City":"San Francisco","State":"CA","Zip":"94126","Description":null,"SalesValue":"$4797959.09"},
{"NoOfRooms":4,"NoOfBathrooms":2,"SqFeet":6605,"Address1":"48601 Fremont Park","Address2":"Suite 77","City":"Fresno","State":"CA","Zip":"93750","Description":null,"SalesValue":"$8983201.27"},
{"NoOfRooms":5,"NoOfBathrooms":5,"SqFeet":8497,"Address1":"1469 Esker Road","Address2":"PO Box 30795","City":"San Jose","State":"CA","Zip":"95133","Description":null,"SalesValue":"$7339596.63"},
{"NoOfRooms":1,"NoOfBathrooms":2,"SqFeet":1365,"Address1":"73159 Browning Park","Address2":"15th Floor","City":"San Bernardino","State":"CA","Zip":"92405","Description":null,"SalesValue":"$4202531.18"},
{"NoOfRooms":5,"NoOfBathrooms":5,"SqFeet":7004,"Address1":"8 Mariners Cove Park","Address2":"PO Box 88686","City":"Modesto","State":"CA","Zip":"95397","Description":null,"SalesValue":"$9138853.11"},
{"NoOfRooms":4,"NoOfBathrooms":1,"SqFeet":2708,"Address1":"03082 Atwood Lane","Address2":"18th Floor","City":"San Francisco","State":"CA","Zip":"94164","Description":null,"SalesValue":"$7216724.15"},
{"NoOfRooms":5,"NoOfBathrooms":4,"SqFeet":1613,"Address1":"6 Holmberg Pass","Address2":"Room 902","City":"San Francisco","State":"CA","Zip":"94116","Description":null,"SalesValue":"$4959844.95"},
{"NoOfRooms":1,"NoOfBathrooms":5,"SqFeet":1875,"Address1":"9 Sherman Hill","Address2":"Room 720","City":"Orange","State":"CA","Zip":"92862","Description":null,"SalesValue":"$4418366.27"},
{"NoOfRooms":3,"NoOfBathrooms":5,"SqFeet":6578,"Address1":"2877 Northland Crossing","Address2":"Room 649","City":"Carlsbad","State":"CA","Zip":"92013","Description":null,"SalesValue":"$4114461.54"},
{"NoOfRooms":4,"NoOfBathrooms":5,"SqFeet":8844,"Address1":"53435 Summerview Place","Address2":"Suite 13","City":"Inglewood","State":"CA","Zip":"90305","Description":null,"SalesValue":"$4893658.75"},
{"NoOfRooms":1,"NoOfBathrooms":1,"SqFeet":6796,"Address1":"04 Sherman Parkway","Address2":"Room 477","City":"Irvine","State":"CA","Zip":"92710","Description":null,"SalesValue":"$4058283.52"},
{"NoOfRooms":4,"NoOfBathrooms":4,"SqFeet":1943,"Address1":"19868 Chinook Hill","Address2":"Room 971","City":"Los Angeles","State":"CA","Zip":"90040","Description":null,"SalesValue":"$4721340.93"},
{"NoOfRooms":5,"NoOfBathrooms":5,"SqFeet":8464,"Address1":"488 Troy Court","Address2":"PO Box 37104","City":"San Francisco","State":"CA","Zip":"94147","Description":null,"SalesValue":"$1070008.46"},
{"NoOfRooms":1,"NoOfBathrooms":5,"SqFeet":9208,"Address1":"163 Coleman Court","Address2":"PO Box 60016","City":"Fresno","State":"CA","Zip":"93786","Description":null,"SalesValue":"$8365403.63"},
{"NoOfRooms":4,"NoOfBathrooms":3,"SqFeet":7281,"Address1":"13 Ruskin Drive","Address2":"6th Floor","City":"San Francisco","State":"CA","Zip":"94169","Description":null,"SalesValue":"$2139905.17"},
{"NoOfRooms":1,"NoOfBathrooms":4,"SqFeet":7438,"Address1":"09 Merrick Circle","Address2":"9th Floor","City":"Whittier","State":"CA","Zip":"90610","Description":null,"SalesValue":"$1666379.75"},
{"NoOfRooms":5,"NoOfBathrooms":1,"SqFeet":5158,"Address1":"81 Lien Drive","Address2":"Room 219","City":"Orange","State":"CA","Zip":"92668","Description":null,"SalesValue":"$1997223.93"},
{"NoOfRooms":1,"NoOfBathrooms":4,"SqFeet":1202,"Address1":"3 Thackeray Hill","Address2":"Apt 1132","City":"San Francisco","State":"CA","Zip":"94121","Description":null,"SalesValue":"$7588022.47"},
{"NoOfRooms":4,"NoOfBathrooms":2,"SqFeet":7208,"Address1":"586 Dwight Plaza","Address2":"PO Box 97441","City":"Redwood City","State":"CA","Zip":"94064","Description":null,"SalesValue":"$4582538.86"},
{"NoOfRooms":4,"NoOfBathrooms":1,"SqFeet":9672,"Address1":"911 Namekagon Junction","Address2":"Room 1188","City":"San Francisco","State":"CA","Zip":"94154","Description":null,"SalesValue":"$8175194.17"},
{"NoOfRooms":5,"NoOfBathrooms":4,"SqFeet":7336,"Address1":"6 Sunfield Alley","Address2":"Suite 41","City":"Los Angeles","State":"CA","Zip":"90060","Description":null,"SalesValue":"$7597417.42"},
{"NoOfRooms":5,"NoOfBathrooms":1,"SqFeet":3822,"Address1":"83 Calypso Crossing","Address2":"Suite 81","City":"Sacramento","State":"CA","Zip":"94250","Description":null,"SalesValue":"$2005079.17"},
{"NoOfRooms":2,"NoOfBathrooms":3,"SqFeet":803,"Address1":"755 Muir Junction","Address2":"Apt 830","City":"San Diego","State":"CA","Zip":"92165","Description":null,"SalesValue":"$5743780.74"},
{"NoOfRooms":2,"NoOfBathrooms":5,"SqFeet":3789,"Address1":"950 Charing Cross Street","Address2":"PO Box 21717","City":"Fresno","State":"CA","Zip":"93726","Description":null,"SalesValue":"$4704080.08"},
{"NoOfRooms":5,"NoOfBathrooms":4,"SqFeet":9708,"Address1":"1397 Gale Trail","Address2":"PO Box 25916","City":"San Francisco","State":"CA","Zip":"94154","Description":null,"SalesValue":"$597991.95"},
{"NoOfRooms":1,"NoOfBathrooms":4,"SqFeet":8791,"Address1":"225 Bunker Hill Parkway","Address2":"Suite 46","City":"San Francisco","State":"CA","Zip":"94137","Description":null,"SalesValue":"$5002839.62"},
{"NoOfRooms":1,"NoOfBathrooms":5,"SqFeet":5712,"Address1":"7 Annamark Point","Address2":"Room 1285","City":"Irvine","State":"CA","Zip":"92619","Description":null,"SalesValue":"$7029123.53"},
{"NoOfRooms":4,"NoOfBathrooms":3,"SqFeet":8420,"Address1":"94519 Melby Pass","Address2":"Apt 1007","City":"Inglewood","State":"CA","Zip":"90305","Description":null,"SalesValue":"$4110041.35"},
{"NoOfRooms":1,"NoOfBathrooms":4,"SqFeet":2658,"Address1":"06 Summerview Junction","Address2":"Room 539","City":"Santa Barbara","State":"CA","Zip":"93106","Description":null,"SalesValue":"$2851038.04"},
{"NoOfRooms":4,"NoOfBathrooms":1,"SqFeet":5882,"Address1":"28653 1st Hill","Address2":"Suite 49","City":"Pasadena","State":"CA","Zip":"91109","Description":null,"SalesValue":"$4400262.05"},
{"NoOfRooms":1,"NoOfBathrooms":2,"SqFeet":4500,"Address1":"29 Blackbird Parkway","Address2":"Suite 4","City":"Los Angeles","State":"CA","Zip":"90035","Description":null,"SalesValue":"$5308153.25"},
{"NoOfRooms":2,"NoOfBathrooms":1,"SqFeet":8731,"Address1":"65 Killdeer Hill","Address2":"Apt 1938","City":"Santa Barbara","State":"CA","Zip":"93106","Description":null,"SalesValue":"$8676512.22"},
{"NoOfRooms":4,"NoOfBathrooms":1,"SqFeet":6787,"Address1":"80 Independence Trail","Address2":"Room 897","City":"Anaheim","State":"CA","Zip":"92825","Description":null,"SalesValue":"$8625904.90"},
{"NoOfRooms":1,"NoOfBathrooms":1,"SqFeet":7413,"Address1":"133 Declaration Terrace","Address2":"Suite 26","City":"Visalia","State":"CA","Zip":"93291","Description":null,"SalesValue":"$7049501.75"},
{"NoOfRooms":2,"NoOfBathrooms":2,"SqFeet":1313,"Address1":"128 Homewood Crossing","Address2":"Suite 34","City":"Irvine","State":"CA","Zip":"92717","Description":null,"SalesValue":"$9972831.34"},
{"NoOfRooms":3,"NoOfBathrooms":1,"SqFeet":3438,"Address1":"20487 Pierstorff Parkway","Address2":"Apt 1130","City":"Brea","State":"CA","Zip":"92822","Description":null,"SalesValue":"$5552622.02"},
{"NoOfRooms":1,"NoOfBathrooms":4,"SqFeet":6802,"Address1":"8 Washington Center","Address2":"7th Floor","City":"San Diego","State":"CA","Zip":"92127","Description":null,"SalesValue":"$9016919.45"},
{"NoOfRooms":3,"NoOfBathrooms":3,"SqFeet":6611,"Address1":"6846 Havey Trail","Address2":"Room 1062","City":"Pasadena","State":"CA","Zip":"91109","Description":null,"SalesValue":"$1366069.40"},
{"NoOfRooms":3,"NoOfBathrooms":2,"SqFeet":9340,"Address1":"4 Westend Lane","Address2":"1st Floor","City":"Sacramento","State":"CA","Zip":"95818","Description":null,"SalesValue":"$1676401.49"},
{"NoOfRooms":4,"NoOfBathrooms":5,"SqFeet":4217,"Address1":"33 Shoshone Center","Address2":"8th Floor","City":"Los Angeles","State":"CA","Zip":"90071","Description":null,"SalesValue":"$5435619.93"},
{"NoOfRooms":1,"NoOfBathrooms":3,"SqFeet":8509,"Address1":"374 Jenifer Pass","Address2":"PO Box 77766","City":"Richmond","State":"CA","Zip":"94807","Description":null,"SalesValue":"$4791298.99"},
{"NoOfRooms":4,"NoOfBathrooms":3,"SqFeet":8498,"Address1":"9712 Ryan Court","Address2":"Apt 866","City":"Whittier","State":"CA","Zip":"90610","Description":null,"SalesValue":"$1629173.07"},
{"NoOfRooms":4,"NoOfBathrooms":4,"SqFeet":3029,"Address1":"86 Hintze Way","Address2":"Apt 605","City":"Fresno","State":"CA","Zip":"93704","Description":null,"SalesValue":"$9477979.64"},
{"NoOfRooms":3,"NoOfBathrooms":5,"SqFeet":2707,"Address1":"4 Ilene Trail","Address2":"Apt 858","City":"Los Angeles","State":"CA","Zip":"90094","Description":null,"SalesValue":"$543463.47"},
{"NoOfRooms":3,"NoOfBathrooms":1,"SqFeet":1345,"Address1":"56151 Larry Crossing","Address2":"Suite 30","City":"San Bernardino","State":"CA","Zip":"92405","Description":null,"SalesValue":"$1980683.90"},
{"NoOfRooms":3,"NoOfBathrooms":2,"SqFeet":4188,"Address1":"17 Westend Hill","Address2":"5th Floor","City":"San Bernardino","State":"CA","Zip":"92405","Description":null,"SalesValue":"$9308495.01"},
{"NoOfRooms":5,"NoOfBathrooms":1,"SqFeet":1865,"Address1":"826 Center Hill","Address2":"Room 422","City":"Van Nuys","State":"CA","Zip":"91406","Description":null,"SalesValue":"$1930454.32"},
{"NoOfRooms":3,"NoOfBathrooms":2,"SqFeet":8559,"Address1":"2506 Ruskin Crossing","Address2":"Room 1582","City":"San Francisco","State":"CA","Zip":"94154","Description":null,"SalesValue":"$2123759.63"},
{"NoOfRooms":2,"NoOfBathrooms":3,"SqFeet":7844,"Address1":"1083 Dovetail Plaza","Address2":"PO Box 25551","City":"Oakland","State":"CA","Zip":"94660","Description":null,"SalesValue":"$2867890.46"},
{"NoOfRooms":4,"NoOfBathrooms":1,"SqFeet":794,"Address1":"39 Maryland Terrace","Address2":"Apt 371","City":"San Jose","State":"CA","Zip":"95108","Description":null,"SalesValue":"$1907007.44"},
{"NoOfRooms":5,"NoOfBathrooms":3,"SqFeet":6099,"Address1":"04 Park Meadow Point","Address2":"Apt 839","City":"Modesto","State":"CA","Zip":"95354","Description":null,"SalesValue":"$7654886.93"},
{"NoOfRooms":4,"NoOfBathrooms":1,"SqFeet":3813,"Address1":"34804 Londonderry Avenue","Address2":"PO Box 32565","City":"San Bernardino","State":"CA","Zip":"92405","Description":null,"SalesValue":"$6811713.53"},
{"NoOfRooms":4,"NoOfBathrooms":1,"SqFeet":9838,"Address1":"4207 Colorado Junction","Address2":"Room 983","City":"San Francisco","State":"CA","Zip":"94147","Description":null,"SalesValue":"$6864253.40"},
{"NoOfRooms":3,"NoOfBathrooms":3,"SqFeet":104,"Address1":"4522 Sunfield Center","Address2":"Apt 1434","City":"Palo Alto","State":"CA","Zip":"94302","Description":null,"SalesValue":"$6959668.12"},
{"NoOfRooms":4,"NoOfBathrooms":5,"SqFeet":7343,"Address1":"4 Sloan Avenue","Address2":"Room 590","City":"Oakland","State":"CA","Zip":"94660","Description":null,"SalesValue":"$7417178.49"},
{"NoOfRooms":5,"NoOfBathrooms":2,"SqFeet":8994,"Address1":"160 Corben Pass","Address2":"Suite 100","City":"San Diego","State":"CA","Zip":"92127","Description":null,"SalesValue":"$9824402.04"},
{"NoOfRooms":3,"NoOfBathrooms":5,"SqFeet":6984,"Address1":"82716 Westend Alley","Address2":"Room 254","City":"Sacramento","State":"CA","Zip":"94286","Description":null,"SalesValue":"$3433882.83"},
{"NoOfRooms":2,"NoOfBathrooms":4,"SqFeet":5999,"Address1":"362 Dottie Street","Address2":"PO Box 29517","City":"San Francisco","State":"CA","Zip":"94177","Description":null,"SalesValue":"$5238152.83"},
{"NoOfRooms":1,"NoOfBathrooms":5,"SqFeet":7406,"Address1":"9188 Schlimgen Alley","Address2":"Suite 95","City":"San Diego","State":"CA","Zip":"92145","Description":null,"SalesValue":"$8017511.15"},
{"NoOfRooms":1,"NoOfBathrooms":2,"SqFeet":134,"Address1":"72 Mitchell Street","Address2":"Room 1435","City":"Long Beach","State":"CA","Zip":"90810","Description":null,"SalesValue":"$4060916.63"},
{"NoOfRooms":1,"NoOfBathrooms":2,"SqFeet":8257,"Address1":"27743 Oak Valley Junction","Address2":"PO Box 72539","City":"Mountain View","State":"CA","Zip":"94042","Description":null,"SalesValue":"$3865045.52"},
{"NoOfRooms":4,"NoOfBathrooms":4,"SqFeet":1584,"Address1":"56 Mcguire Plaza","Address2":"PO Box 97584","City":"Inglewood","State":"CA","Zip":"90305","Description":null,"SalesValue":"$5852071.06"},
{"NoOfRooms":4,"NoOfBathrooms":1,"SqFeet":1377,"Address1":"693 Hallows Circle","Address2":"PO Box 58795","City":"Sacramento","State":"CA","Zip":"94291","Description":null,"SalesValue":"$2567429.00"},
{"NoOfRooms":3,"NoOfBathrooms":3,"SqFeet":5204,"Address1":"534 Holy Cross Pass","Address2":"PO Box 54185","City":"San Jose","State":"CA","Zip":"95138","Description":null,"SalesValue":"$4218141.54"},
{"NoOfRooms":2,"NoOfBathrooms":2,"SqFeet":3252,"Address1":"15619 6th Trail","Address2":"Apt 1846","City":"Carlsbad","State":"CA","Zip":"92013","Description":null,"SalesValue":"$7823593.12"},
{"NoOfRooms":2,"NoOfBathrooms":1,"SqFeet":7405,"Address1":"7614 Maple Wood Trail","Address2":"PO Box 50857","City":"Santa Cruz","State":"CA","Zip":"95064","Description":null,"SalesValue":"$6434723.90"},
{"NoOfRooms":5,"NoOfBathrooms":4,"SqFeet":1832,"Address1":"16290 Grim Avenue","Address2":"PO Box 48416","City":"Chico","State":"CA","Zip":"95973","Description":null,"SalesValue":"$9928744.18"},
{"NoOfRooms":5,"NoOfBathrooms":5,"SqFeet":6171,"Address1":"66 Fallview Alley","Address2":"16th Floor","City":"Huntington Beach","State":"CA","Zip":"92648","Description":null,"SalesValue":"$3425982.68"},
{"NoOfRooms":5,"NoOfBathrooms":5,"SqFeet":8383,"Address1":"326 Meadow Ridge Center","Address2":"Apt 181","City":"Escondido","State":"CA","Zip":"92030","Description":null,"SalesValue":"$4754459.60"},
{"NoOfRooms":5,"NoOfBathrooms":5,"SqFeet":1540,"Address1":"82 Ilene Road","Address2":"Suite 37","City":"Glendale","State":"CA","Zip":"91205","Description":null,"SalesValue":"$8095773.23"},
{"NoOfRooms":5,"NoOfBathrooms":5,"SqFeet":7201,"Address1":"50401 Monterey Point","Address2":"Suite 89","City":"Sacramento","State":"CA","Zip":"94263","Description":null,"SalesValue":"$6557352.22"},
{"NoOfRooms":4,"NoOfBathrooms":2,"SqFeet":8117,"Address1":"0 Montana Alley","Address2":"Apt 1877","City":"San Diego","State":"CA","Zip":"92165","Description":null,"SalesValue":"$6995398.53"},
{"NoOfRooms":1,"NoOfBathrooms":2,"SqFeet":3007,"Address1":"3588 Division Drive","Address2":"Apt 453","City":"Los Angeles","State":"CA","Zip":"90065","Description":null,"SalesValue":"$2891055.56"},
{"NoOfRooms":4,"NoOfBathrooms":2,"SqFeet":6064,"Address1":"4043 Oriole Parkway","Address2":"Apt 619","City":"San Bernardino","State":"CA","Zip":"92405","Description":null,"SalesValue":"$4775164.31"},
{"NoOfRooms":2,"NoOfBathrooms":5,"SqFeet":7999,"Address1":"3852 Mesta Alley","Address2":"8th Floor","City":"Oxnard","State":"CA","Zip":"93034","Description":null,"SalesValue":"$7628886.74"},
{"NoOfRooms":4,"NoOfBathrooms":1,"SqFeet":7688,"Address1":"148 Trailsway Trail","Address2":"12th Floor","City":"San Diego","State":"CA","Zip":"92186","Description":null,"SalesValue":"$567474.78"},
{"NoOfRooms":1,"NoOfBathrooms":5,"SqFeet":8028,"Address1":"7 Coolidge Junction","Address2":"Suite 93","City":"Oakland","State":"CA","Zip":"94660","Description":null,"SalesValue":"$2762092.95"},
{"NoOfRooms":4,"NoOfBathrooms":4,"SqFeet":1570,"Address1":"04 American Trail","Address2":"Apt 1867","City":"Los Angeles","State":"CA","Zip":"90060","Description":null,"SalesValue":"$4255594.04"},
{"NoOfRooms":2,"NoOfBathrooms":1,"SqFeet":5604,"Address1":"23894 Scott Junction","Address2":"Apt 527","City":"South Lake Tahoe","State":"CA","Zip":"96154","Description":null,"SalesValue":"$7411024.93"},
{"NoOfRooms":5,"NoOfBathrooms":5,"SqFeet":7116,"Address1":"32 Nova Lane","Address2":"Suite 2","City":"Santa Barbara","State":"CA","Zip":"93106","Description":null,"SalesValue":"$8645043.65"},
{"NoOfRooms":1,"NoOfBathrooms":3,"SqFeet":7736,"Address1":"6408 Loomis Alley","Address2":"PO Box 38326","City":"Sacramento","State":"CA","Zip":"94291","Description":null,"SalesValue":"$638920.74"},
{"NoOfRooms":4,"NoOfBathrooms":3,"SqFeet":3483,"Address1":"803 Hansons Plaza","Address2":"PO Box 28235","City":"San Luis Obispo","State":"CA","Zip":"93407","Description":null,"SalesValue":"$5226186.20"},
{"NoOfRooms":5,"NoOfBathrooms":4,"SqFeet":4679,"Address1":"672 Hovde Point","Address2":"Apt 1597","City":"Riverside","State":"CA","Zip":"92513","Description":null,"SalesValue":"$5556317.68"},
{"NoOfRooms":5,"NoOfBathrooms":1,"SqFeet":4562,"Address1":"11 La Follette Alley","Address2":"Apt 1498","City":"Sacramento","State":"CA","Zip":"94237","Description":null,"SalesValue":"$8065536.65"},
{"NoOfRooms":4,"NoOfBathrooms":4,"SqFeet":960,"Address1":"325 Reinke Street","Address2":"PO Box 23573","City":"Santa Barbara","State":"CA","Zip":"93111","Description":null,"SalesValue":"$7634240.61"},
{"NoOfRooms":1,"NoOfBathrooms":1,"SqFeet":2553,"Address1":"961 Wayridge Drive","Address2":"PO Box 11382","City":"Alhambra","State":"CA","Zip":"91841","Description":null,"SalesValue":"$5468887.88"},
{"NoOfRooms":3,"NoOfBathrooms":2,"SqFeet":1032,"Address1":"798 Cordelia Lane","Address2":"Apt 1731","City":"Van Nuys","State":"CA","Zip":"91406","Description":null,"SalesValue":"$7414196.67"},
{"NoOfRooms":3,"NoOfBathrooms":5,"SqFeet":6896,"Address1":"8522 Truax Trail","Address2":"Apt 602","City":"Berkeley","State":"CA","Zip":"94705","Description":null,"SalesValue":"$1982523.56"},
{"NoOfRooms":5,"NoOfBathrooms":3,"SqFeet":4737,"Address1":"06296 High Crossing Hill","Address2":"5th Floor","City":"San Mateo","State":"CA","Zip":"94405","Description":null,"SalesValue":"$8067962.61"},
{"NoOfRooms":3,"NoOfBathrooms":5,"SqFeet":2286,"Address1":"706 Stuart Place","Address2":"Apt 1041","City":"Los Angeles","State":"CA","Zip":"90010","Description":null,"SalesValue":"$3090000.92"},
{"NoOfRooms":1,"NoOfBathrooms":3,"SqFeet":3169,"Address1":"147 Harper Place","Address2":"3rd Floor","City":"Riverside","State":"CA","Zip":"92513","Description":null,"SalesValue":"$1042181.55"},
{"NoOfRooms":3,"NoOfBathrooms":4,"SqFeet":1749,"Address1":"8 Paget Trail","Address2":"Apt 833","City":"Los Angeles","State":"CA","Zip":"90010","Description":null,"SalesValue":"$7587570.01"},
{"NoOfRooms":4,"NoOfBathrooms":2,"SqFeet":4555,"Address1":"55 Mcguire Junction","Address2":"Apt 1478","City":"Sacramento","State":"CA","Zip":"94237","Description":null,"SalesValue":"$572430.61"},
{"NoOfRooms":1,"NoOfBathrooms":2,"SqFeet":3671,"Address1":"90 Oriole Circle","Address2":"PO Box 67642","City":"Los Angeles","State":"CA","Zip":"90065","Description":null,"SalesValue":"$1048511.45"},
{"NoOfRooms":5,"NoOfBathrooms":3,"SqFeet":9159,"Address1":"81 Green Plaza","Address2":"13th Floor","City":"North Hollywood","State":"CA","Zip":"91616","Description":null,"SalesValue":"$3494186.92"},
{"NoOfRooms":1,"NoOfBathrooms":4,"SqFeet":7186,"Address1":"6940 Pearson Trail","Address2":"11th Floor","City":"Irvine","State":"CA","Zip":"92619","Description":null,"SalesValue":"$3839137.41"},
{"NoOfRooms":2,"NoOfBathrooms":5,"SqFeet":7525,"Address1":"922 Westport Road","Address2":"Room 1823","City":"Pasadena","State":"CA","Zip":"91117","Description":null,"SalesValue":"$7519676.94"},
{"NoOfRooms":5,"NoOfBathrooms":4,"SqFeet":9879,"Address1":"8 Tomscot Alley","Address2":"Apt 568","City":"Sacramento","State":"CA","Zip":"95813","Description":null,"SalesValue":"$2567674.68"},
{"NoOfRooms":4,"NoOfBathrooms":5,"SqFeet":6518,"Address1":"459 Melvin Hill","Address2":"Suite 19","City":"Santa Cruz","State":"CA","Zip":"95064","Description":null,"SalesValue":"$3452983.30"},
{"NoOfRooms":3,"NoOfBathrooms":2,"SqFeet":3924,"Address1":"434 Hayes Drive","Address2":"PO Box 58335","City":"Irvine","State":"CA","Zip":"92612","Description":null,"SalesValue":"$8847294.54"},
{"NoOfRooms":5,"NoOfBathrooms":4,"SqFeet":6887,"Address1":"355 Lunder Street","Address2":"PO Box 30514","City":"Los Angeles","State":"CA","Zip":"90189","Description":null,"SalesValue":"$1517230.82"},
{"NoOfRooms":1,"NoOfBathrooms":1,"SqFeet":277,"Address1":"14 Sutherland Avenue","Address2":"Room 958","City":"San Diego","State":"CA","Zip":"92110","Description":null,"SalesValue":"$1174245.00"},
{"NoOfRooms":2,"NoOfBathrooms":3,"SqFeet":2455,"Address1":"3344 Butternut Parkway","Address2":"Apt 451","City":"Los Angeles","State":"CA","Zip":"90050","Description":null,"SalesValue":"$2191973.95"},
{"NoOfRooms":3,"NoOfBathrooms":5,"SqFeet":8372,"Address1":"6547 Clarendon Crossing","Address2":"Suite 11","City":"Sacramento","State":"CA","Zip":"94250","Description":null,"SalesValue":"$3429637.68"},
{"NoOfRooms":3,"NoOfBathrooms":2,"SqFeet":752,"Address1":"309 Chinook Park","Address2":"Apt 228","City":"Carlsbad","State":"CA","Zip":"92013","Description":null,"SalesValue":"$8752498.71"},
{"NoOfRooms":4,"NoOfBathrooms":3,"SqFeet":6516,"Address1":"05735 Butternut Junction","Address2":"Suite 70","City":"Irvine","State":"CA","Zip":"92710","Description":null,"SalesValue":"$4945855.14"},
{"NoOfRooms":4,"NoOfBathrooms":2,"SqFeet":7184,"Address1":"615 Magdeline Lane","Address2":"Apt 1141","City":"Sacramento","State":"CA","Zip":"94250","Description":null,"SalesValue":"$7680951.92"},
{"NoOfRooms":2,"NoOfBathrooms":1,"SqFeet":7548,"Address1":"3161 Glendale Circle","Address2":"Apt 1372","City":"Bakersfield","State":"CA","Zip":"93386","Description":null,"SalesValue":"$1314355.42"},
{"NoOfRooms":4,"NoOfBathrooms":2,"SqFeet":2759,"Address1":"446 Dryden Way","Address2":"Apt 1335","City":"Corona","State":"CA","Zip":"92883","Description":null,"SalesValue":"$3987314.59"},
{"NoOfRooms":4,"NoOfBathrooms":5,"SqFeet":3514,"Address1":"78 Main Trail","Address2":"15th Floor","City":"Sacramento","State":"CA","Zip":"95818","Description":null,"SalesValue":"$6444166.75"},
{"NoOfRooms":3,"NoOfBathrooms":5,"SqFeet":3933,"Address1":"78555 Monument Court","Address2":"Apt 1554","City":"Northridge","State":"CA","Zip":"91328","Description":null,"SalesValue":"$5567223.01"},
{"NoOfRooms":2,"NoOfBathrooms":5,"SqFeet":189,"Address1":"8158 Eagle Crest Pass","Address2":"Room 1054","City":"Los Angeles","State":"CA","Zip":"90101","Description":null,"SalesValue":"$7472336.05"},
{"NoOfRooms":4,"NoOfBathrooms":3,"SqFeet":924,"Address1":"47 Namekagon Junction","Address2":"Room 1043","City":"Sacramento","State":"CA","Zip":"95818","Description":null,"SalesValue":"$4338804.77"},
{"NoOfRooms":3,"NoOfBathrooms":5,"SqFeet":2379,"Address1":"9530 Moose Street","Address2":"8th Floor","City":"Santa Clara","State":"CA","Zip":"95054","Description":null,"SalesValue":"$8782931.65"},
{"NoOfRooms":2,"NoOfBathrooms":1,"SqFeet":2101,"Address1":"665 Debs Alley","Address2":"Suite 89","City":"Irvine","State":"CA","Zip":"92619","Description":null,"SalesValue":"$5868057.31"},
{"NoOfRooms":5,"NoOfBathrooms":4,"SqFeet":1748,"Address1":"6 Banding Pass","Address2":"Suite 22","City":"Corona","State":"CA","Zip":"92883","Description":null,"SalesValue":"$2103906.01"},
{"NoOfRooms":5,"NoOfBathrooms":4,"SqFeet":903,"Address1":"8 Katie Center","Address2":"Apt 255","City":"San Francisco","State":"CA","Zip":"94121","Description":null,"SalesValue":"$6871374.89"},
{"NoOfRooms":1,"NoOfBathrooms":5,"SqFeet":806,"Address1":"51444 Russell Road","Address2":"Room 473","City":"Sacramento","State":"CA","Zip":"94207","Description":null,"SalesValue":"$7364723.29"},
{"NoOfRooms":2,"NoOfBathrooms":1,"SqFeet":2691,"Address1":"461 Oak Terrace","Address2":"Suite 30","City":"Long Beach","State":"CA","Zip":"90831","Description":null,"SalesValue":"$7208277.23"},
{"NoOfRooms":3,"NoOfBathrooms":4,"SqFeet":8729,"Address1":"659 Clemons Court","Address2":"Apt 248","City":"Carlsbad","State":"CA","Zip":"92013","Description":null,"SalesValue":"$7708258.23"},
{"NoOfRooms":2,"NoOfBathrooms":5,"SqFeet":210,"Address1":"932 Schurz Junction","Address2":"5th Floor","City":"Oakland","State":"CA","Zip":"94605","Description":null,"SalesValue":"$4114580.74"},
{"NoOfRooms":1,"NoOfBathrooms":1,"SqFeet":257,"Address1":"40 Huxley Place","Address2":"Apt 967","City":"Orange","State":"CA","Zip":"92867","Description":null,"SalesValue":"$6681719.00"},
{"NoOfRooms":4,"NoOfBathrooms":4,"SqFeet":2056,"Address1":"0465 Bowman Lane","Address2":"Room 1430","City":"Anaheim","State":"CA","Zip":"92825","Description":null,"SalesValue":"$6143924.66"},
{"NoOfRooms":4,"NoOfBathrooms":1,"SqFeet":7320,"Address1":"2 Havey Avenue","Address2":"PO Box 27352","City":"San Luis Obispo","State":"CA","Zip":"93407","Description":null,"SalesValue":"$1626893.87"},
{"NoOfRooms":3,"NoOfBathrooms":5,"SqFeet":4803,"Address1":"3133 Southridge Terrace","Address2":"Room 1455","City":"San Jose","State":"CA","Zip":"95118","Description":null,"SalesValue":"$2713533.50"},
{"NoOfRooms":3,"NoOfBathrooms":5,"SqFeet":1046,"Address1":"2441 Montana Park","Address2":"Apt 368","City":"Sacramento","State":"CA","Zip":"95833","Description":null,"SalesValue":"$6356371.81"},
{"NoOfRooms":5,"NoOfBathrooms":1,"SqFeet":3941,"Address1":"91507 Eagle Crest Court","Address2":"Room 74","City":"Oakland","State":"CA","Zip":"94611","Description":null,"SalesValue":"$9869420.45"},
{"NoOfRooms":1,"NoOfBathrooms":3,"SqFeet":8653,"Address1":"8114 Aberg Center","Address2":"9th Floor","City":"Oceanside","State":"CA","Zip":"92056","Description":null,"SalesValue":"$8035188.75"},
{"NoOfRooms":3,"NoOfBathrooms":5,"SqFeet":2369,"Address1":"8 Welch Junction","Address2":"3rd Floor","City":"Sacramento","State":"CA","Zip":"95813","Description":null,"SalesValue":"$8279279.34"},
{"NoOfRooms":2,"NoOfBathrooms":3,"SqFeet":2451,"Address1":"01931 Mendota Junction","Address2":"Room 333","City":"Hayward","State":"CA","Zip":"94544","Description":null,"SalesValue":"$1831292.67"},
{"NoOfRooms":2,"NoOfBathrooms":4,"SqFeet":527,"Address1":"9 Chinook Terrace","Address2":"Apt 1133","City":"Santa Monica","State":"CA","Zip":"90410","Description":null,"SalesValue":"$7280365.29"},
{"NoOfRooms":1,"NoOfBathrooms":4,"SqFeet":1509,"Address1":"48123 Drewry Lane","Address2":"PO Box 9337","City":"Sacramento","State":"CA","Zip":"94297","Description":null,"SalesValue":"$1240683.92"},
{"NoOfRooms":1,"NoOfBathrooms":1,"SqFeet":6861,"Address1":"67 Schlimgen Park","Address2":"PO Box 20274","City":"San Diego","State":"CA","Zip":"92165","Description":null,"SalesValue":"$6799253.81"},
{"NoOfRooms":4,"NoOfBathrooms":5,"SqFeet":5051,"Address1":"478 Bay Parkway","Address2":"17th Floor","City":"San Francisco","State":"CA","Zip":"94164","Description":null,"SalesValue":"$7589418.89"},
{"NoOfRooms":4,"NoOfBathrooms":2,"SqFeet":1069,"Address1":"9 Granby Crossing","Address2":"Room 185","City":"Los Angeles","State":"CA","Zip":"90087","Description":null,"SalesValue":"$1486381.57"},
{"NoOfRooms":1,"NoOfBathrooms":5,"SqFeet":6013,"Address1":"08 Tony Pass","Address2":"2nd Floor","City":"Sacramento","State":"CA","Zip":"94263","Description":null,"SalesValue":"$5669759.98"},
{"NoOfRooms":2,"NoOfBathrooms":1,"SqFeet":4738,"Address1":"3666 Oak Valley Lane","Address2":"Suite 22","City":"San Jose","State":"CA","Zip":"95123","Description":null,"SalesValue":"$1522347.63"},
{"NoOfRooms":1,"NoOfBathrooms":5,"SqFeet":995,"Address1":"5 Service Drive","Address2":"Apt 372","City":"Orange","State":"CA","Zip":"92862","Description":null,"SalesValue":"$9635472.99"},
{"NoOfRooms":4,"NoOfBathrooms":5,"SqFeet":7313,"Address1":"866 Forster Terrace","Address2":"PO Box 9256","City":"Los Angeles","State":"CA","Zip":"90071","Description":null,"SalesValue":"$9850684.59"},
{"NoOfRooms":4,"NoOfBathrooms":3,"SqFeet":8450,"Address1":"78 Mariners Cove Center","Address2":"Suite 48","City":"Fresno","State":"CA","Zip":"93721","Description":null,"SalesValue":"$2212204.65"},
{"NoOfRooms":4,"NoOfBathrooms":1,"SqFeet":8606,"Address1":"8035 Chive Lane","Address2":"Apt 1142","City":"Long Beach","State":"CA","Zip":"90831","Description":null,"SalesValue":"$4875938.21"},
{"NoOfRooms":5,"NoOfBathrooms":5,"SqFeet":6204,"Address1":"59 Clyde Gallagher Junction","Address2":"Room 1188","City":"Santa Barbara","State":"CA","Zip":"93150","Description":null,"SalesValue":"$7060452.62"},
{"NoOfRooms":1,"NoOfBathrooms":1,"SqFeet":9474,"Address1":"99 Mesta Street","Address2":"Room 797","City":"Bakersfield","State":"CA","Zip":"93386","Description":null,"SalesValue":"$620801.45"},
{"NoOfRooms":3,"NoOfBathrooms":3,"SqFeet":5055,"Address1":"4693 Paget Way","Address2":"12th Floor","City":"Garden Grove","State":"CA","Zip":"92844","Description":null,"SalesValue":"$2604272.98"},
{"NoOfRooms":3,"NoOfBathrooms":3,"SqFeet":8540,"Address1":"5 Marquette Circle","Address2":"PO Box 24455","City":"Sacramento","State":"CA","Zip":"94230","Description":null,"SalesValue":"$7203941.60"},
{"NoOfRooms":3,"NoOfBathrooms":2,"SqFeet":7954,"Address1":"19513 Nancy Plaza","Address2":"Suite 41","City":"Santa Clara","State":"CA","Zip":"95054","Description":null,"SalesValue":"$1443238.37"},
{"NoOfRooms":2,"NoOfBathrooms":3,"SqFeet":3427,"Address1":"76400 Manufacturers Lane","Address2":"Room 337","City":"Sacramento","State":"CA","Zip":"94291","Description":null,"SalesValue":"$5313288.99"},
{"NoOfRooms":1,"NoOfBathrooms":1,"SqFeet":2934,"Address1":"98664 Gateway Parkway","Address2":"Room 1719","City":"Riverside","State":"CA","Zip":"92519","Description":null,"SalesValue":"$5432798.46"},
{"NoOfRooms":4,"NoOfBathrooms":4,"SqFeet":2245,"Address1":"9 Summer Ridge Avenue","Address2":"15th Floor","City":"Pasadena","State":"CA","Zip":"91131","Description":null,"SalesValue":"$5838234.50"},
{"NoOfRooms":3,"NoOfBathrooms":4,"SqFeet":1121,"Address1":"48955 Westend Plaza","Address2":"5th Floor","City":"San Francisco","State":"CA","Zip":"94164","Description":null,"SalesValue":"$5390853.74"},
{"NoOfRooms":3,"NoOfBathrooms":4,"SqFeet":6031,"Address1":"9 Stoughton Alley","Address2":"Apt 1750","City":"Los Angeles","State":"CA","Zip":"90040","Description":null,"SalesValue":"$4559149.57"},
{"NoOfRooms":1,"NoOfBathrooms":5,"SqFeet":3788,"Address1":"26502 Dapin Plaza","Address2":"Apt 1314","City":"Torrance","State":"CA","Zip":"90510","Description":null,"SalesValue":"$7472733.71"},
{"NoOfRooms":4,"NoOfBathrooms":4,"SqFeet":2252,"Address1":"2 Bonner Parkway","Address2":"Apt 1419","City":"Carlsbad","State":"CA","Zip":"92013","Description":null,"SalesValue":"$5514321.50"},
{"NoOfRooms":4,"NoOfBathrooms":1,"SqFeet":4498,"Address1":"6660 Green Ridge Plaza","Address2":"Apt 1481","City":"Riverside","State":"CA","Zip":"92505","Description":null,"SalesValue":"$3202787.46"},
{"NoOfRooms":2,"NoOfBathrooms":5,"SqFeet":3006,"Address1":"57 Anhalt Way","Address2":"11th Floor","City":"San Jose","State":"CA","Zip":"95173","Description":null,"SalesValue":"$5374610.07"},
{"NoOfRooms":2,"NoOfBathrooms":3,"SqFeet":1516,"Address1":"056 Kennedy Drive","Address2":"Room 56","City":"Los Angeles","State":"CA","Zip":"90015","Description":null,"SalesValue":"$3184215.99"},
{"NoOfRooms":4,"NoOfBathrooms":1,"SqFeet":5143,"Address1":"750 1st Place","Address2":"Apt 776","City":"Oakland","State":"CA","Zip":"94627","Description":null,"SalesValue":"$9450315.97"},
{"NoOfRooms":2,"NoOfBathrooms":4,"SqFeet":9511,"Address1":"636 Towne Crossing","Address2":"Room 260","City":"San Francisco","State":"CA","Zip":"94154","Description":null,"SalesValue":"$7829988.09"},
{"NoOfRooms":3,"NoOfBathrooms":3,"SqFeet":305,"Address1":"08 Sullivan Parkway","Address2":"PO Box 46794","City":"San Francisco","State":"CA","Zip":"94177","Description":null,"SalesValue":"$8508994.11"},
{"NoOfRooms":4,"NoOfBathrooms":4,"SqFeet":9944,"Address1":"748 Lotheville Trail","Address2":"Suite 95","City":"Los Angeles","State":"CA","Zip":"90081","Description":null,"SalesValue":"$3485145.14"},
{"NoOfRooms":4,"NoOfBathrooms":2,"SqFeet":9767,"Address1":"495 Grasskamp Alley","Address2":"3rd Floor","City":"San Diego","State":"CA","Zip":"92196","Description":null,"SalesValue":"$6257452.52"},
{"NoOfRooms":4,"NoOfBathrooms":3,"SqFeet":7043,"Address1":"13 Sutteridge Circle","Address2":"Suite 26","City":"Burbank","State":"CA","Zip":"91505","Description":null,"SalesValue":"$7241689.91"},
{"NoOfRooms":2,"NoOfBathrooms":2,"SqFeet":8888,"Address1":"515 Aberg Park","Address2":"Room 321","City":"Van Nuys","State":"CA","Zip":"91499","Description":null,"SalesValue":"$728106.57"},
{"NoOfRooms":4,"NoOfBathrooms":5,"SqFeet":5972,"Address1":"5991 Fordem Court","Address2":"Suite 77","City":"Fresno","State":"CA","Zip":"93726","Description":null,"SalesValue":"$4875262.41"},
{"NoOfRooms":2,"NoOfBathrooms":5,"SqFeet":4992,"Address1":"814 Armistice Drive","Address2":"20th Floor","City":"Bakersfield","State":"CA","Zip":"93381","Description":null,"SalesValue":"$6798945.96"},
{"NoOfRooms":3,"NoOfBathrooms":1,"SqFeet":8593,"Address1":"7 Hollow Ridge Drive","Address2":"Suite 84","City":"Los Angeles","State":"CA","Zip":"90010","Description":null,"SalesValue":"$3629695.12"},
{"NoOfRooms":1,"NoOfBathrooms":3,"SqFeet":258,"Address1":"56 Scoville Avenue","Address2":"Room 1932","City":"San Francisco","State":"CA","Zip":"94110","Description":null,"SalesValue":"$2908329.33"},
{"NoOfRooms":3,"NoOfBathrooms":2,"SqFeet":5936,"Address1":"64 Acker Road","Address2":"Suite 89","City":"San Luis Obispo","State":"CA","Zip":"93407","Description":null,"SalesValue":"$6228224.84"},
{"NoOfRooms":1,"NoOfBathrooms":5,"SqFeet":9412,"Address1":"4631 Sunnyside Place","Address2":"PO Box 79700","City":"Burbank","State":"CA","Zip":"91505","Description":null,"SalesValue":"$9033685.13"},
{"NoOfRooms":4,"NoOfBathrooms":3,"SqFeet":9259,"Address1":"1735 Dottie Lane","Address2":"Apt 1783","City":"Palmdale","State":"CA","Zip":"93591","Description":null,"SalesValue":"$9624463.94"},
{"NoOfRooms":2,"NoOfBathrooms":2,"SqFeet":9827,"Address1":"6 Hintze Pass","Address2":"13th Floor","City":"Fresno","State":"CA","Zip":"93715","Description":null,"SalesValue":"$9874397.60"},
{"NoOfRooms":3,"NoOfBathrooms":4,"SqFeet":5915,"Address1":"03640 Graceland Road","Address2":"PO Box 60455","City":"Santa Barbara","State":"CA","Zip":"93106","Description":null,"SalesValue":"$4028674.23"},
{"NoOfRooms":5,"NoOfBathrooms":4,"SqFeet":5112,"Address1":"83 Steensland Lane","Address2":"Room 1729","City":"Inglewood","State":"CA","Zip":"90398","Description":null,"SalesValue":"$4597013.91"},
{"NoOfRooms":1,"NoOfBathrooms":1,"SqFeet":3871,"Address1":"33 Shelley Avenue","Address2":"PO Box 29222","City":"San Francisco","State":"CA","Zip":"94154","Description":null,"SalesValue":"$2545072.48"},
{"NoOfRooms":1,"NoOfBathrooms":2,"SqFeet":4777,"Address1":"9405 Lukken Pass","Address2":"6th Floor","City":"Carlsbad","State":"CA","Zip":"92013","Description":null,"SalesValue":"$4868163.01"},
{"NoOfRooms":3,"NoOfBathrooms":4,"SqFeet":2987,"Address1":"39869 Jenifer Circle","Address2":"PO Box 5466","City":"San Diego","State":"CA","Zip":"92176","Description":null,"SalesValue":"$3939828.05"},
{"NoOfRooms":4,"NoOfBathrooms":4,"SqFeet":9203,"Address1":"5 Anzinger Junction","Address2":"Suite 17","City":"Pomona","State":"CA","Zip":"91797","Description":null,"SalesValue":"$1206358.75"},
{"NoOfRooms":1,"NoOfBathrooms":1,"SqFeet":5866,"Address1":"796 Harper Way","Address2":"Apt 755","City":"Garden Grove","State":"CA","Zip":"92645","Description":null,"SalesValue":"$5939780.83"},
{"NoOfRooms":1,"NoOfBathrooms":1,"SqFeet":4423,"Address1":"528 Spenser Lane","Address2":"Room 51","City":"Lancaster","State":"CA","Zip":"93584","Description":null,"SalesValue":"$1539523.91"},
{"NoOfRooms":3,"NoOfBathrooms":4,"SqFeet":7140,"Address1":"0760 Northridge Pass","Address2":"11th Floor","City":"San Diego","State":"CA","Zip":"92160","Description":null,"SalesValue":"$3321188.53"},
{"NoOfRooms":2,"NoOfBathrooms":3,"SqFeet":9993,"Address1":"1718 Bartelt Court","Address2":"Room 281","City":"Newport Beach","State":"CA","Zip":"92662","Description":null,"SalesValue":"$9037576.72"},
{"NoOfRooms":5,"NoOfBathrooms":4,"SqFeet":4961,"Address1":"04427 Northridge Pass","Address2":"PO Box 56014","City":"Pasadena","State":"CA","Zip":"91199","Description":null,"SalesValue":"$2171096.57"},
{"NoOfRooms":1,"NoOfBathrooms":3,"SqFeet":8288,"Address1":"5 Steensland Pass","Address2":"Apt 1901","City":"Corona","State":"CA","Zip":"92883","Description":null,"SalesValue":"$2484575.22"},
{"NoOfRooms":1,"NoOfBathrooms":5,"SqFeet":6968,"Address1":"8265 Hudson Place","Address2":"17th Floor","City":"Los Angeles","State":"CA","Zip":"90189","Description":null,"SalesValue":"$9976278.37"},
{"NoOfRooms":4,"NoOfBathrooms":5,"SqFeet":1813,"Address1":"497 John Wall Center","Address2":"Suite 27","City":"Van Nuys","State":"CA","Zip":"91499","Description":null,"SalesValue":"$8132420.05"},
{"NoOfRooms":1,"NoOfBathrooms":3,"SqFeet":8234,"Address1":"328 Del Sol Park","Address2":"PO Box 30012","City":"Fresno","State":"CA","Zip":"93726","Description":null,"SalesValue":"$7735222.44"},
{"NoOfRooms":2,"NoOfBathrooms":5,"SqFeet":6503,"Address1":"33455 Shelley Parkway","Address2":"Room 1058","City":"Salinas","State":"CA","Zip":"93907","Description":null,"SalesValue":"$2223179.51"},
{"NoOfRooms":3,"NoOfBathrooms":3,"SqFeet":649,"Address1":"14 Doe Crossing Alley","Address2":"Suite 87","City":"Bakersfield","State":"CA","Zip":"93311","Description":null,"SalesValue":"$6011597.95"},
{"NoOfRooms":2,"NoOfBathrooms":3,"SqFeet":4758,"Address1":"70 Crescent Oaks Avenue","Address2":"Suite 22","City":"Oakland","State":"CA","Zip":"94660","Description":null,"SalesValue":"$9869995.35"},
{"NoOfRooms":2,"NoOfBathrooms":2,"SqFeet":8887,"Address1":"93 Farmco Parkway","Address2":"PO Box 88515","City":"Los Angeles","State":"CA","Zip":"90071","Description":null,"SalesValue":"$9444172.00"},
{"NoOfRooms":2,"NoOfBathrooms":3,"SqFeet":6061,"Address1":"15 Ryan Plaza","Address2":"Suite 16","City":"Santa Cruz","State":"CA","Zip":"95064","Description":null,"SalesValue":"$6748174.86"},
{"NoOfRooms":3,"NoOfBathrooms":5,"SqFeet":6116,"Address1":"4 Fulton Hill","Address2":"Room 1498","City":"Pasadena","State":"CA","Zip":"91199","Description":null,"SalesValue":"$5822565.42"},
{"NoOfRooms":4,"NoOfBathrooms":4,"SqFeet":2671,"Address1":"565 Washington Parkway","Address2":"1st Floor","City":"Santa Ana","State":"CA","Zip":"92705","Description":null,"SalesValue":"$6136422.22"},
{"NoOfRooms":5,"NoOfBathrooms":4,"SqFeet":2187,"Address1":"7 Duke Pass","Address2":"17th Floor","City":"Santa Monica","State":"CA","Zip":"90410","Description":null,"SalesValue":"$2262942.28"},
{"NoOfRooms":2,"NoOfBathrooms":2,"SqFeet":7704,"Address1":"300 Forest Dale Parkway","Address2":"Room 753","City":"Los Angeles","State":"CA","Zip":"90005","Description":null,"SalesValue":"$5079643.18"},
{"NoOfRooms":5,"NoOfBathrooms":3,"SqFeet":1857,"Address1":"7 Thompson Way","Address2":"Room 1052","City":"Pasadena","State":"CA","Zip":"91103","Description":null,"SalesValue":"$4920824.61"},
{"NoOfRooms":1,"NoOfBathrooms":4,"SqFeet":8036,"Address1":"056 Dennis Park","Address2":"PO Box 79800","City":"Newport Beach","State":"CA","Zip":"92662","Description":null,"SalesValue":"$7008056.62"},
{"NoOfRooms":2,"NoOfBathrooms":5,"SqFeet":6740,"Address1":"01 Sloan Plaza","Address2":"Suite 29","City":"San Jose","State":"CA","Zip":"95160","Description":null,"SalesValue":"$6117150.94"},
{"NoOfRooms":1,"NoOfBathrooms":5,"SqFeet":806,"Address1":"11 Emmet Crossing","Address2":"Room 1547","City":"San Luis Obispo","State":"CA","Zip":"93407","Description":null,"SalesValue":"$2094272.65"},
{"NoOfRooms":5,"NoOfBathrooms":5,"SqFeet":492,"Address1":"8 Merchant Parkway","Address2":"8th Floor","City":"Fullerton","State":"CA","Zip":"92640","Description":null,"SalesValue":"$4161107.86"},
{"NoOfRooms":1,"NoOfBathrooms":2,"SqFeet":1417,"Address1":"266 2nd Avenue","Address2":"Apt 1722","City":"Inglewood","State":"CA","Zip":"90398","Description":null,"SalesValue":"$5633200.93"},
{"NoOfRooms":1,"NoOfBathrooms":5,"SqFeet":9345,"Address1":"879 Autumn Leaf Terrace","Address2":"13th Floor","City":"Los Angeles","State":"CA","Zip":"90045","Description":null,"SalesValue":"$8429903.51"},
{"NoOfRooms":2,"NoOfBathrooms":5,"SqFeet":9145,"Address1":"5 Helena Pass","Address2":"Suite 71","City":"Moreno Valley","State":"CA","Zip":"92555","Description":null,"SalesValue":"$2470832.60"},
{"NoOfRooms":4,"NoOfBathrooms":3,"SqFeet":3820,"Address1":"8268 Pankratz Pass","Address2":"14th Floor","City":"Oxnard","State":"CA","Zip":"93034","Description":null,"SalesValue":"$9887160.08"},
{"NoOfRooms":3,"NoOfBathrooms":2,"SqFeet":2518,"Address1":"0917 Prairieview Avenue","Address2":"Suite 45","City":"Fresno","State":"CA","Zip":"93715","Description":null,"SalesValue":"$3221730.12"},
{"NoOfRooms":2,"NoOfBathrooms":5,"SqFeet":1926,"Address1":"1 Nelson Center","Address2":"Apt 1011","City":"Los Angeles","State":"CA","Zip":"90045","Description":null,"SalesValue":"$5719372.28"},
{"NoOfRooms":1,"NoOfBathrooms":3,"SqFeet":6024,"Address1":"53082 Johnson Point","Address2":"PO Box 73421","City":"Northridge","State":"CA","Zip":"91328","Description":null,"SalesValue":"$8878141.63"},
{"NoOfRooms":1,"NoOfBathrooms":3,"SqFeet":4957,"Address1":"60122 Mesta Pass","Address2":"Suite 7","City":"San Bernardino","State":"CA","Zip":"92415","Description":null,"SalesValue":"$7613860.49"},
{"NoOfRooms":4,"NoOfBathrooms":1,"SqFeet":9351,"Address1":"81 Caliangt Plaza","Address2":"Suite 42","City":"Chula Vista","State":"CA","Zip":"91913","Description":null,"SalesValue":"$6277905.98"},
{"NoOfRooms":2,"NoOfBathrooms":5,"SqFeet":9584,"Address1":"5363 Homewood Court","Address2":"PO Box 48569","City":"Sacramento","State":"CA","Zip":"95828","Description":null,"SalesValue":"$4909548.49"},
{"NoOfRooms":5,"NoOfBathrooms":4,"SqFeet":3926,"Address1":"61 Continental Junction","Address2":"Apt 1291","City":"Fullerton","State":"CA","Zip":"92835","Description":null,"SalesValue":"$5898094.07"},
{"NoOfRooms":5,"NoOfBathrooms":3,"SqFeet":5013,"Address1":"3459 Rutledge Center","Address2":"PO Box 68050","City":"San Jose","State":"CA","Zip":"95138","Description":null,"SalesValue":"$1141344.88"},
{"NoOfRooms":3,"NoOfBathrooms":4,"SqFeet":1437,"Address1":"4499 Lien Circle","Address2":"Suite 63","City":"Northridge","State":"CA","Zip":"91328","Description":null,"SalesValue":"$8583424.18"},
{"NoOfRooms":2,"NoOfBathrooms":2,"SqFeet":2232,"Address1":"342 8th Court","Address2":"10th Floor","City":"San Diego","State":"CA","Zip":"92196","Description":null,"SalesValue":"$5565136.67"},
{"NoOfRooms":4,"NoOfBathrooms":1,"SqFeet":6440,"Address1":"1032 Oxford Trail","Address2":"Room 829","City":"Sacramento","State":"CA","Zip":"94286","Description":null,"SalesValue":"$9969239.88"},
{"NoOfRooms":3,"NoOfBathrooms":5,"SqFeet":5114,"Address1":"6797 Mitchell Lane","Address2":"Room 1619","City":"Van Nuys","State":"CA","Zip":"91406","Description":null,"SalesValue":"$8960216.02"},
{"NoOfRooms":5,"NoOfBathrooms":3,"SqFeet":6857,"Address1":"5082 Spohn Pass","Address2":"2nd Floor","City":"Los Angeles","State":"CA","Zip":"90005","Description":null,"SalesValue":"$4717965.39"},
{"NoOfRooms":3,"NoOfBathrooms":4,"SqFeet":7012,"Address1":"19 David Plaza","Address2":"Suite 95","City":"Irvine","State":"CA","Zip":"92717","Description":null,"SalesValue":"$4129234.04"},
{"NoOfRooms":2,"NoOfBathrooms":4,"SqFeet":2426,"Address1":"57376 Debra Center","Address2":"Suite 52","City":"San Diego","State":"CA","Zip":"92196","Description":null,"SalesValue":"$9614260.35"},
{"NoOfRooms":3,"NoOfBathrooms":2,"SqFeet":8717,"Address1":"35 Canary Trail","Address2":"14th Floor","City":"Los Angeles","State":"CA","Zip":"90035","Description":null,"SalesValue":"$1668537.83"},
{"NoOfRooms":2,"NoOfBathrooms":1,"SqFeet":1860,"Address1":"6 Wayridge Pass","Address2":"PO Box 75169","City":"San Jose","State":"CA","Zip":"95118","Description":null,"SalesValue":"$3293073.49"},
{"NoOfRooms":4,"NoOfBathrooms":4,"SqFeet":5221,"Address1":"683 Forster Terrace","Address2":"Room 662","City":"Huntington Beach","State":"CA","Zip":"92648","Description":null,"SalesValue":"$941366.07"},
{"NoOfRooms":5,"NoOfBathrooms":1,"SqFeet":6741,"Address1":"4325 Rigney Lane","Address2":"Suite 47","City":"Van Nuys","State":"CA","Zip":"91406","Description":null,"SalesValue":"$4652245.68"},
{"NoOfRooms":3,"NoOfBathrooms":5,"SqFeet":7906,"Address1":"99 Longview Place","Address2":"3rd Floor","City":"Sacramento","State":"CA","Zip":"94250","Description":null,"SalesValue":"$940558.41"},
{"NoOfRooms":5,"NoOfBathrooms":1,"SqFeet":796,"Address1":"54 Mendota Junction","Address2":"4th Floor","City":"San Jose","State":"CA","Zip":"95150","Description":null,"SalesValue":"$9106063.04"},
{"NoOfRooms":3,"NoOfBathrooms":3,"SqFeet":8369,"Address1":"99 Esch Plaza","Address2":"PO Box 88786","City":"Riverside","State":"CA","Zip":"92505","Description":null,"SalesValue":"$9735060.83"},
{"NoOfRooms":5,"NoOfBathrooms":5,"SqFeet":4540,"Address1":"90231 Calypso Center","Address2":"Suite 25","City":"Santa Ana","State":"CA","Zip":"92705","Description":null,"SalesValue":"$9482658.19"},
{"NoOfRooms":2,"NoOfBathrooms":3,"SqFeet":5643,"Address1":"6 2nd Terrace","Address2":"Apt 1066","City":"Sacramento","State":"CA","Zip":"94230","Description":null,"SalesValue":"$9867889.58"},
{"NoOfRooms":1,"NoOfBathrooms":4,"SqFeet":947,"Address1":"35 Village Green Terrace","Address2":"Apt 1725","City":"Van Nuys","State":"CA","Zip":"91499","Description":null,"SalesValue":"$7038151.61"},
{"NoOfRooms":1,"NoOfBathrooms":2,"SqFeet":1018,"Address1":"619 Jana Alley","Address2":"PO Box 13994","City":"San Jose","State":"CA","Zip":"95128","Description":null,"SalesValue":"$7359772.95"},
{"NoOfRooms":4,"NoOfBathrooms":2,"SqFeet":9412,"Address1":"8690 West Street","Address2":"PO Box 84991","City":"Los Angeles","State":"CA","Zip":"90040","Description":null,"SalesValue":"$1141270.67"},
{"NoOfRooms":3,"NoOfBathrooms":3,"SqFeet":875,"Address1":"3158 Veith Street","Address2":"Apt 471","City":"Fresno","State":"CA","Zip":"93778","Description":null,"SalesValue":"$3964901.75"},
{"NoOfRooms":4,"NoOfBathrooms":2,"SqFeet":8590,"Address1":"031 Ridgeway Street","Address2":"PO Box 38686","City":"Fresno","State":"CA","Zip":"93762","Description":null,"SalesValue":"$2578303.63"},
{"NoOfRooms":4,"NoOfBathrooms":5,"SqFeet":1505,"Address1":"50049 Esker Park","Address2":"Room 641","City":"Whittier","State":"CA","Zip":"90610","Description":null,"SalesValue":"$5063202.36"},
{"NoOfRooms":2,"NoOfBathrooms":4,"SqFeet":8981,"Address1":"22 Claremont Road","Address2":"Room 1079","City":"Fresno","State":"CA","Zip":"93762","Description":null,"SalesValue":"$5185599.95"},
{"NoOfRooms":5,"NoOfBathrooms":4,"SqFeet":7407,"Address1":"134 Carberry Drive","Address2":"Apt 370","City":"Fresno","State":"CA","Zip":"93726","Description":null,"SalesValue":"$2485076.57"},
{"NoOfRooms":5,"NoOfBathrooms":1,"SqFeet":4004,"Address1":"9 Pearson Terrace","Address2":"PO Box 65813","City":"Oakland","State":"CA","Zip":"94660","Description":null,"SalesValue":"$1482290.58"},
{"NoOfRooms":4,"NoOfBathrooms":5,"SqFeet":9975,"Address1":"00646 Russell Crossing","Address2":"Apt 541","City":"Modesto","State":"CA","Zip":"95397","Description":null,"SalesValue":"$4989756.55"},
{"NoOfRooms":1,"NoOfBathrooms":1,"SqFeet":1644,"Address1":"998 Maryland Terrace","Address2":"Apt 1561","City":"South Lake Tahoe","State":"CA","Zip":"96154","Description":null,"SalesValue":"$2395263.81"},
{"NoOfRooms":2,"NoOfBathrooms":4,"SqFeet":3406,"Address1":"2 Redwing Place","Address2":"PO Box 35529","City":"Irvine","State":"CA","Zip":"92710","Description":null,"SalesValue":"$8971251.61"},
{"NoOfRooms":4,"NoOfBathrooms":1,"SqFeet":5382,"Address1":"3 Prentice Crossing","Address2":"Apt 1975","City":"Long Beach","State":"CA","Zip":"90805","Description":null,"SalesValue":"$7298005.31"},
{"NoOfRooms":2,"NoOfBathrooms":2,"SqFeet":6385,"Address1":"610 Menomonie Drive","Address2":"Suite 10","City":"San Diego","State":"CA","Zip":"92170","Description":null,"SalesValue":"$3814145.27"},
{"NoOfRooms":4,"NoOfBathrooms":4,"SqFeet":3179,"Address1":"26259 Pepper Wood Circle","Address2":"Room 1058","City":"Modesto","State":"CA","Zip":"95354","Description":null,"SalesValue":"$6343250.80"},
{"NoOfRooms":3,"NoOfBathrooms":2,"SqFeet":2140,"Address1":"9 Meadow Ridge Avenue","Address2":"Suite 69","City":"Santa Monica","State":"CA","Zip":"90405","Description":null,"SalesValue":"$6408364.35"},
{"NoOfRooms":2,"NoOfBathrooms":5,"SqFeet":1646,"Address1":"44 Warner Lane","Address2":"Suite 76","City":"Fresno","State":"CA","Zip":"93786","Description":null,"SalesValue":"$4910284.57"},
{"NoOfRooms":3,"NoOfBathrooms":2,"SqFeet":7826,"Address1":"2 Utah Road","Address2":"Apt 417","City":"Anaheim","State":"CA","Zip":"92812","Description":null,"SalesValue":"$9089117.06"},
{"NoOfRooms":1,"NoOfBathrooms":1,"SqFeet":5844,"Address1":"451 Jenifer Alley","Address2":"Room 378","City":"San Diego","State":"CA","Zip":"92153","Description":null,"SalesValue":"$7216311.96"},
{"NoOfRooms":2,"NoOfBathrooms":4,"SqFeet":2078,"Address1":"868 Main Court","Address2":"Room 1228","City":"Los Angeles","State":"CA","Zip":"90076","Description":null,"SalesValue":"$7902314.63"},
{"NoOfRooms":1,"NoOfBathrooms":4,"SqFeet":8874,"Address1":"7 Bellgrove Way","Address2":"Suite 65","City":"San Francisco","State":"CA","Zip":"94137","Description":null,"SalesValue":"$9434263.58"},
{"NoOfRooms":2,"NoOfBathrooms":2,"SqFeet":3113,"Address1":"8 Cottonwood Terrace","Address2":"Suite 4","City":"San Jose","State":"CA","Zip":"95173","Description":null,"SalesValue":"$6708165.11"},
{"NoOfRooms":4,"NoOfBathrooms":4,"SqFeet":5807,"Address1":"80 Southridge Court","Address2":"1st Floor","City":"San Diego","State":"CA","Zip":"92137","Description":null,"SalesValue":"$5984717.25"},
{"NoOfRooms":5,"NoOfBathrooms":4,"SqFeet":8166,"Address1":"1 Old Gate Plaza","Address2":"Suite 84","City":"Torrance","State":"CA","Zip":"90505","Description":null,"SalesValue":"$4978774.95"},
{"NoOfRooms":5,"NoOfBathrooms":2,"SqFeet":9795,"Address1":"8393 Grim Alley","Address2":"9th Floor","City":"Oceanside","State":"CA","Zip":"92056","Description":null,"SalesValue":"$7687161.01"},
{"NoOfRooms":5,"NoOfBathrooms":2,"SqFeet":2163,"Address1":"22793 Ridge Oak Pass","Address2":"Room 42","City":"Orange","State":"CA","Zip":"92668","Description":null,"SalesValue":"$2957025.31"},
{"NoOfRooms":4,"NoOfBathrooms":5,"SqFeet":9310,"Address1":"040 Glendale Center","Address2":"Room 1709","City":"San Francisco","State":"CA","Zip":"94164","Description":null,"SalesValue":"$1890748.71"},
{"NoOfRooms":4,"NoOfBathrooms":5,"SqFeet":7635,"Address1":"966 Maryland Pass","Address2":"Suite 51","City":"San Diego","State":"CA","Zip":"92170","Description":null,"SalesValue":"$6800830.05"},
{"NoOfRooms":3,"NoOfBathrooms":5,"SqFeet":3974,"Address1":"6 Ludington Drive","Address2":"Room 940","City":"Simi Valley","State":"CA","Zip":"93094","Description":null,"SalesValue":"$2313816.21"},
{"NoOfRooms":3,"NoOfBathrooms":2,"SqFeet":2069,"Address1":"44 Forster Place","Address2":"Apt 470","City":"San Diego","State":"CA","Zip":"92132","Description":null,"SalesValue":"$5679743.32"},
{"NoOfRooms":4,"NoOfBathrooms":5,"SqFeet":9972,"Address1":"4691 New Castle Lane","Address2":"Suite 27","City":"San Luis Obispo","State":"CA","Zip":"93407","Description":null,"SalesValue":"$3803720.77"},
{"NoOfRooms":2,"NoOfBathrooms":5,"SqFeet":8528,"Address1":"51 Burrows Court","Address2":"Apt 1115","City":"Redwood City","State":"CA","Zip":"94064","Description":null,"SalesValue":"$7082753.71"},
{"NoOfRooms":4,"NoOfBathrooms":4,"SqFeet":1843,"Address1":"1717 Nancy Circle","Address2":"Suite 98","City":"Long Beach","State":"CA","Zip":"90805","Description":null,"SalesValue":"$5757001.69"},
{"NoOfRooms":2,"NoOfBathrooms":5,"SqFeet":5004,"Address1":"23468 Amoth Center","Address2":"Apt 1417","City":"Fresno","State":"CA","Zip":"93726","Description":null,"SalesValue":"$8026270.15"},
{"NoOfRooms":1,"NoOfBathrooms":3,"SqFeet":936,"Address1":"6133 Division Plaza","Address2":"Apt 700","City":"Alhambra","State":"CA","Zip":"91841","Description":null,"SalesValue":"$9726788.64"},
{"NoOfRooms":4,"NoOfBathrooms":5,"SqFeet":7556,"Address1":"0553 Tony Way","Address2":"Suite 79","City":"Pasadena","State":"CA","Zip":"91103","Description":null,"SalesValue":"$9175787.55"},
{"NoOfRooms":2,"NoOfBathrooms":4,"SqFeet":6433,"Address1":"601 Lakeland Terrace","Address2":"PO Box 8555","City":"San Diego","State":"CA","Zip":"92132","Description":null,"SalesValue":"$3116184.77"},
{"NoOfRooms":4,"NoOfBathrooms":2,"SqFeet":4545,"Address1":"464 Hayes Plaza","Address2":"Suite 99","City":"Glendale","State":"CA","Zip":"91205","Description":null,"SalesValue":"$4403944.48"},
{"NoOfRooms":3,"NoOfBathrooms":2,"SqFeet":8527,"Address1":"363 Laurel Avenue","Address2":"Apt 1814","City":"San Diego","State":"CA","Zip":"92196","Description":null,"SalesValue":"$3021132.50"},
{"NoOfRooms":1,"NoOfBathrooms":4,"SqFeet":750,"Address1":"4389 Sunnyside Hill","Address2":"Room 310","City":"Brea","State":"CA","Zip":"92822","Description":null,"SalesValue":"$9403686.39"},
{"NoOfRooms":1,"NoOfBathrooms":2,"SqFeet":5255,"Address1":"368 Graedel Way","Address2":"Room 1905","City":"Los Angeles","State":"CA","Zip":"90076","Description":null,"SalesValue":"$656066.88"},
{"NoOfRooms":5,"NoOfBathrooms":3,"SqFeet":2941,"Address1":"2 Artisan Trail","Address2":"5th Floor","City":"San Jose","State":"CA","Zip":"95113","Description":null,"SalesValue":"$3927647.54"},
{"NoOfRooms":3,"NoOfBathrooms":5,"SqFeet":8204,"Address1":"1 Bellgrove Terrace","Address2":"Apt 307","City":"Fresno","State":"CA","Zip":"93762","Description":null,"SalesValue":"$4196617.99"},
{"NoOfRooms":4,"NoOfBathrooms":5,"SqFeet":7017,"Address1":"6 Mitchell Lane","Address2":"17th Floor","City":"Pomona","State":"CA","Zip":"91797","Description":null,"SalesValue":"$7584375.63"},
{"NoOfRooms":1,"NoOfBathrooms":1,"SqFeet":5073,"Address1":"3491 Homewood Avenue","Address2":"Apt 179","City":"Los Angeles","State":"CA","Zip":"90025","Description":null,"SalesValue":"$7658174.61"},
{"NoOfRooms":4,"NoOfBathrooms":5,"SqFeet":6874,"Address1":"6019 Grayhawk Crossing","Address2":"Suite 52","City":"San Jose","State":"CA","Zip":"95113","Description":null,"SalesValue":"$5835242.64"},
{"NoOfRooms":4,"NoOfBathrooms":3,"SqFeet":7771,"Address1":"82 Tennyson Court","Address2":"PO Box 83049","City":"Corona","State":"CA","Zip":"92878","Description":null,"SalesValue":"$3445094.12"},
{"NoOfRooms":1,"NoOfBathrooms":4,"SqFeet":8163,"Address1":"02 Graedel Circle","Address2":"Apt 800","City":"Los Angeles","State":"CA","Zip":"90071","Description":null,"SalesValue":"$7852774.12"},
{"NoOfRooms":3,"NoOfBathrooms":5,"SqFeet":4044,"Address1":"4 Lerdahl Place","Address2":"8th Floor","City":"Oakland","State":"CA","Zip":"94627","Description":null,"SalesValue":"$6786756.73"},
{"NoOfRooms":5,"NoOfBathrooms":5,"SqFeet":4602,"Address1":"0671 Starling Parkway","Address2":"Apt 581","City":"Oceanside","State":"CA","Zip":"92056","Description":null,"SalesValue":"$6278607.55"},
{"NoOfRooms":3,"NoOfBathrooms":3,"SqFeet":3521,"Address1":"422 Vera Circle","Address2":"Room 1928","City":"Los Angeles","State":"CA","Zip":"90050","Description":null,"SalesValue":"$4024774.87"},
{"NoOfRooms":3,"NoOfBathrooms":1,"SqFeet":6797,"Address1":"9715 Lighthouse Bay Place","Address2":"PO Box 94302","City":"Orange","State":"CA","Zip":"92867","Description":null,"SalesValue":"$2665054.72"},
{"NoOfRooms":3,"NoOfBathrooms":5,"SqFeet":1875,"Address1":"4 Division Place","Address2":"PO Box 93072","City":"Long Beach","State":"CA","Zip":"90840","Description":null,"SalesValue":"$8965389.00"},
{"NoOfRooms":2,"NoOfBathrooms":2,"SqFeet":6295,"Address1":"547 Memorial Pass","Address2":"18th Floor","City":"Fullerton","State":"CA","Zip":"92640","Description":null,"SalesValue":"$3478188.30"},
{"NoOfRooms":5,"NoOfBathrooms":3,"SqFeet":1484,"Address1":"08 Texas Avenue","Address2":"Room 1566","City":"Oakland","State":"CA","Zip":"94611","Description":null,"SalesValue":"$618094.19"},
{"NoOfRooms":2,"NoOfBathrooms":3,"SqFeet":2110,"Address1":"199 Mccormick Place","Address2":"Suite 29","City":"San Francisco","State":"CA","Zip":"94105","Description":null,"SalesValue":"$9610696.67"},
{"NoOfRooms":2,"NoOfBathrooms":5,"SqFeet":4092,"Address1":"285 Sutherland Pass","Address2":"PO Box 79283","City":"Los Angeles","State":"CA","Zip":"90025","Description":null,"SalesValue":"$8352929.31"},
{"NoOfRooms":1,"NoOfBathrooms":4,"SqFeet":2981,"Address1":"452 Mesta Plaza","Address2":"19th Floor","City":"Chico","State":"CA","Zip":"95973","Description":null,"SalesValue":"$8131024.12"},
{"NoOfRooms":3,"NoOfBathrooms":3,"SqFeet":3059,"Address1":"7699 Elgar Center","Address2":"Room 1740","City":"South Lake Tahoe","State":"CA","Zip":"96154","Description":null,"SalesValue":"$6711368.83"},
{"NoOfRooms":4,"NoOfBathrooms":5,"SqFeet":7925,"Address1":"942 Norway Maple Parkway","Address2":"PO Box 23025","City":"Anaheim","State":"CA","Zip":"92825","Description":null,"SalesValue":"$7803685.33"},
{"NoOfRooms":2,"NoOfBathrooms":5,"SqFeet":3627,"Address1":"94 Walton Crossing","Address2":"Suite 40","City":"Burbank","State":"CA","Zip":"91520","Description":null,"SalesValue":"$8073706.95"},
{"NoOfRooms":5,"NoOfBathrooms":2,"SqFeet":8907,"Address1":"71074 Fremont Parkway","Address2":"Apt 704","City":"San Diego","State":"CA","Zip":"92165","Description":null,"SalesValue":"$1229019.87"},
{"NoOfRooms":5,"NoOfBathrooms":3,"SqFeet":7589,"Address1":"953 Farragut Center","Address2":"Suite 12","City":"San Jose","State":"CA","Zip":"95123","Description":null,"SalesValue":"$2702233.05"},
{"NoOfRooms":2,"NoOfBathrooms":4,"SqFeet":1615,"Address1":"110 Sloan Court","Address2":"7th Floor","City":"Fresno","State":"CA","Zip":"93715","Description":null,"SalesValue":"$3147057.85"},
{"NoOfRooms":5,"NoOfBathrooms":5,"SqFeet":9788,"Address1":"1 Logan Crossing","Address2":"Apt 1606","City":"San Diego","State":"CA","Zip":"92196","Description":null,"SalesValue":"$2057924.61"},
{"NoOfRooms":2,"NoOfBathrooms":2,"SqFeet":7522,"Address1":"95727 Commercial Way","Address2":"PO Box 28751","City":"Sacramento","State":"CA","Zip":"94230","Description":null,"SalesValue":"$877580.63"},
{"NoOfRooms":2,"NoOfBathrooms":1,"SqFeet":4349,"Address1":"33933 5th Hill","Address2":"Suite 92","City":"Sacramento","State":"CA","Zip":"94280","Description":null,"SalesValue":"$9403362.39"},
{"NoOfRooms":1,"NoOfBathrooms":2,"SqFeet":3033,"Address1":"538 Kinsman Alley","Address2":"19th Floor","City":"Fresno","State":"CA","Zip":"93794","Description":null,"SalesValue":"$1383426.72"},
{"NoOfRooms":1,"NoOfBathrooms":1,"SqFeet":6372,"Address1":"3 Saint Paul Parkway","Address2":"Room 27","City":"Orange","State":"CA","Zip":"92862","Description":null,"SalesValue":"$5237735.39"},
{"NoOfRooms":2,"NoOfBathrooms":4,"SqFeet":1941,"Address1":"4 Anthes Street","Address2":"Suite 12","City":"Pasadena","State":"CA","Zip":"91103","Description":null,"SalesValue":"$3690790.49"},
{"NoOfRooms":2,"NoOfBathrooms":2,"SqFeet":6411,"Address1":"28128 Barby Park","Address2":"Suite 35","City":"Los Angeles","State":"CA","Zip":"90076","Description":null,"SalesValue":"$9488674.66"},
{"NoOfRooms":2,"NoOfBathrooms":4,"SqFeet":7404,"Address1":"6 Aberg Point","Address2":"Room 1497","City":"Garden Grove","State":"CA","Zip":"92645","Description":null,"SalesValue":"$6413340.48"},
{"NoOfRooms":5,"NoOfBathrooms":4,"SqFeet":6554,"Address1":"760 Mosinee Street","Address2":"15th Floor","City":"Los Angeles","State":"CA","Zip":"90094","Description":null,"SalesValue":"$1926769.16"},
{"NoOfRooms":1,"NoOfBathrooms":2,"SqFeet":6328,"Address1":"06282 Almo Junction","Address2":"Room 1235","City":"Sacramento","State":"CA","Zip":"94297","Description":null,"SalesValue":"$5553674.39"},
{"NoOfRooms":2,"NoOfBathrooms":5,"SqFeet":9247,"Address1":"58 Maple Plaza","Address2":"10th Floor","City":"San Mateo","State":"CA","Zip":"94405","Description":null,"SalesValue":"$5841877.56"},
{"NoOfRooms":3,"NoOfBathrooms":5,"SqFeet":6438,"Address1":"8745 Buhler Way","Address2":"16th Floor","City":"San Rafael","State":"CA","Zip":"94913","Description":null,"SalesValue":"$2421685.81"},
{"NoOfRooms":4,"NoOfBathrooms":5,"SqFeet":8890,"Address1":"2720 Charing Cross Terrace","Address2":"Room 1138","City":"San Diego","State":"CA","Zip":"92137","Description":null,"SalesValue":"$8943107.43"},
{"NoOfRooms":1,"NoOfBathrooms":3,"SqFeet":647,"Address1":"8859 Service Street","Address2":"Suite 92","City":"Sacramento","State":"CA","Zip":"95838","Description":null,"SalesValue":"$6146130.55"},
{"NoOfRooms":4,"NoOfBathrooms":1,"SqFeet":6454,"Address1":"039 Londonderry Crossing","Address2":"PO Box 96519","City":"San Francisco","State":"CA","Zip":"94116","Description":null,"SalesValue":"$5979727.38"},
{"NoOfRooms":5,"NoOfBathrooms":5,"SqFeet":6130,"Address1":"22 Farragut Point","Address2":"PO Box 82667","City":"San Jose","State":"CA","Zip":"95123","Description":null,"SalesValue":"$9978613.14"},
{"NoOfRooms":2,"NoOfBathrooms":4,"SqFeet":4868,"Address1":"26927 Oriole Hill","Address2":"Apt 188","City":"San Francisco","State":"CA","Zip":"94159","Description":null,"SalesValue":"$9758233.98"},
{"NoOfRooms":4,"NoOfBathrooms":2,"SqFeet":5054,"Address1":"22 Gale Road","Address2":"PO Box 66055","City":"Los Angeles","State":"CA","Zip":"90087","Description":null,"SalesValue":"$3444009.84"},
{"NoOfRooms":4,"NoOfBathrooms":1,"SqFeet":4638,"Address1":"6 Bobwhite Avenue","Address2":"Suite 94","City":"Burbank","State":"CA","Zip":"91520","Description":null,"SalesValue":"$3793092.02"},
{"NoOfRooms":2,"NoOfBathrooms":4,"SqFeet":2856,"Address1":"827 Walton Plaza","Address2":"PO Box 38583","City":"Los Angeles","State":"CA","Zip":"90020","Description":null,"SalesValue":"$4314775.80"},
{"NoOfRooms":4,"NoOfBathrooms":3,"SqFeet":3418,"Address1":"479 Rigney Center","Address2":"11th Floor","City":"San Francisco","State":"CA","Zip":"94105","Description":null,"SalesValue":"$1773979.31"},
{"NoOfRooms":4,"NoOfBathrooms":4,"SqFeet":6130,"Address1":"958 Oak Street","Address2":"Apt 26","City":"Pasadena","State":"CA","Zip":"91103","Description":null,"SalesValue":"$3890235.39"},
{"NoOfRooms":1,"NoOfBathrooms":5,"SqFeet":2000,"Address1":"4531 Pankratz Street","Address2":"PO Box 37766","City":"Sacramento","State":"CA","Zip":"94245","Description":null,"SalesValue":"$8318255.58"},
{"NoOfRooms":5,"NoOfBathrooms":1,"SqFeet":6923,"Address1":"28248 Becker Point","Address2":"Apt 1547","City":"Sacramento","State":"CA","Zip":"95894","Description":null,"SalesValue":"$8376937.81"},
{"NoOfRooms":2,"NoOfBathrooms":1,"SqFeet":8996,"Address1":"266 Annamark Plaza","Address2":"Apt 1839","City":"Burbank","State":"CA","Zip":"91520","Description":null,"SalesValue":"$3568153.42"},
{"NoOfRooms":2,"NoOfBathrooms":2,"SqFeet":967,"Address1":"19 Rutledge Plaza","Address2":"Apt 1086","City":"San Bernardino","State":"CA","Zip":"92424","Description":null,"SalesValue":"$5641869.50"},
{"NoOfRooms":1,"NoOfBathrooms":1,"SqFeet":8290,"Address1":"41833 Delaware Street","Address2":"Suite 37","City":"Mountain View","State":"CA","Zip":"94042","Description":null,"SalesValue":"$5962344.04"},
{"NoOfRooms":2,"NoOfBathrooms":4,"SqFeet":9783,"Address1":"1905 Spaight Avenue","Address2":"PO Box 60003","City":"Stockton","State":"CA","Zip":"95298","Description":null,"SalesValue":"$7348823.40"},
{"NoOfRooms":5,"NoOfBathrooms":5,"SqFeet":9480,"Address1":"0959 Debra Parkway","Address2":"9th Floor","City":"Riverside","State":"CA","Zip":"92513","Description":null,"SalesValue":"$8727017.51"},
{"NoOfRooms":5,"NoOfBathrooms":1,"SqFeet":6135,"Address1":"5906 Lerdahl Park","Address2":"10th Floor","City":"Sacramento","State":"CA","Zip":"94263","Description":null,"SalesValue":"$2734936.96"},
{"NoOfRooms":4,"NoOfBathrooms":5,"SqFeet":5229,"Address1":"315 Scofield Way","Address2":"Room 1964","City":"Lancaster","State":"CA","Zip":"93584","Description":null,"SalesValue":"$7443779.48"},
{"NoOfRooms":1,"NoOfBathrooms":2,"SqFeet":5132,"Address1":"3 Dwight Lane","Address2":"Apt 1900","City":"Escondido","State":"CA","Zip":"92030","Description":null,"SalesValue":"$2661350.15"},
{"NoOfRooms":3,"NoOfBathrooms":1,"SqFeet":4510,"Address1":"18029 Sauthoff Plaza","Address2":"Suite 93","City":"Burbank","State":"CA","Zip":"91520","Description":null,"SalesValue":"$8728713.45"},
{"NoOfRooms":3,"NoOfBathrooms":5,"SqFeet":5076,"Address1":"6 Eggendart Crossing","Address2":"16th Floor","City":"Berkeley","State":"CA","Zip":"94712","Description":null,"SalesValue":"$4587336.06"},
{"NoOfRooms":2,"NoOfBathrooms":5,"SqFeet":2427,"Address1":"95732 Hoepker Circle","Address2":"Suite 21","City":"Sacramento","State":"CA","Zip":"95852","Description":null,"SalesValue":"$7900270.02"},
{"NoOfRooms":4,"NoOfBathrooms":5,"SqFeet":6121,"Address1":"1 Jana Road","Address2":"6th Floor","City":"Oakland","State":"CA","Zip":"94627","Description":null,"SalesValue":"$7770305.82"},
{"NoOfRooms":5,"NoOfBathrooms":3,"SqFeet":1476,"Address1":"1210 Rowland Way","Address2":"7th Floor","City":"San Diego","State":"CA","Zip":"92153","Description":null,"SalesValue":"$2332420.57"},
{"NoOfRooms":1,"NoOfBathrooms":2,"SqFeet":6978,"Address1":"6949 Dayton Drive","Address2":"10th Floor","City":"San Jose","State":"CA","Zip":"95155","Description":null,"SalesValue":"$3103111.55"},
{"NoOfRooms":4,"NoOfBathrooms":1,"SqFeet":4708,"Address1":"99365 Continental Parkway","Address2":"12th Floor","City":"Los Angeles","State":"CA","Zip":"90040","Description":null,"SalesValue":"$9884805.13"},
{"NoOfRooms":1,"NoOfBathrooms":5,"SqFeet":9925,"Address1":"1 Brickson Park Plaza","Address2":"PO Box 77245","City":"Santa Monica","State":"CA","Zip":"90410","Description":null,"SalesValue":"$1380433.07"},
{"NoOfRooms":1,"NoOfBathrooms":1,"SqFeet":2639,"Address1":"8898 Corry Avenue","Address2":"PO Box 66567","City":"Long Beach","State":"CA","Zip":"90847","Description":null,"SalesValue":"$2815471.08"},
{"NoOfRooms":2,"NoOfBathrooms":4,"SqFeet":5059,"Address1":"19 Corscot Place","Address2":"PO Box 59905","City":"Fresno","State":"CA","Zip":"93740","Description":null,"SalesValue":"$2680168.13"},
{"NoOfRooms":2,"NoOfBathrooms":1,"SqFeet":3652,"Address1":"39334 Surrey Road","Address2":"Room 401","City":"San Jose","State":"CA","Zip":"95108","Description":null,"SalesValue":"$2657928.55"},
{"NoOfRooms":2,"NoOfBathrooms":2,"SqFeet":2969,"Address1":"6424 Pearson Drive","Address2":"PO Box 50999","City":"Bakersfield","State":"CA","Zip":"93381","Description":null,"SalesValue":"$3102426.78"},
{"NoOfRooms":1,"NoOfBathrooms":4,"SqFeet":1536,"Address1":"04767 Shopko Avenue","Address2":"Apt 737","City":"Los Angeles","State":"CA","Zip":"90065","Description":null,"SalesValue":"$1805894.76"},
{"NoOfRooms":5,"NoOfBathrooms":4,"SqFeet":3912,"Address1":"34441 Glacier Hill Place","Address2":"PO Box 13472","City":"San Jose","State":"CA","Zip":"95123","Description":null,"SalesValue":"$9790146.31"},
{"NoOfRooms":2,"NoOfBathrooms":1,"SqFeet":6980,"Address1":"9 Stoughton Parkway","Address2":"Room 1985","City":"San Francisco","State":"CA","Zip":"94137","Description":null,"SalesValue":"$3567611.38"},
{"NoOfRooms":2,"NoOfBathrooms":4,"SqFeet":4108,"Address1":"74 Green Ridge Crossing","Address2":"Apt 617","City":"Carlsbad","State":"CA","Zip":"92013","Description":null,"SalesValue":"$6635432.36"},
{"NoOfRooms":1,"NoOfBathrooms":5,"SqFeet":4325,"Address1":"66 Rockefeller Way","Address2":"16th Floor","City":"San Jose","State":"CA","Zip":"95160","Description":null,"SalesValue":"$2894010.17"},
{"NoOfRooms":3,"NoOfBathrooms":1,"SqFeet":8707,"Address1":"19359 Iowa Way","Address2":"PO Box 48927","City":"Van Nuys","State":"CA","Zip":"91406","Description":null,"SalesValue":"$6689788.48"},
{"NoOfRooms":4,"NoOfBathrooms":5,"SqFeet":2473,"Address1":"4 Dorton Hill","Address2":"PO Box 67973","City":"Torrance","State":"CA","Zip":"90505","Description":null,"SalesValue":"$7148285.99"},
{"NoOfRooms":2,"NoOfBathrooms":4,"SqFeet":7506,"Address1":"17878 Eagan Street","Address2":"Room 484","City":"San Luis Obispo","State":"CA","Zip":"93407","Description":null,"SalesValue":"$3227358.31"},
{"NoOfRooms":2,"NoOfBathrooms":3,"SqFeet":891,"Address1":"98 Morning Junction","Address2":"Suite 59","City":"Fresno","State":"CA","Zip":"93778","Description":null,"SalesValue":"$7949377.84"},
{"NoOfRooms":4,"NoOfBathrooms":5,"SqFeet":5400,"Address1":"88489 Miller Park","Address2":"Suite 98","City":"Garden Grove","State":"CA","Zip":"92844","Description":null,"SalesValue":"$9577334.26"},
{"NoOfRooms":4,"NoOfBathrooms":3,"SqFeet":5474,"Address1":"9433 Hanover Point","Address2":"Apt 972","City":"Sacramento","State":"CA","Zip":"95823","Description":null,"SalesValue":"$8939658.76"},
{"NoOfRooms":3,"NoOfBathrooms":4,"SqFeet":4958,"Address1":"3818 Oneill Circle","Address2":"20th Floor","City":"San Francisco","State":"CA","Zip":"94147","Description":null,"SalesValue":"$2675667.14"},
{"NoOfRooms":1,"NoOfBathrooms":4,"SqFeet":2974,"Address1":"4 Lyons Court","Address2":"Room 810","City":"Huntington Beach","State":"CA","Zip":"92648","Description":null,"SalesValue":"$5093682.29"},
{"NoOfRooms":1,"NoOfBathrooms":1,"SqFeet":8861,"Address1":"5976 Blackbird Lane","Address2":"PO Box 3744","City":"Glendale","State":"CA","Zip":"91205","Description":null,"SalesValue":"$1149062.93"},
{"NoOfRooms":1,"NoOfBathrooms":1,"SqFeet":8135,"Address1":"15 Westerfield Crossing","Address2":"PO Box 80647","City":"Sacramento","State":"CA","Zip":"94257","Description":null,"SalesValue":"$8103501.96"},
{"NoOfRooms":4,"NoOfBathrooms":3,"SqFeet":695,"Address1":"10436 Delladonna Place","Address2":"Apt 113","City":"San Diego","State":"CA","Zip":"92137","Description":null,"SalesValue":"$615995.44"},
{"NoOfRooms":1,"NoOfBathrooms":3,"SqFeet":341,"Address1":"05 Ridgeway Trail","Address2":"Apt 1530","City":"San Francisco","State":"CA","Zip":"94132","Description":null,"SalesValue":"$5700188.89"},
{"NoOfRooms":5,"NoOfBathrooms":3,"SqFeet":6353,"Address1":"9 Morningstar Circle","Address2":"Room 885","City":"Irvine","State":"CA","Zip":"92710","Description":null,"SalesValue":"$8325590.80"},
{"NoOfRooms":1,"NoOfBathrooms":3,"SqFeet":4159,"Address1":"60217 Hagan Point","Address2":"PO Box 78266","City":"San Jose","State":"CA","Zip":"95155","Description":null,"SalesValue":"$8611906.76"},
{"NoOfRooms":5,"NoOfBathrooms":1,"SqFeet":8123,"Address1":"8509 Sunfield Parkway","Address2":"Apt 271","City":"Anaheim","State":"CA","Zip":"92805","Description":null,"SalesValue":"$9086301.92"},
{"NoOfRooms":5,"NoOfBathrooms":5,"SqFeet":4806,"Address1":"076 Shasta Trail","Address2":"Suite 43","City":"Sacramento","State":"CA","Zip":"95823","Description":null,"SalesValue":"$8170321.64"},
{"NoOfRooms":2,"NoOfBathrooms":3,"SqFeet":7997,"Address1":"1941 Chive Park","Address2":"18th Floor","City":"Los Angeles","State":"CA","Zip":"90025","Description":null,"SalesValue":"$6718018.24"},
{"NoOfRooms":2,"NoOfBathrooms":3,"SqFeet":2889,"Address1":"1211 Parkside Parkway","Address2":"Room 1899","City":"Los Angeles","State":"CA","Zip":"90035","Description":null,"SalesValue":"$4557534.46"},
{"NoOfRooms":1,"NoOfBathrooms":5,"SqFeet":5129,"Address1":"29138 Ruskin Alley","Address2":"PO Box 20989","City":"Santa Clara","State":"CA","Zip":"95054","Description":null,"SalesValue":"$9354960.44"},
{"NoOfRooms":2,"NoOfBathrooms":1,"SqFeet":2250,"Address1":"1 Glendale Terrace","Address2":"Apt 1458","City":"San Francisco","State":"CA","Zip":"94147","Description":null,"SalesValue":"$9876891.56"},
{"NoOfRooms":3,"NoOfBathrooms":1,"SqFeet":7903,"Address1":"79 Arkansas Alley","Address2":"Apt 486","City":"San Francisco","State":"CA","Zip":"94164","Description":null,"SalesValue":"$8797976.95"},
{"NoOfRooms":4,"NoOfBathrooms":2,"SqFeet":724,"Address1":"80 Haas Street","Address2":"3rd Floor","City":"Fresno","State":"CA","Zip":"93721","Description":null,"SalesValue":"$8385842.50"},
{"NoOfRooms":3,"NoOfBathrooms":3,"SqFeet":9369,"Address1":"10832 Mallard Drive","Address2":"6th Floor","City":"Bakersfield","State":"CA","Zip":"93311","Description":null,"SalesValue":"$1877633.34"},
{"NoOfRooms":1,"NoOfBathrooms":4,"SqFeet":331,"Address1":"1 7th Center","Address2":"Room 990","City":"Sacramento","State":"CA","Zip":"95818","Description":null,"SalesValue":"$5267345.48"},
{"NoOfRooms":3,"NoOfBathrooms":1,"SqFeet":1897,"Address1":"01373 Pepper Wood Trail","Address2":"Suite 92","City":"Santa Monica","State":"CA","Zip":"90405","Description":null,"SalesValue":"$4982230.18"},
{"NoOfRooms":4,"NoOfBathrooms":1,"SqFeet":5056,"Address1":"3 Loomis Circle","Address2":"PO Box 35693","City":"Pasadena","State":"CA","Zip":"91103","Description":null,"SalesValue":"$8839064.46"},
{"NoOfRooms":2,"NoOfBathrooms":1,"SqFeet":4931,"Address1":"551 South Drive","Address2":"Apt 391","City":"Riverside","State":"CA","Zip":"92513","Description":null,"SalesValue":"$5733033.97"},
{"NoOfRooms":3,"NoOfBathrooms":3,"SqFeet":3271,"Address1":"9 Paget Road","Address2":"Suite 71","City":"Oceanside","State":"CA","Zip":"92056","Description":null,"SalesValue":"$7869624.63"},
{"NoOfRooms":2,"NoOfBathrooms":2,"SqFeet":8934,"Address1":"49 Beilfuss Road","Address2":"12th Floor","City":"Sacramento","State":"CA","Zip":"94286","Description":null,"SalesValue":"$4871591.90"},
{"NoOfRooms":5,"NoOfBathrooms":3,"SqFeet":7143,"Address1":"27936 Rockefeller Park","Address2":"PO Box 8385","City":"Hayward","State":"CA","Zip":"94544","Description":null,"SalesValue":"$9224714.18"},
{"NoOfRooms":5,"NoOfBathrooms":1,"SqFeet":9030,"Address1":"7849 Truax Crossing","Address2":"Suite 5","City":"Los Angeles","State":"CA","Zip":"90030","Description":null,"SalesValue":"$4208240.74"},
{"NoOfRooms":5,"NoOfBathrooms":2,"SqFeet":6581,"Address1":"7 Center Crossing","Address2":"PO Box 22394","City":"Brea","State":"CA","Zip":"92822","Description":null,"SalesValue":"$2435705.57"},
{"NoOfRooms":5,"NoOfBathrooms":4,"SqFeet":6915,"Address1":"703 Elgar Junction","Address2":"Apt 698","City":"Pasadena","State":"CA","Zip":"91131","Description":null,"SalesValue":"$9992648.59"},
{"NoOfRooms":5,"NoOfBathrooms":2,"SqFeet":1028,"Address1":"10723 Milwaukee Hill","Address2":"Room 5","City":"Irvine","State":"CA","Zip":"92612","Description":null,"SalesValue":"$8452650.63"},
{"NoOfRooms":4,"NoOfBathrooms":1,"SqFeet":4272,"Address1":"7340 Pankratz Terrace","Address2":"PO Box 68206","City":"Irvine","State":"CA","Zip":"92717","Description":null,"SalesValue":"$5815225.06"},
{"NoOfRooms":3,"NoOfBathrooms":3,"SqFeet":1907,"Address1":"77 Lillian Circle","Address2":"Apt 671","City":"Santa Monica","State":"CA","Zip":"90410","Description":null,"SalesValue":"$3308977.68"},
{"NoOfRooms":2,"NoOfBathrooms":4,"SqFeet":8479,"Address1":"42241 Jay Plaza","Address2":"Room 1825","City":"Sacramento","State":"CA","Zip":"94230","Description":null,"SalesValue":"$8280076.97"},
{"NoOfRooms":2,"NoOfBathrooms":2,"SqFeet":4801,"Address1":"215 Commercial Court","Address2":"Suite 75","City":"San Francisco","State":"CA","Zip":"94177","Description":null,"SalesValue":"$8138906.51"},
{"NoOfRooms":3,"NoOfBathrooms":3,"SqFeet":8254,"Address1":"5 Drewry Avenue","Address2":"Room 698","City":"Los Angeles","State":"CA","Zip":"90010","Description":null,"SalesValue":"$4202871.02"},
{"NoOfRooms":4,"NoOfBathrooms":3,"SqFeet":8816,"Address1":"48 Hazelcrest Court","Address2":"20th Floor","City":"Los Angeles","State":"CA","Zip":"90076","Description":null,"SalesValue":"$7014712.06"},
{"NoOfRooms":1,"NoOfBathrooms":5,"SqFeet":5327,"Address1":"25245 Briar Crest Place","Address2":"Apt 1912","City":"San Francisco","State":"CA","Zip":"94159","Description":null,"SalesValue":"$5887660.46"},
{"NoOfRooms":4,"NoOfBathrooms":1,"SqFeet":5149,"Address1":"244 Hauk Junction","Address2":"Room 1686","City":"Anaheim","State":"CA","Zip":"92812","Description":null,"SalesValue":"$6013125.21"},
{"NoOfRooms":1,"NoOfBathrooms":3,"SqFeet":3141,"Address1":"1239 Leroy Junction","Address2":"Room 48","City":"Burbank","State":"CA","Zip":"91505","Description":null,"SalesValue":"$3666839.99"},
{"NoOfRooms":2,"NoOfBathrooms":2,"SqFeet":7071,"Address1":"7 Golf View Avenue","Address2":"Suite 29","City":"Santa Cruz","State":"CA","Zip":"95064","Description":null,"SalesValue":"$3486526.10"},
{"NoOfRooms":1,"NoOfBathrooms":3,"SqFeet":1022,"Address1":"8173 Hauk Pass","Address2":"Room 285","City":"Northridge","State":"CA","Zip":"91328","Description":null,"SalesValue":"$1647158.18"},
{"NoOfRooms":4,"NoOfBathrooms":3,"SqFeet":4234,"Address1":"1 Pleasure Road","Address2":"Apt 1692","City":"Anaheim","State":"CA","Zip":"92825","Description":null,"SalesValue":"$4427112.86"},
{"NoOfRooms":3,"NoOfBathrooms":1,"SqFeet":3552,"Address1":"70261 Burrows Road","Address2":"PO Box 95818","City":"Glendale","State":"CA","Zip":"91205","Description":null,"SalesValue":"$6943290.11"},
{"NoOfRooms":3,"NoOfBathrooms":5,"SqFeet":314,"Address1":"6732 Anhalt Hill","Address2":"1st Floor","City":"Corona","State":"CA","Zip":"92883","Description":null,"SalesValue":"$7540928.12"},
{"NoOfRooms":3,"NoOfBathrooms":2,"SqFeet":345,"Address1":"420 Talisman Lane","Address2":"15th Floor","City":"Fullerton","State":"CA","Zip":"92640","Description":null,"SalesValue":"$3030424.77"},
{"NoOfRooms":1,"NoOfBathrooms":1,"SqFeet":1053,"Address1":"55338 3rd Point","Address2":"PO Box 58374","City":"Sacramento","State":"CA","Zip":"94245","Description":null,"SalesValue":"$9387710.81"},
{"NoOfRooms":2,"NoOfBathrooms":5,"SqFeet":8923,"Address1":"86 Spohn Drive","Address2":"PO Box 83660","City":"San Francisco","State":"CA","Zip":"94169","Description":null,"SalesValue":"$4938414.61"},
{"NoOfRooms":2,"NoOfBathrooms":1,"SqFeet":2084,"Address1":"1041 Springs Lane","Address2":"Apt 1211","City":"Northridge","State":"CA","Zip":"91328","Description":null,"SalesValue":"$3781225.05"},
{"NoOfRooms":2,"NoOfBathrooms":2,"SqFeet":9307,"Address1":"9924 Orin Pass","Address2":"7th Floor","City":"Torrance","State":"CA","Zip":"90510","Description":null,"SalesValue":"$3903172.42"},
{"NoOfRooms":4,"NoOfBathrooms":4,"SqFeet":6269,"Address1":"84 Packers Crossing","Address2":"Room 300","City":"Sacramento","State":"CA","Zip":"95894","Description":null,"SalesValue":"$7859585.76"},
{"NoOfRooms":1,"NoOfBathrooms":1,"SqFeet":121,"Address1":"8916 Browning Way","Address2":"Suite 17","City":"Stockton","State":"CA","Zip":"95219","Description":null,"SalesValue":"$6559418.57"},
{"NoOfRooms":4,"NoOfBathrooms":5,"SqFeet":8686,"Address1":"1 High Crossing Point","Address2":"Apt 1201","City":"Fresno","State":"CA","Zip":"93773","Description":null,"SalesValue":"$5400835.95"},
{"NoOfRooms":3,"NoOfBathrooms":5,"SqFeet":3439,"Address1":"28 Bellgrove Plaza","Address2":"Room 1166","City":"Los Angeles","State":"CA","Zip":"90087","Description":null,"SalesValue":"$8490489.43"},
{"NoOfRooms":2,"NoOfBathrooms":1,"SqFeet":1731,"Address1":"856 Melby Place","Address2":"PO Box 41774","City":"Pasadena","State":"CA","Zip":"91109","Description":null,"SalesValue":"$8773130.97"},
{"NoOfRooms":4,"NoOfBathrooms":2,"SqFeet":5183,"Address1":"6198 Ohio Lane","Address2":"Apt 1821","City":"San Diego","State":"CA","Zip":"92121","Description":null,"SalesValue":"$3329251.65"},
{"NoOfRooms":4,"NoOfBathrooms":3,"SqFeet":6283,"Address1":"325 Maryland Center","Address2":"Apt 1378","City":"Carlsbad","State":"CA","Zip":"92013","Description":null,"SalesValue":"$4513490.25"},
{"NoOfRooms":1,"NoOfBathrooms":5,"SqFeet":4420,"Address1":"565 Monterey Circle","Address2":"Room 1226","City":"Visalia","State":"CA","Zip":"93291","Description":null,"SalesValue":"$6966609.30"},
{"NoOfRooms":4,"NoOfBathrooms":3,"SqFeet":290,"Address1":"64 Marcy Avenue","Address2":"Apt 614","City":"Sacramento","State":"CA","Zip":"94291","Description":null,"SalesValue":"$9316370.58"},
{"NoOfRooms":2,"NoOfBathrooms":4,"SqFeet":7636,"Address1":"6149 Tony Road","Address2":"Room 1868","City":"Pomona","State":"CA","Zip":"91797","Description":null,"SalesValue":"$3399366.85"},
{"NoOfRooms":5,"NoOfBathrooms":3,"SqFeet":4617,"Address1":"62926 Loomis Road","Address2":"PO Box 38726","City":"Sacramento","State":"CA","Zip":"95828","Description":null,"SalesValue":"$4025744.93"},
{"NoOfRooms":5,"NoOfBathrooms":1,"SqFeet":4763,"Address1":"45 Northview Way","Address2":"Suite 19","City":"Stockton","State":"CA","Zip":"95298","Description":null,"SalesValue":"$8624177.16"},
{"NoOfRooms":5,"NoOfBathrooms":3,"SqFeet":3057,"Address1":"9970 Westend Terrace","Address2":"12th Floor","City":"Anaheim","State":"CA","Zip":"92825","Description":null,"SalesValue":"$1542304.67"},
{"NoOfRooms":1,"NoOfBathrooms":2,"SqFeet":3559,"Address1":"94 Kim Trail","Address2":"Room 286","City":"Sacramento","State":"CA","Zip":"94245","Description":null,"SalesValue":"$3765305.06"},
{"NoOfRooms":2,"NoOfBathrooms":2,"SqFeet":2776,"Address1":"77818 Jana Plaza","Address2":"PO Box 31555","City":"Oakland","State":"CA","Zip":"94622","Description":null,"SalesValue":"$607688.99"},
{"NoOfRooms":2,"NoOfBathrooms":1,"SqFeet":8665,"Address1":"4126 Chive Circle","Address2":"Apt 1141","City":"Garden Grove","State":"CA","Zip":"92645","Description":null,"SalesValue":"$3239663.53"},
{"NoOfRooms":4,"NoOfBathrooms":3,"SqFeet":6991,"Address1":"63284 Glacier Hill Court","Address2":"Apt 1221","City":"Pasadena","State":"CA","Zip":"91109","Description":null,"SalesValue":"$687493.22"},
{"NoOfRooms":1,"NoOfBathrooms":3,"SqFeet":4406,"Address1":"89386 Ridge Oak Avenue","Address2":"Room 1113","City":"Los Angeles","State":"CA","Zip":"90005","Description":null,"SalesValue":"$9158363.69"},
{"NoOfRooms":5,"NoOfBathrooms":3,"SqFeet":5019,"Address1":"35 Kenwood Pass","Address2":"Room 471","City":"San Diego","State":"CA","Zip":"92145","Description":null,"SalesValue":"$5519952.89"},
{"NoOfRooms":5,"NoOfBathrooms":5,"SqFeet":7802,"Address1":"8631 Bobwhite Park","Address2":"Apt 1978","City":"San Jose","State":"CA","Zip":"95108","Description":null,"SalesValue":"$1893496.38"},
{"NoOfRooms":3,"NoOfBathrooms":1,"SqFeet":6571,"Address1":"501 Ruskin Place","Address2":"9th Floor","City":"Palmdale","State":"CA","Zip":"93591","Description":null,"SalesValue":"$9949163.49"},
{"NoOfRooms":4,"NoOfBathrooms":3,"SqFeet":2947,"Address1":"10306 Shelley Drive","Address2":"Room 1322","City":"San Jose","State":"CA","Zip":"95160","Description":null,"SalesValue":"$3296667.00"},
{"NoOfRooms":4,"NoOfBathrooms":4,"SqFeet":7781,"Address1":"2832 Summer Ridge Crossing","Address2":"Room 397","City":"Escondido","State":"CA","Zip":"92030","Description":null,"SalesValue":"$7333558.00"},
{"NoOfRooms":1,"NoOfBathrooms":5,"SqFeet":5552,"Address1":"66 Magdeline Crossing","Address2":"PO Box 63079","City":"Orange","State":"CA","Zip":"92668","Description":null,"SalesValue":"$2601013.17"},
{"NoOfRooms":4,"NoOfBathrooms":4,"SqFeet":997,"Address1":"6604 Towne Park","Address2":"Apt 1314","City":"Richmond","State":"CA","Zip":"94807","Description":null,"SalesValue":"$6929109.75"},
{"NoOfRooms":5,"NoOfBathrooms":1,"SqFeet":7766,"Address1":"240 Oneill Alley","Address2":"PO Box 35169","City":"Los Angeles","State":"CA","Zip":"90094","Description":null,"SalesValue":"$8262333.15"},
{"NoOfRooms":2,"NoOfBathrooms":3,"SqFeet":4585,"Address1":"5814 Pond Center","Address2":"Apt 33","City":"Petaluma","State":"CA","Zip":"94975","Description":null,"SalesValue":"$9101095.52"},
{"NoOfRooms":1,"NoOfBathrooms":1,"SqFeet":9702,"Address1":"2086 Evergreen Avenue","Address2":"Room 1145","City":"San Rafael","State":"CA","Zip":"94913","Description":null,"SalesValue":"$1474190.51"},
{"NoOfRooms":1,"NoOfBathrooms":1,"SqFeet":7688,"Address1":"501 Fremont Avenue","Address2":"14th Floor","City":"Corona","State":"CA","Zip":"92878","Description":null,"SalesValue":"$1367137.93"},
{"NoOfRooms":5,"NoOfBathrooms":2,"SqFeet":5830,"Address1":"95278 Buhler Court","Address2":"PO Box 23481","City":"Irvine","State":"CA","Zip":"92619","Description":null,"SalesValue":"$2200501.05"},
{"NoOfRooms":1,"NoOfBathrooms":1,"SqFeet":1440,"Address1":"122 Burning Wood Point","Address2":"Apt 1353","City":"San Francisco","State":"CA","Zip":"94177","Description":null,"SalesValue":"$559946.50"},
{"NoOfRooms":1,"NoOfBathrooms":5,"SqFeet":1317,"Address1":"1023 Sachtjen Court","Address2":"PO Box 34508","City":"San Bernardino","State":"CA","Zip":"92410","Description":null,"SalesValue":"$2341879.64"},
{"NoOfRooms":5,"NoOfBathrooms":4,"SqFeet":6189,"Address1":"1308 New Castle Plaza","Address2":"10th Floor","City":"Fresno","State":"CA","Zip":"93709","Description":null,"SalesValue":"$4963051.97"},
{"NoOfRooms":2,"NoOfBathrooms":3,"SqFeet":7917,"Address1":"912 Kinsman Parkway","Address2":"Suite 48","City":"Fresno","State":"CA","Zip":"93786","Description":null,"SalesValue":"$8529275.80"},
{"NoOfRooms":1,"NoOfBathrooms":3,"SqFeet":1179,"Address1":"2 Nelson Lane","Address2":"9th Floor","City":"San Diego","State":"CA","Zip":"92165","Description":null,"SalesValue":"$2319950.65"},
{"NoOfRooms":5,"NoOfBathrooms":5,"SqFeet":4699,"Address1":"4 Shelley Junction","Address2":"13th Floor","City":"Santa Monica","State":"CA","Zip":"90410","Description":null,"SalesValue":"$3169578.78"},
{"NoOfRooms":2,"NoOfBathrooms":3,"SqFeet":2594,"Address1":"388 8th Plaza","Address2":"Suite 53","City":"Fresno","State":"CA","Zip":"93740","Description":null,"SalesValue":"$4665723.23"},
{"NoOfRooms":5,"NoOfBathrooms":4,"SqFeet":5481,"Address1":"3 Eastwood Park","Address2":"PO Box 88607","City":"San Diego","State":"CA","Zip":"92132","Description":null,"SalesValue":"$9312859.18"},
{"NoOfRooms":3,"NoOfBathrooms":2,"SqFeet":8922,"Address1":"63 Bunker Hill Pass","Address2":"Room 1362","City":"Sacramento","State":"CA","Zip":"94297","Description":null,"SalesValue":"$9380562.91"},
{"NoOfRooms":3,"NoOfBathrooms":5,"SqFeet":3954,"Address1":"0460 Bellgrove Way","Address2":"PO Box 66061","City":"Sacramento","State":"CA","Zip":"94286","Description":null,"SalesValue":"$1308391.90"},
{"NoOfRooms":5,"NoOfBathrooms":4,"SqFeet":5900,"Address1":"8 Pleasure Crossing","Address2":"PO Box 90938","City":"Sacramento","State":"CA","Zip":"94207","Description":null,"SalesValue":"$9777375.35"},
{"NoOfRooms":5,"NoOfBathrooms":3,"SqFeet":3246,"Address1":"17967 Hovde Pass","Address2":"Apt 547","City":"Berkeley","State":"CA","Zip":"94712","Description":null,"SalesValue":"$1767343.47"},
{"NoOfRooms":3,"NoOfBathrooms":1,"SqFeet":9879,"Address1":"991 5th Avenue","Address2":"Room 1241","City":"Oakland","State":"CA","Zip":"94605","Description":null,"SalesValue":"$5883379.76"},
{"NoOfRooms":5,"NoOfBathrooms":3,"SqFeet":9138,"Address1":"10035 Bultman Junction","Address2":"5th Floor","City":"San Francisco","State":"CA","Zip":"94164","Description":null,"SalesValue":"$903309.77"},
{"NoOfRooms":1,"NoOfBathrooms":3,"SqFeet":5837,"Address1":"7864 Trailsway Drive","Address2":"Suite 75","City":"Mountain View","State":"CA","Zip":"94042","Description":null,"SalesValue":"$3192509.46"},
{"NoOfRooms":2,"NoOfBathrooms":4,"SqFeet":5934,"Address1":"4146 Farwell Place","Address2":"Apt 981","City":"Oceanside","State":"CA","Zip":"92056","Description":null,"SalesValue":"$6536034.48"},
{"NoOfRooms":2,"NoOfBathrooms":2,"SqFeet":2095,"Address1":"83 Stuart Circle","Address2":"Room 1850","City":"San Diego","State":"CA","Zip":"92170","Description":null,"SalesValue":"$8442905.00"},
{"NoOfRooms":1,"NoOfBathrooms":1,"SqFeet":7633,"Address1":"62833 Beilfuss Terrace","Address2":"19th Floor","City":"Visalia","State":"CA","Zip":"93291","Description":null,"SalesValue":"$4188835.55"},
{"NoOfRooms":4,"NoOfBathrooms":5,"SqFeet":3355,"Address1":"65 Anniversary Hill","Address2":"Room 1972","City":"San Rafael","State":"CA","Zip":"94913","Description":null,"SalesValue":"$2685793.34"},
{"NoOfRooms":4,"NoOfBathrooms":5,"SqFeet":2306,"Address1":"369 Monterey Way","Address2":"PO Box 5913","City":"San Francisco","State":"CA","Zip":"94116","Description":null,"SalesValue":"$6847032.41"},
{"NoOfRooms":3,"NoOfBathrooms":2,"SqFeet":823,"Address1":"13623 Sugar Crossing","Address2":"Apt 599","City":"San Jose","State":"CA","Zip":"95128","Description":null,"SalesValue":"$8555310.78"},
{"NoOfRooms":4,"NoOfBathrooms":5,"SqFeet":4528,"Address1":"7 Bashford Terrace","Address2":"10th Floor","City":"Fullerton","State":"CA","Zip":"92835","Description":null,"SalesValue":"$4974004.33"},
{"NoOfRooms":1,"NoOfBathrooms":3,"SqFeet":5617,"Address1":"517 Corscot Road","Address2":"Room 152","City":"Riverside","State":"CA","Zip":"92519","Description":null,"SalesValue":"$1095302.48"},
{"NoOfRooms":1,"NoOfBathrooms":2,"SqFeet":9910,"Address1":"22209 Northfield Place","Address2":"Room 1125","City":"San Diego","State":"CA","Zip":"92153","Description":null,"SalesValue":"$7631798.65"},
{"NoOfRooms":5,"NoOfBathrooms":4,"SqFeet":856,"Address1":"65 Corry Circle","Address2":"20th Floor","City":"Long Beach","State":"CA","Zip":"90840","Description":null,"SalesValue":"$901479.48"},
{"NoOfRooms":4,"NoOfBathrooms":1,"SqFeet":5001,"Address1":"872 North Drive","Address2":"12th Floor","City":"Irvine","State":"CA","Zip":"92710","Description":null,"SalesValue":"$4203858.62"},
{"NoOfRooms":1,"NoOfBathrooms":2,"SqFeet":5886,"Address1":"5 Walton Park","Address2":"Apt 359","City":"Redwood City","State":"CA","Zip":"94064","Description":null,"SalesValue":"$2971653.78"},
{"NoOfRooms":4,"NoOfBathrooms":1,"SqFeet":4901,"Address1":"94996 Nelson Parkway","Address2":"Suite 62","City":"Pomona","State":"CA","Zip":"91797","Description":null,"SalesValue":"$3648742.17"},
{"NoOfRooms":4,"NoOfBathrooms":5,"SqFeet":3961,"Address1":"72 Hintze Crossing","Address2":"Room 298","City":"Sacramento","State":"CA","Zip":"94280","Description":null,"SalesValue":"$7340054.96"},
{"NoOfRooms":2,"NoOfBathrooms":3,"SqFeet":8884,"Address1":"9291 Maple Wood Hill","Address2":"Room 1314","City":"Fresno","State":"CA","Zip":"93709","Description":null,"SalesValue":"$6266477.78"},
{"NoOfRooms":4,"NoOfBathrooms":5,"SqFeet":6903,"Address1":"483 Ludington Circle","Address2":"5th Floor","City":"Sunnyvale","State":"CA","Zip":"94089","Description":null,"SalesValue":"$4876016.84"},
{"NoOfRooms":5,"NoOfBathrooms":4,"SqFeet":828,"Address1":"374 Havey Hill","Address2":"Suite 24","City":"San Francisco","State":"CA","Zip":"94116","Description":null,"SalesValue":"$724103.69"},
{"NoOfRooms":5,"NoOfBathrooms":4,"SqFeet":7578,"Address1":"448 Old Shore Way","Address2":"18th Floor","City":"Fresno","State":"CA","Zip":"93704","Description":null,"SalesValue":"$7280247.15"},
{"NoOfRooms":3,"NoOfBathrooms":4,"SqFeet":7101,"Address1":"69456 Loftsgordon Street","Address2":"Apt 313","City":"Los Angeles","State":"CA","Zip":"90025","Description":null,"SalesValue":"$1085590.91"},
{"NoOfRooms":5,"NoOfBathrooms":1,"SqFeet":5048,"Address1":"59890 Blackbird Park","Address2":"Room 1649","City":"Carlsbad","State":"CA","Zip":"92013","Description":null,"SalesValue":"$2035110.85"},
{"NoOfRooms":4,"NoOfBathrooms":5,"SqFeet":9487,"Address1":"1 Homewood Avenue","Address2":"PO Box 56749","City":"Sacramento","State":"CA","Zip":"95828","Description":null,"SalesValue":"$5092647.53"},
{"NoOfRooms":3,"NoOfBathrooms":2,"SqFeet":9710,"Address1":"349 Twin Pines Circle","Address2":"Apt 1020","City":"Los Angeles","State":"CA","Zip":"90050","Description":null,"SalesValue":"$9301260.63"},
{"NoOfRooms":2,"NoOfBathrooms":4,"SqFeet":2780,"Address1":"3385 Arkansas Hill","Address2":"Room 1335","City":"Modesto","State":"CA","Zip":"95354","Description":null,"SalesValue":"$3164848.06"},
{"NoOfRooms":2,"NoOfBathrooms":3,"SqFeet":5243,"Address1":"29 Helena Lane","Address2":"Room 1781","City":"Los Angeles","State":"CA","Zip":"90076","Description":null,"SalesValue":"$4930578.46"},
{"NoOfRooms":4,"NoOfBathrooms":4,"SqFeet":8308,"Address1":"86401 Hayes Terrace","Address2":"Room 793","City":"Berkeley","State":"CA","Zip":"94712","Description":null,"SalesValue":"$1903877.94"},
{"NoOfRooms":2,"NoOfBathrooms":1,"SqFeet":7220,"Address1":"919 Graceland Alley","Address2":"Suite 79","City":"Fresno","State":"CA","Zip":"93715","Description":null,"SalesValue":"$6543227.37"},
{"NoOfRooms":3,"NoOfBathrooms":1,"SqFeet":9734,"Address1":"5 Ryan Terrace","Address2":"Suite 92","City":"Los Angeles","State":"CA","Zip":"90020","Description":null,"SalesValue":"$1587012.87"},
{"NoOfRooms":5,"NoOfBathrooms":2,"SqFeet":3662,"Address1":"66314 Twin Pines Street","Address2":"Room 987","City":"Long Beach","State":"CA","Zip":"90831","Description":null,"SalesValue":"$9668338.28"},
{"NoOfRooms":2,"NoOfBathrooms":4,"SqFeet":2857,"Address1":"721 Corscot Center","Address2":"Suite 79","City":"Escondido","State":"CA","Zip":"92030","Description":null,"SalesValue":"$9213101.41"},
{"NoOfRooms":1,"NoOfBathrooms":1,"SqFeet":4947,"Address1":"2 Westridge Drive","Address2":"Suite 52","City":"San Jose","State":"CA","Zip":"95150","Description":null,"SalesValue":"$4202676.18"},
{"NoOfRooms":2,"NoOfBathrooms":5,"SqFeet":8160,"Address1":"44 Melvin Drive","Address2":"Room 1427","City":"Ventura","State":"CA","Zip":"93005","Description":null,"SalesValue":"$9115459.21"},
{"NoOfRooms":5,"NoOfBathrooms":2,"SqFeet":3567,"Address1":"432 Bellgrove Pass","Address2":"Apt 1774","City":"Stockton","State":"CA","Zip":"95210","Description":null,"SalesValue":"$8444142.84"},
{"NoOfRooms":4,"NoOfBathrooms":4,"SqFeet":3002,"Address1":"11829 Namekagon Park","Address2":"Suite 18","City":"Corona","State":"CA","Zip":"92883","Description":null,"SalesValue":"$4136067.92"},
{"NoOfRooms":1,"NoOfBathrooms":1,"SqFeet":8006,"Address1":"0 Lake View Lane","Address2":"Apt 1426","City":"Los Angeles","State":"CA","Zip":"90050","Description":null,"SalesValue":"$6335014.75"},
{"NoOfRooms":4,"NoOfBathrooms":4,"SqFeet":9262,"Address1":"94917 Cordelia Lane","Address2":"Room 1935","City":"North Hollywood","State":"CA","Zip":"91606","Description":null,"SalesValue":"$5934859.33"},
{"NoOfRooms":1,"NoOfBathrooms":4,"SqFeet":9660,"Address1":"86 Comanche Junction","Address2":"Room 82","City":"Sacramento","State":"CA","Zip":"94280","Description":null,"SalesValue":"$6983265.14"},
{"NoOfRooms":1,"NoOfBathrooms":3,"SqFeet":5701,"Address1":"53 Golden Leaf Avenue","Address2":"17th Floor","City":"Pasadena","State":"CA","Zip":"91117","Description":null,"SalesValue":"$1905134.55"},
{"NoOfRooms":1,"NoOfBathrooms":1,"SqFeet":9065,"Address1":"623 Thierer Center","Address2":"PO Box 15558","City":"South Lake Tahoe","State":"CA","Zip":"96154","Description":null,"SalesValue":"$3166422.69"},
{"NoOfRooms":3,"NoOfBathrooms":4,"SqFeet":3216,"Address1":"57300 Hoffman Pass","Address2":"Room 1315","City":"Pasadena","State":"CA","Zip":"91117","Description":null,"SalesValue":"$2631180.97"},
{"NoOfRooms":2,"NoOfBathrooms":5,"SqFeet":9141,"Address1":"77 Melrose Pass","Address2":"11th Floor","City":"San Jose","State":"CA","Zip":"95113","Description":null,"SalesValue":"$9571089.47"},
{"NoOfRooms":4,"NoOfBathrooms":5,"SqFeet":7301,"Address1":"66415 Blaine Parkway","Address2":"3rd Floor","City":"Riverside","State":"CA","Zip":"92513","Description":null,"SalesValue":"$8486845.74"},
{"NoOfRooms":4,"NoOfBathrooms":1,"SqFeet":3853,"Address1":"0 North Road","Address2":"13th Floor","City":"San Francisco","State":"CA","Zip":"94154","Description":null,"SalesValue":"$2284721.22"},
{"NoOfRooms":4,"NoOfBathrooms":5,"SqFeet":569,"Address1":"7 Manley Junction","Address2":"Apt 1636","City":"Irvine","State":"CA","Zip":"92717","Description":null,"SalesValue":"$8299635.42"},
{"NoOfRooms":4,"NoOfBathrooms":2,"SqFeet":9244,"Address1":"33 Lerdahl Point","Address2":"Suite 8","City":"Redwood City","State":"CA","Zip":"94064","Description":null,"SalesValue":"$4551474.12"},
{"NoOfRooms":1,"NoOfBathrooms":4,"SqFeet":6470,"Address1":"708 Russell Trail","Address2":"Room 1783","City":"San Rafael","State":"CA","Zip":"94913","Description":null,"SalesValue":"$9299203.02"},
{"NoOfRooms":4,"NoOfBathrooms":2,"SqFeet":4451,"Address1":"9 Hooker Drive","Address2":"1st Floor","City":"Long Beach","State":"CA","Zip":"90805","Description":null,"SalesValue":"$5552878.37"},
{"NoOfRooms":1,"NoOfBathrooms":1,"SqFeet":6049,"Address1":"17 Waxwing Crossing","Address2":"Apt 1912","City":"Anaheim","State":"CA","Zip":"92825","Description":null,"SalesValue":"$9582025.86"},
{"NoOfRooms":5,"NoOfBathrooms":1,"SqFeet":3188,"Address1":"9096 Fairview Street","Address2":"Apt 663","City":"Santa Ana","State":"CA","Zip":"92725","Description":null,"SalesValue":"$1092491.89"},
{"NoOfRooms":5,"NoOfBathrooms":4,"SqFeet":8182,"Address1":"08 East Avenue","Address2":"Suite 39","City":"Los Angeles","State":"CA","Zip":"90015","Description":null,"SalesValue":"$5989963.56"},
{"NoOfRooms":4,"NoOfBathrooms":1,"SqFeet":5591,"Address1":"03464 High Crossing Avenue","Address2":"Room 1506","City":"Berkeley","State":"CA","Zip":"94712","Description":null,"SalesValue":"$8977014.41"},
{"NoOfRooms":5,"NoOfBathrooms":4,"SqFeet":9158,"Address1":"575 Amoth Road","Address2":"6th Floor","City":"San Bernardino","State":"CA","Zip":"92405","Description":null,"SalesValue":"$778006.66"},
{"NoOfRooms":2,"NoOfBathrooms":2,"SqFeet":2732,"Address1":"884 Merrick Parkway","Address2":"Apt 302","City":"San Francisco","State":"CA","Zip":"94105","Description":null,"SalesValue":"$3660637.84"},
{"NoOfRooms":4,"NoOfBathrooms":2,"SqFeet":4921,"Address1":"8350 Meadow Ridge Junction","Address2":"Apt 3","City":"Oakland","State":"CA","Zip":"94660","Description":null,"SalesValue":"$849209.47"},
{"NoOfRooms":1,"NoOfBathrooms":4,"SqFeet":8646,"Address1":"59749 Trailsway Crossing","Address2":"Suite 49","City":"Lancaster","State":"CA","Zip":"93584","Description":null,"SalesValue":"$6509827.67"},
{"NoOfRooms":2,"NoOfBathrooms":4,"SqFeet":7796,"Address1":"5 Coleman Junction","Address2":"Room 817","City":"Oakland","State":"CA","Zip":"94611","Description":null,"SalesValue":"$769858.64"},
{"NoOfRooms":5,"NoOfBathrooms":2,"SqFeet":5716,"Address1":"717 Forest Run Center","Address2":"1st Floor","City":"San Luis Obispo","State":"CA","Zip":"93407","Description":null,"SalesValue":"$9072548.94"},
{"NoOfRooms":1,"NoOfBathrooms":1,"SqFeet":2054,"Address1":"4842 Fremont Court","Address2":"5th Floor","City":"Fresno","State":"CA","Zip":"93778","Description":null,"SalesValue":"$7911490.98"},
{"NoOfRooms":3,"NoOfBathrooms":2,"SqFeet":7215,"Address1":"11619 Crowley Drive","Address2":"Suite 57","City":"Los Angeles","State":"CA","Zip":"90101","Description":null,"SalesValue":"$3827825.65"},
{"NoOfRooms":3,"NoOfBathrooms":2,"SqFeet":1644,"Address1":"6 Mendota Drive","Address2":"9th Floor","City":"Los Angeles","State":"CA","Zip":"90025","Description":null,"SalesValue":"$1155632.38"},
{"NoOfRooms":5,"NoOfBathrooms":5,"SqFeet":2574,"Address1":"2668 Rowland Court","Address2":"17th Floor","City":"Fresno","State":"CA","Zip":"93726","Description":null,"SalesValue":"$3407770.69"},
{"NoOfRooms":3,"NoOfBathrooms":5,"SqFeet":3261,"Address1":"73129 Lawn Plaza","Address2":"Suite 33","City":"Los Angeles","State":"CA","Zip":"90010","Description":null,"SalesValue":"$4021999.75"},
{"NoOfRooms":2,"NoOfBathrooms":1,"SqFeet":8578,"Address1":"7840 Artisan Place","Address2":"Apt 476","City":"Irvine","State":"CA","Zip":"92710","Description":null,"SalesValue":"$2237648.97"},
{"NoOfRooms":5,"NoOfBathrooms":1,"SqFeet":3229,"Address1":"76 Carpenter Junction","Address2":"Suite 85","City":"Oakland","State":"CA","Zip":"94660","Description":null,"SalesValue":"$4781713.40"},
{"NoOfRooms":1,"NoOfBathrooms":2,"SqFeet":1454,"Address1":"8783 Raven Crossing","Address2":"17th Floor","City":"Los Angeles","State":"CA","Zip":"90015","Description":null,"SalesValue":"$2085952.21"},
{"NoOfRooms":3,"NoOfBathrooms":5,"SqFeet":868,"Address1":"3938 Graceland Place","Address2":"Suite 74","City":"San Francisco","State":"CA","Zip":"94126","Description":null,"SalesValue":"$8578816.06"},
{"NoOfRooms":4,"NoOfBathrooms":5,"SqFeet":6530,"Address1":"04 Butternut Parkway","Address2":"Suite 76","City":"Oceanside","State":"CA","Zip":"92056","Description":null,"SalesValue":"$1836895.02"},
{"NoOfRooms":4,"NoOfBathrooms":3,"SqFeet":1154,"Address1":"1446 Bunting Crossing","Address2":"Apt 634","City":"San Diego","State":"CA","Zip":"92196","Description":null,"SalesValue":"$7078759.51"},
{"NoOfRooms":4,"NoOfBathrooms":3,"SqFeet":5472,"Address1":"70 Ramsey Avenue","Address2":"Apt 534","City":"San Bernardino","State":"CA","Zip":"92415","Description":null,"SalesValue":"$7540365.49"},
{"NoOfRooms":5,"NoOfBathrooms":4,"SqFeet":5777,"Address1":"10132 Clarendon Way","Address2":"9th Floor","City":"Fullerton","State":"CA","Zip":"92640","Description":null,"SalesValue":"$3305064.24"},
{"NoOfRooms":3,"NoOfBathrooms":1,"SqFeet":5650,"Address1":"51369 Jackson Court","Address2":"Room 966","City":"Sacramento","State":"CA","Zip":"94291","Description":null,"SalesValue":"$3587745.09"},
{"NoOfRooms":5,"NoOfBathrooms":3,"SqFeet":1862,"Address1":"5 Macpherson Court","Address2":"Suite 27","City":"Santa Barbara","State":"CA","Zip":"93106","Description":null,"SalesValue":"$2728277.56"},
{"NoOfRooms":5,"NoOfBathrooms":3,"SqFeet":8049,"Address1":"8285 Canary Park","Address2":"5th Floor","City":"Simi Valley","State":"CA","Zip":"93094","Description":null,"SalesValue":"$8997652.89"},
{"NoOfRooms":4,"NoOfBathrooms":5,"SqFeet":362,"Address1":"7 Eastlawn Point","Address2":"Room 548","City":"San Bernardino","State":"CA","Zip":"92424","Description":null,"SalesValue":"$1133711.39"},
{"NoOfRooms":5,"NoOfBathrooms":5,"SqFeet":9604,"Address1":"607 Pierstorff Road","Address2":"Apt 1139","City":"Sacramento","State":"CA","Zip":"95818","Description":null,"SalesValue":"$6810593.35"},
{"NoOfRooms":1,"NoOfBathrooms":5,"SqFeet":7422,"Address1":"66025 Golden Leaf Plaza","Address2":"6th Floor","City":"Corona","State":"CA","Zip":"92883","Description":null,"SalesValue":"$9565427.93"},
{"NoOfRooms":5,"NoOfBathrooms":4,"SqFeet":8958,"Address1":"408 East Circle","Address2":"17th Floor","City":"Riverside","State":"CA","Zip":"92505","Description":null,"SalesValue":"$5927450.14"},
{"NoOfRooms":2,"NoOfBathrooms":3,"SqFeet":9572,"Address1":"153 Amoth Road","Address2":"Suite 93","City":"Oakland","State":"CA","Zip":"94627","Description":null,"SalesValue":"$7984958.25"},
{"NoOfRooms":2,"NoOfBathrooms":4,"SqFeet":3217,"Address1":"06 Hintze Parkway","Address2":"16th Floor","City":"Los Angeles","State":"CA","Zip":"90035","Description":null,"SalesValue":"$1458843.14"},
{"NoOfRooms":1,"NoOfBathrooms":4,"SqFeet":1029,"Address1":"8639 Mayfield Alley","Address2":"12th Floor","City":"Ventura","State":"CA","Zip":"93005","Description":null,"SalesValue":"$1241228.14"},
{"NoOfRooms":4,"NoOfBathrooms":3,"SqFeet":3266,"Address1":"305 Gulseth Center","Address2":"Room 1178","City":"Bakersfield","State":"CA","Zip":"93311","Description":null,"SalesValue":"$3517336.02"},
{"NoOfRooms":2,"NoOfBathrooms":5,"SqFeet":3200,"Address1":"22516 Miller Court","Address2":"Room 1478","City":"Whittier","State":"CA","Zip":"90605","Description":null,"SalesValue":"$544334.43"},
{"NoOfRooms":2,"NoOfBathrooms":4,"SqFeet":3603,"Address1":"3 7th Alley","Address2":"Apt 1262","City":"San Francisco","State":"CA","Zip":"94159","Description":null,"SalesValue":"$4517901.23"},
{"NoOfRooms":5,"NoOfBathrooms":5,"SqFeet":4070,"Address1":"7 Alpine Lane","Address2":"PO Box 43381","City":"Oakland","State":"CA","Zip":"94616","Description":null,"SalesValue":"$9744149.75"},
{"NoOfRooms":2,"NoOfBathrooms":1,"SqFeet":448,"Address1":"7 Marcy Drive","Address2":"Apt 1623","City":"San Diego","State":"CA","Zip":"92105","Description":null,"SalesValue":"$3331944.33"},
{"NoOfRooms":4,"NoOfBathrooms":2,"SqFeet":8711,"Address1":"0826 Melby Street","Address2":"Apt 874","City":"Salinas","State":"CA","Zip":"93907","Description":null,"SalesValue":"$7035033.89"},
{"NoOfRooms":4,"NoOfBathrooms":2,"SqFeet":5741,"Address1":"168 Bluestem Place","Address2":"Suite 51","City":"Irvine","State":"CA","Zip":"92717","Description":null,"SalesValue":"$7892203.21"},
{"NoOfRooms":1,"NoOfBathrooms":5,"SqFeet":824,"Address1":"3 Dakota Circle","Address2":"Apt 740","City":"Modesto","State":"CA","Zip":"95397","Description":null,"SalesValue":"$7617745.72"},
{"NoOfRooms":5,"NoOfBathrooms":5,"SqFeet":7880,"Address1":"36910 David Court","Address2":"Apt 1902","City":"Sacramento","State":"CA","Zip":"94297","Description":null,"SalesValue":"$5560794.26"},
{"NoOfRooms":5,"NoOfBathrooms":1,"SqFeet":7657,"Address1":"2 David Crossing","Address2":"Suite 79","City":"Sacramento","State":"CA","Zip":"95852","Description":null,"SalesValue":"$6054780.26"},
{"NoOfRooms":4,"NoOfBathrooms":2,"SqFeet":8343,"Address1":"04 Jenifer Way","Address2":"7th Floor","City":"Santa Barbara","State":"CA","Zip":"93106","Description":null,"SalesValue":"$4653511.13"},
{"NoOfRooms":3,"NoOfBathrooms":4,"SqFeet":6793,"Address1":"8 Loftsgordon Street","Address2":"Suite 59","City":"Burbank","State":"CA","Zip":"91520","Description":null,"SalesValue":"$7944552.56"},
{"NoOfRooms":1,"NoOfBathrooms":2,"SqFeet":9284,"Address1":"5 Waxwing Alley","Address2":"Room 354","City":"Santa Clara","State":"CA","Zip":"95054","Description":null,"SalesValue":"$2630972.54"},
{"NoOfRooms":1,"NoOfBathrooms":1,"SqFeet":2689,"Address1":"64604 Brentwood Way","Address2":"PO Box 27048","City":"Brea","State":"CA","Zip":"92822","Description":null,"SalesValue":"$6485349.10"},
{"NoOfRooms":5,"NoOfBathrooms":5,"SqFeet":6235,"Address1":"82765 Chive Center","Address2":"1st Floor","City":"San Jose","State":"CA","Zip":"95155","Description":null,"SalesValue":"$6527032.82"},
{"NoOfRooms":4,"NoOfBathrooms":1,"SqFeet":7003,"Address1":"626 Loeprich Parkway","Address2":"Suite 47","City":"San Diego","State":"CA","Zip":"92165","Description":null,"SalesValue":"$819233.62"},
{"NoOfRooms":2,"NoOfBathrooms":2,"SqFeet":9364,"Address1":"8527 Pine View Park","Address2":"Suite 58","City":"Los Angeles","State":"CA","Zip":"90055","Description":null,"SalesValue":"$8422056.14"},
{"NoOfRooms":4,"NoOfBathrooms":5,"SqFeet":9196,"Address1":"98417 Mockingbird Alley","Address2":"5th Floor","City":"Oakland","State":"CA","Zip":"94622","Description":null,"SalesValue":"$8258223.88"},
{"NoOfRooms":1,"NoOfBathrooms":1,"SqFeet":3464,"Address1":"75 Emmet Lane","Address2":"Room 1293","City":"Riverside","State":"CA","Zip":"92519","Description":null,"SalesValue":"$7965142.35"},
{"NoOfRooms":3,"NoOfBathrooms":5,"SqFeet":7124,"Address1":"6 Clyde Gallagher Way","Address2":"9th Floor","City":"Santa Barbara","State":"CA","Zip":"93150","Description":null,"SalesValue":"$7204414.96"},
{"NoOfRooms":1,"NoOfBathrooms":2,"SqFeet":3783,"Address1":"64 Jenifer Pass","Address2":"Suite 76","City":"Hayward","State":"CA","Zip":"94544","Description":null,"SalesValue":"$1230745.43"},
{"NoOfRooms":5,"NoOfBathrooms":5,"SqFeet":6457,"Address1":"641 Reindahl Plaza","Address2":"Apt 228","City":"San Rafael","State":"CA","Zip":"94913","Description":null,"SalesValue":"$3250132.63"},
{"NoOfRooms":3,"NoOfBathrooms":5,"SqFeet":8072,"Address1":"2924 Fordem Pass","Address2":"Room 1493","City":"Sacramento","State":"CA","Zip":"95838","Description":null,"SalesValue":"$3188170.05"},
{"NoOfRooms":5,"NoOfBathrooms":1,"SqFeet":9652,"Address1":"951 High Crossing Crossing","Address2":"Suite 38","City":"San Bernardino","State":"CA","Zip":"92424","Description":null,"SalesValue":"$9584882.86"},
{"NoOfRooms":3,"NoOfBathrooms":5,"SqFeet":8960,"Address1":"15564 Westerfield Point","Address2":"Apt 419","City":"San Diego","State":"CA","Zip":"92121","Description":null,"SalesValue":"$516443.99"},
{"NoOfRooms":2,"NoOfBathrooms":2,"SqFeet":6339,"Address1":"66 Melvin Street","Address2":"Suite 29","City":"Los Angeles","State":"CA","Zip":"90040","Description":null,"SalesValue":"$7778450.04"},
{"NoOfRooms":1,"NoOfBathrooms":4,"SqFeet":1819,"Address1":"9 Mcguire Place","Address2":"Room 484","City":"Garden Grove","State":"CA","Zip":"92645","Description":null,"SalesValue":"$924570.25"},
{"NoOfRooms":2,"NoOfBathrooms":3,"SqFeet":618,"Address1":"2046 Debra Hill","Address2":"PO Box 10628","City":"Los Angeles","State":"CA","Zip":"90081","Description":null,"SalesValue":"$1068192.09"},
{"NoOfRooms":3,"NoOfBathrooms":1,"SqFeet":5696,"Address1":"342 Northview Court","Address2":"PO Box 95343","City":"San Jose","State":"CA","Zip":"95113","Description":null,"SalesValue":"$7630146.72"},
{"NoOfRooms":1,"NoOfBathrooms":4,"SqFeet":803,"Address1":"35743 Hoepker Crossing","Address2":"Suite 34","City":"Santa Cruz","State":"CA","Zip":"95064","Description":null,"SalesValue":"$993243.23"},
{"NoOfRooms":5,"NoOfBathrooms":2,"SqFeet":191,"Address1":"68256 Hintze Road","Address2":"5th Floor","City":"Escondido","State":"CA","Zip":"92030","Description":null,"SalesValue":"$999070.41"},
{"NoOfRooms":3,"NoOfBathrooms":2,"SqFeet":1094,"Address1":"675 Cascade Way","Address2":"PO Box 96149","City":"Sacramento","State":"CA","Zip":"94297","Description":null,"SalesValue":"$935172.30"},
{"NoOfRooms":4,"NoOfBathrooms":2,"SqFeet":6072,"Address1":"7144 Schurz Avenue","Address2":"6th Floor","City":"San Jose","State":"CA","Zip":"95108","Description":null,"SalesValue":"$1929531.86"}]