[{"NoOfRooms":5,"NoOfBathrooms":3,"SqFeet":1933,"Address1":"9 Everett Parkway","Address2":"PO Box 1939","City":"Fullerton","State":"CA","Zip":"92835","Description":null,"SalesValue":"$6716988.88"},
{"NoOfRooms":2,"NoOfBathrooms":1,"SqFeet":6077,"Address1":"26 Banding Pass","Address2":"PO Box 35420","City":"San Jose","State":"CA","Zip":"95150","Description":null,"SalesValue":"$4972832.00"},
{"NoOfRooms":5,"NoOfBathrooms":5,"SqFeet":6958,"Address1":"6042 Fallview Center","Address2":"7th Floor","City":"Santa Barbara","State":"CA","Zip":"93106","Description":null,"SalesValue":"$8992396.27"},
{"NoOfRooms":4,"NoOfBathrooms":2,"SqFeet":3135,"Address1":"05035 Canary Drive","Address2":"PO Box 76172","City":"San Francisco","State":"CA","Zip":"94177","Description":null,"SalesValue":"$8189084.40"},
{"NoOfRooms":3,"NoOfBathrooms":4,"SqFeet":7957,"Address1":"6437 Corscot Road","Address2":"Room 1167","City":"Sacramento","State":"CA","Zip":"95813","Description":null,"SalesValue":"$8131432.27"},
{"NoOfRooms":1,"NoOfBathrooms":2,"SqFeet":8970,"Address1":"68 Moulton Park","Address2":"PO Box 43073","City":"San Bernardino","State":"CA","Zip":"92410","Description":null,"SalesValue":"$6984970.39"},
{"NoOfRooms":3,"NoOfBathrooms":1,"SqFeet":4328,"Address1":"73 Luster Parkway","Address2":"13th Floor","City":"San Diego","State":"CA","Zip":"92165","Description":null,"SalesValue":"$7018782.97"},
{"NoOfRooms":3,"NoOfBathrooms":5,"SqFeet":2356,"Address1":"572 Melody Court","Address2":"Suite 1","City":"Torrance","State":"CA","Zip":"90505","Description":null,"SalesValue":"$1743713.04"},
{"NoOfRooms":3,"NoOfBathrooms":2,"SqFeet":7320,"Address1":"7 Tomscot Drive","Address2":"Apt 640","City":"Los Angeles","State":"CA","Zip":"90035","Description":null,"SalesValue":"$2156201.47"},
{"NoOfRooms":1,"NoOfBathrooms":2,"SqFeet":4908,"Address1":"0767 Grayhawk Plaza","Address2":"Apt 859","City":"Glendale","State":"CA","Zip":"91205","Description":null,"SalesValue":"$4301148.31"},
{"NoOfRooms":3,"NoOfBathrooms":3,"SqFeet":1056,"Address1":"414 Mariners Cove Court","Address2":"Suite 50","City":"Pasadena","State":"CA","Zip":"91109","Description":null,"SalesValue":"$8979856.94"},
{"NoOfRooms":1,"NoOfBathrooms":2,"SqFeet":4743,"Address1":"934 Schurz Terrace","Address2":"Room 1580","City":"San Rafael","State":"CA","Zip":"94913","Description":null,"SalesValue":"$8496029.71"},
{"NoOfRooms":5,"NoOfBathrooms":5,"SqFeet":1880,"Address1":"2926 Hoard Terrace","Address2":"PO Box 23000","City":"Sacramento","State":"CA","Zip":"94250","Description":null,"SalesValue":"$2144614.39"},
{"NoOfRooms":4,"NoOfBathrooms":3,"SqFeet":8018,"Address1":"10 Becker Crossing","Address2":"Room 830","City":"Concord","State":"CA","Zip":"94522","Description":null,"SalesValue":"$6582991.10"},
{"NoOfRooms":1,"NoOfBathrooms":4,"SqFeet":6946,"Address1":"6061 Saint Paul Avenue","Address2":"Suite 86","City":"Sacramento","State":"CA","Zip":"95852","Description":null,"SalesValue":"$3480967.99"},
{"NoOfRooms":5,"NoOfBathrooms":1,"SqFeet":2681,"Address1":"0 Anzinger Court","Address2":"Room 1169","City":"Los Angeles","State":"CA","Zip":"90030","Description":null,"SalesValue":"$3905897.00"},
{"NoOfRooms":5,"NoOfBathrooms":2,"SqFeet":5080,"Address1":"78 Hoepker Drive","Address2":"Apt 1674","City":"San Jose","State":"CA","Zip":"95118","Description":null,"SalesValue":"$1357893.93"},
{"NoOfRooms":5,"NoOfBathrooms":3,"SqFeet":1529,"Address1":"2 Park Meadow Alley","Address2":"Suite 100","City":"San Diego","State":"CA","Zip":"92132","Description":null,"SalesValue":"$2722862.48"},
{"NoOfRooms":4,"NoOfBathrooms":1,"SqFeet":2954,"Address1":"3 Rieder Point","Address2":"Apt 1211","City":"Mountain View","State":"CA","Zip":"94042","Description":null,"SalesValue":"$7381396.92"},
{"NoOfRooms":2,"NoOfBathrooms":2,"SqFeet":362,"Address1":"817 Corben Plaza","Address2":"1st Floor","City":"Torrance","State":"CA","Zip":"90505","Description":null,"SalesValue":"$5096644.23"},
{"NoOfRooms":2,"NoOfBathrooms":1,"SqFeet":7023,"Address1":"692 Oakridge Junction","Address2":"19th Floor","City":"Stockton","State":"CA","Zip":"95298","Description":null,"SalesValue":"$5360527.46"},
{"NoOfRooms":3,"NoOfBathrooms":2,"SqFeet":2912,"Address1":"17769 Pond Lane","Address2":"PO Box 63442","City":"Hayward","State":"CA","Zip":"94544","Description":null,"SalesValue":"$3601672.58"},
{"NoOfRooms":4,"NoOfBathrooms":3,"SqFeet":7742,"Address1":"2 Stoughton Drive","Address2":"Apt 811","City":"Los Angeles","State":"CA","Zip":"90101","Description":null,"SalesValue":"$9462067.65"},
{"NoOfRooms":2,"NoOfBathrooms":1,"SqFeet":7717,"Address1":"37081 Ramsey Circle","Address2":"PO Box 32773","City":"Redwood City","State":"CA","Zip":"94064","Description":null,"SalesValue":"$6270216.12"},
{"NoOfRooms":4,"NoOfBathrooms":5,"SqFeet":8784,"Address1":"91496 Logan Street","Address2":"13th Floor","City":"Oakland","State":"CA","Zip":"94622","Description":null,"SalesValue":"$3266181.24"},
{"NoOfRooms":1,"NoOfBathrooms":1,"SqFeet":4587,"Address1":"60 Northridge Plaza","Address2":"Room 1262","City":"Santa Barbara","State":"CA","Zip":"93111","Description":null,"SalesValue":"$6775484.72"},
{"NoOfRooms":5,"NoOfBathrooms":4,"SqFeet":9743,"Address1":"6517 Mallard Terrace","Address2":"Apt 225","City":"Newport Beach","State":"CA","Zip":"92662","Description":null,"SalesValue":"$9465332.44"},
{"NoOfRooms":4,"NoOfBathrooms":5,"SqFeet":7155,"Address1":"6983 Delladonna Center","Address2":"Suite 7","City":"Carlsbad","State":"CA","Zip":"92013","Description":null,"SalesValue":"$4500119.54"},
{"NoOfRooms":2,"NoOfBathrooms":3,"SqFeet":141,"Address1":"2 Schlimgen Junction","Address2":"Apt 1013","City":"San Francisco","State":"CA","Zip":"94105","Description":null,"SalesValue":"$9650227.49"},
{"NoOfRooms":1,"NoOfBathrooms":2,"SqFeet":2642,"Address1":"918 Comanche Hill","Address2":"Suite 83","City":"Santa Barbara","State":"CA","Zip":"93106","Description":null,"SalesValue":"$3464106.57"},
{"NoOfRooms":2,"NoOfBathrooms":5,"SqFeet":6107,"Address1":"86 Lakeland Hill","Address2":"6th Floor","City":"Oakland","State":"CA","Zip":"94660","Description":null,"SalesValue":"$8596235.03"},
{"NoOfRooms":2,"NoOfBathrooms":5,"SqFeet":9381,"Address1":"8857 Kedzie Way","Address2":"Apt 1445","City":"Santa Barbara","State":"CA","Zip":"93111","Description":null,"SalesValue":"$2592231.17"},
{"NoOfRooms":4,"NoOfBathrooms":4,"SqFeet":823,"Address1":"44 Armistice Pass","Address2":"Room 1682","City":"Fresno","State":"CA","Zip":"93704","Description":null,"SalesValue":"$3474392.58"},
{"NoOfRooms":2,"NoOfBathrooms":5,"SqFeet":6456,"Address1":"55 Manufacturers Place","Address2":"Room 1838","City":"South Lake Tahoe","State":"CA","Zip":"96154","Description":null,"SalesValue":"$8348904.21"},
{"NoOfRooms":5,"NoOfBathrooms":5,"SqFeet":8827,"Address1":"28592 Ilene Avenue","Address2":"Room 607","City":"San Jose","State":"CA","Zip":"95128","Description":null,"SalesValue":"$1112275.97"},
{"NoOfRooms":1,"NoOfBathrooms":2,"SqFeet":737,"Address1":"650 Lighthouse Bay Way","Address2":"Room 305","City":"Riverside","State":"CA","Zip":"92513","Description":null,"SalesValue":"$4620119.94"},
{"NoOfRooms":3,"NoOfBathrooms":5,"SqFeet":2309,"Address1":"7823 Hagan Trail","Address2":"Suite 57","City":"Irvine","State":"CA","Zip":"92619","Description":null,"SalesValue":"$4625693.63"},
{"NoOfRooms":2,"NoOfBathrooms":4,"SqFeet":4934,"Address1":"3881 Tomscot Park","Address2":"PO Box 27661","City":"San Diego","State":"CA","Zip":"92137","Description":null,"SalesValue":"$5679332.18"},
{"NoOfRooms":5,"NoOfBathrooms":4,"SqFeet":8208,"Address1":"8016 Del Mar Plaza","Address2":"Apt 833","City":"San Diego","State":"CA","Zip":"92170","Description":null,"SalesValue":"$6305063.41"},
{"NoOfRooms":5,"NoOfBathrooms":3,"SqFeet":8424,"Address1":"642 Northport Road","Address2":"Apt 207","City":"Corona","State":"CA","Zip":"92878","Description":null,"SalesValue":"$1964437.00"},
{"NoOfRooms":5,"NoOfBathrooms":4,"SqFeet":7722,"Address1":"13 Buhler Crossing","Address2":"Apt 1099","City":"Bakersfield","State":"CA","Zip":"93381","Description":null,"SalesValue":"$3232195.80"},
{"NoOfRooms":4,"NoOfBathrooms":2,"SqFeet":4477,"Address1":"716 Hazelcrest Circle","Address2":"Room 550","City":"Van Nuys","State":"CA","Zip":"91411","Description":null,"SalesValue":"$6471042.39"},
{"NoOfRooms":2,"NoOfBathrooms":1,"SqFeet":1747,"Address1":"041 Harper Point","Address2":"Apt 1191","City":"Irvine","State":"CA","Zip":"92710","Description":null,"SalesValue":"$3841725.03"},
{"NoOfRooms":4,"NoOfBathrooms":1,"SqFeet":637,"Address1":"256 Manufacturers Park","Address2":"Room 1869","City":"San Diego","State":"CA","Zip":"92165","Description":null,"SalesValue":"$6400884.34"},
{"NoOfRooms":2,"NoOfBathrooms":2,"SqFeet":4653,"Address1":"0 Green Park","Address2":"Apt 552","City":"Pasadena","State":"CA","Zip":"91125","Description":null,"SalesValue":"$2206356.01"},
{"NoOfRooms":2,"NoOfBathrooms":1,"SqFeet":3427,"Address1":"07709 Mifflin Parkway","Address2":"9th Floor","City":"Sacramento","State":"CA","Zip":"95894","Description":null,"SalesValue":"$7467263.89"},
{"NoOfRooms":1,"NoOfBathrooms":3,"SqFeet":7863,"Address1":"53894 Village Green Trail","Address2":"Room 1585","City":"San Francisco","State":"CA","Zip":"94164","Description":null,"SalesValue":"$3167512.14"},
{"NoOfRooms":1,"NoOfBathrooms":2,"SqFeet":2802,"Address1":"684 Jay Crossing","Address2":"PO Box 78763","City":"Fresno","State":"CA","Zip":"93786","Description":null,"SalesValue":"$4213242.53"},
{"NoOfRooms":5,"NoOfBathrooms":5,"SqFeet":8032,"Address1":"26 Vernon Alley","Address2":"Suite 35","City":"Garden Grove","State":"CA","Zip":"92844","Description":null,"SalesValue":"$3953092.11"},
{"NoOfRooms":4,"NoOfBathrooms":4,"SqFeet":2043,"Address1":"599 Walton Plaza","Address2":"Suite 41","City":"Sacramento","State":"CA","Zip":"94237","Description":null,"SalesValue":"$7919241.21"},
{"NoOfRooms":1,"NoOfBathrooms":2,"SqFeet":2009,"Address1":"7 Tennyson Street","Address2":"Suite 63","City":"Santa Rosa","State":"CA","Zip":"95405","Description":null,"SalesValue":"$3927833.79"},
{"NoOfRooms":5,"NoOfBathrooms":2,"SqFeet":5935,"Address1":"71 Clyde Gallagher Pass","Address2":"15th Floor","City":"Sacramento","State":"CA","Zip":"94297","Description":null,"SalesValue":"$677476.01"},
{"NoOfRooms":2,"NoOfBathrooms":4,"SqFeet":633,"Address1":"9703 Sutherland Trail","Address2":"Apt 1257","City":"Santa Monica","State":"CA","Zip":"90410","Description":null,"SalesValue":"$8935494.21"},
{"NoOfRooms":3,"NoOfBathrooms":2,"SqFeet":2066,"Address1":"11 Iowa Terrace","Address2":"Room 1419","City":"San Diego","State":"CA","Zip":"92153","Description":null,"SalesValue":"$2701038.35"},
{"NoOfRooms":3,"NoOfBathrooms":5,"SqFeet":6523,"Address1":"6 Thompson Trail","Address2":"Suite 73","City":"Los Angeles","State":"CA","Zip":"90087","Description":null,"SalesValue":"$836672.63"},
{"NoOfRooms":4,"NoOfBathrooms":4,"SqFeet":9987,"Address1":"86 Cottonwood Place","Address2":"Suite 78","City":"Sacramento","State":"CA","Zip":"95828","Description":null,"SalesValue":"$9307950.38"},
{"NoOfRooms":5,"NoOfBathrooms":3,"SqFeet":8267,"Address1":"3401 Arapahoe Circle","Address2":"16th Floor","City":"Torrance","State":"CA","Zip":"90510","Description":null,"SalesValue":"$4864496.16"},
{"NoOfRooms":3,"NoOfBathrooms":4,"SqFeet":905,"Address1":"4343 Hudson Avenue","Address2":"11th Floor","City":"Los Angeles","State":"CA","Zip":"90101","Description":null,"SalesValue":"$3816306.28"},
{"NoOfRooms":5,"NoOfBathrooms":5,"SqFeet":4460,"Address1":"840 Haas Park","Address2":"Apt 1634","City":"Santa Barbara","State":"CA","Zip":"93111","Description":null,"SalesValue":"$9208206.58"},
{"NoOfRooms":2,"NoOfBathrooms":2,"SqFeet":463,"Address1":"834 Shoshone Circle","Address2":"Suite 19","City":"Orange","State":"CA","Zip":"92668","Description":null,"SalesValue":"$4585804.24"},
{"NoOfRooms":5,"NoOfBathrooms":4,"SqFeet":6095,"Address1":"13017 Lawn Crossing","Address2":"Suite 71","City":"Moreno Valley","State":"CA","Zip":"92555","Description":null,"SalesValue":"$2875587.78"},
{"NoOfRooms":3,"NoOfBathrooms":1,"SqFeet":9433,"Address1":"63633 Novick Alley","Address2":"Suite 25","City":"Simi Valley","State":"CA","Zip":"93094","Description":null,"SalesValue":"$1703929.13"},
{"NoOfRooms":1,"NoOfBathrooms":2,"SqFeet":2157,"Address1":"405 Porter Avenue","Address2":"Room 1160","City":"Petaluma","State":"CA","Zip":"94975","Description":null,"SalesValue":"$6508021.34"},
{"NoOfRooms":3,"NoOfBathrooms":3,"SqFeet":7773,"Address1":"3 Golf Alley","Address2":"Room 593","City":"Anaheim","State":"CA","Zip":"92825","Description":null,"SalesValue":"$2222789.96"},
{"NoOfRooms":1,"NoOfBathrooms":4,"SqFeet":4393,"Address1":"75628 Riverside Court","Address2":"5th Floor","City":"Sacramento","State":"CA","Zip":"94297","Description":null,"SalesValue":"$8148954.00"},
{"NoOfRooms":4,"NoOfBathrooms":4,"SqFeet":6454,"Address1":"19491 Bobwhite Lane","Address2":"Suite 82","City":"Fullerton","State":"CA","Zip":"92835","Description":null,"SalesValue":"$1165971.64"},
{"NoOfRooms":4,"NoOfBathrooms":3,"SqFeet":997,"Address1":"3846 Kensington Center","Address2":"15th Floor","City":"Oakland","State":"CA","Zip":"94622","Description":null,"SalesValue":"$1466963.24"},
{"NoOfRooms":3,"NoOfBathrooms":5,"SqFeet":2977,"Address1":"0241 Straubel Point","Address2":"Suite 99","City":"Pasadena","State":"CA","Zip":"91117","Description":null,"SalesValue":"$811963.64"},
{"NoOfRooms":4,"NoOfBathrooms":2,"SqFeet":4579,"Address1":"636 Sachs Lane","Address2":"PO Box 18497","City":"Sacramento","State":"CA","Zip":"94273","Description":null,"SalesValue":"$5975280.45"},
{"NoOfRooms":1,"NoOfBathrooms":5,"SqFeet":7906,"Address1":"53975 Del Mar Pass","Address2":"PO Box 85598","City":"North Hollywood","State":"CA","Zip":"91616","Description":null,"SalesValue":"$5009313.14"},
{"NoOfRooms":3,"NoOfBathrooms":1,"SqFeet":5792,"Address1":"93 Florence Point","Address2":"Apt 1933","City":"San Diego","State":"CA","Zip":"92121","Description":null,"SalesValue":"$9788415.84"},
{"NoOfRooms":5,"NoOfBathrooms":2,"SqFeet":8141,"Address1":"46 Cherokee Trail","Address2":"Room 818","City":"Oakland","State":"CA","Zip":"94611","Description":null,"SalesValue":"$9641327.68"},
{"NoOfRooms":3,"NoOfBathrooms":5,"SqFeet":3468,"Address1":"8 Saint Paul Crossing","Address2":"3rd Floor","City":"Redwood City","State":"CA","Zip":"94064","Description":null,"SalesValue":"$3368233.17"},
{"NoOfRooms":2,"NoOfBathrooms":1,"SqFeet":7166,"Address1":"81 Birchwood Drive","Address2":"13th Floor","City":"San Francisco","State":"CA","Zip":"94147","Description":null,"SalesValue":"$8072605.68"},
{"NoOfRooms":2,"NoOfBathrooms":5,"SqFeet":8073,"Address1":"914 Clemons Drive","Address2":"18th Floor","City":"San Jose","State":"CA","Zip":"95108","Description":null,"SalesValue":"$5106767.19"},
{"NoOfRooms":1,"NoOfBathrooms":3,"SqFeet":300,"Address1":"24 Sycamore Place","Address2":"Suite 45","City":"Pasadena","State":"CA","Zip":"91199","Description":null,"SalesValue":"$8327830.45"},
{"NoOfRooms":5,"NoOfBathrooms":1,"SqFeet":4484,"Address1":"47341 Crownhardt Crossing","Address2":"Room 685","City":"Anaheim","State":"CA","Zip":"92805","Description":null,"SalesValue":"$9576741.11"},
{"NoOfRooms":1,"NoOfBathrooms":2,"SqFeet":1130,"Address1":"9 Donald Hill","Address2":"Apt 1791","City":"Glendale","State":"CA","Zip":"91205","Description":null,"SalesValue":"$989632.11"},
{"NoOfRooms":3,"NoOfBathrooms":4,"SqFeet":1784,"Address1":"3912 Golf Course Alley","Address2":"Apt 717","City":"Garden Grove","State":"CA","Zip":"92645","Description":null,"SalesValue":"$9292033.28"},
{"NoOfRooms":2,"NoOfBathrooms":1,"SqFeet":2390,"Address1":"12 Hanson Parkway","Address2":"1st Floor","City":"San Jose","State":"CA","Zip":"95133","Description":null,"SalesValue":"$3091951.60"},
{"NoOfRooms":3,"NoOfBathrooms":4,"SqFeet":4516,"Address1":"75858 Miller Avenue","Address2":"15th Floor","City":"San Francisco","State":"CA","Zip":"94147","Description":null,"SalesValue":"$2909674.14"},
{"NoOfRooms":2,"NoOfBathrooms":5,"SqFeet":4136,"Address1":"6784 Hayes Court","Address2":"13th Floor","City":"San Diego","State":"CA","Zip":"92132","Description":null,"SalesValue":"$5576530.18"},
{"NoOfRooms":5,"NoOfBathrooms":5,"SqFeet":6884,"Address1":"15510 Browning Court","Address2":"14th Floor","City":"Torrance","State":"CA","Zip":"90510","Description":null,"SalesValue":"$8861543.12"},
{"NoOfRooms":3,"NoOfBathrooms":2,"SqFeet":7538,"Address1":"1047 Monument Way","Address2":"Room 1792","City":"San Diego","State":"CA","Zip":"92160","Description":null,"SalesValue":"$8150073.34"},
{"NoOfRooms":3,"NoOfBathrooms":3,"SqFeet":3535,"Address1":"7066 Nevada Place","Address2":"PO Box 74481","City":"Bakersfield","State":"CA","Zip":"93386","Description":null,"SalesValue":"$4911442.40"},
{"NoOfRooms":1,"NoOfBathrooms":2,"SqFeet":4051,"Address1":"77 Hanover Point","Address2":"3rd Floor","City":"Moreno Valley","State":"CA","Zip":"92555","Description":null,"SalesValue":"$5676768.83"},
{"NoOfRooms":1,"NoOfBathrooms":2,"SqFeet":1855,"Address1":"54 Gerald Drive","Address2":"20th Floor","City":"Modesto","State":"CA","Zip":"95354","Description":null,"SalesValue":"$5789960.99"},
{"NoOfRooms":3,"NoOfBathrooms":3,"SqFeet":5295,"Address1":"20 Amoth Lane","Address2":"Apt 1792","City":"San Francisco","State":"CA","Zip":"94126","Description":null,"SalesValue":"$3562934.47"},
{"NoOfRooms":3,"NoOfBathrooms":2,"SqFeet":8923,"Address1":"6 Swallow Circle","Address2":"Room 1457","City":"San Diego","State":"CA","Zip":"92196","Description":null,"SalesValue":"$5224415.64"},
{"NoOfRooms":3,"NoOfBathrooms":2,"SqFeet":905,"Address1":"932 Karstens Crossing","Address2":"8th Floor","City":"San Francisco","State":"CA","Zip":"94105","Description":null,"SalesValue":"$6130853.32"},
{"NoOfRooms":4,"NoOfBathrooms":4,"SqFeet":2260,"Address1":"79 Del Sol Road","Address2":"6th Floor","City":"San Jose","State":"CA","Zip":"95150","Description":null,"SalesValue":"$7999758.98"},
{"NoOfRooms":5,"NoOfBathrooms":2,"SqFeet":5300,"Address1":"8192 Meadow Vale Parkway","Address2":"Apt 1297","City":"San Diego","State":"CA","Zip":"92165","Description":null,"SalesValue":"$2367295.95"},
{"NoOfRooms":5,"NoOfBathrooms":3,"SqFeet":7446,"Address1":"9855 Mendota Trail","Address2":"Room 467","City":"San Francisco","State":"CA","Zip":"94147","Description":null,"SalesValue":"$9634475.01"},
{"NoOfRooms":1,"NoOfBathrooms":4,"SqFeet":811,"Address1":"00757 Saint Paul Hill","Address2":"8th Floor","City":"Northridge","State":"CA","Zip":"91328","Description":null,"SalesValue":"$853561.16"},
{"NoOfRooms":2,"NoOfBathrooms":1,"SqFeet":4940,"Address1":"26622 3rd Alley","Address2":"PO Box 5885","City":"Fresno","State":"CA","Zip":"93794","Description":null,"SalesValue":"$1864231.05"},
{"NoOfRooms":4,"NoOfBathrooms":5,"SqFeet":6058,"Address1":"273 Golf View Alley","Address2":"Apt 1397","City":"Sacramento","State":"CA","Zip":"95838","Description":null,"SalesValue":"$2875603.40"},
{"NoOfRooms":3,"NoOfBathrooms":1,"SqFeet":5230,"Address1":"39 Dapin Avenue","Address2":"PO Box 47970","City":"Riverside","State":"CA","Zip":"92513","Description":null,"SalesValue":"$4338770.39"},
{"NoOfRooms":5,"NoOfBathrooms":2,"SqFeet":598,"Address1":"08 Holy Cross Center","Address2":"PO Box 72913","City":"Los Angeles","State":"CA","Zip":"90010","Description":null,"SalesValue":"$6330966.88"},
{"NoOfRooms":3,"NoOfBathrooms":4,"SqFeet":9450,"Address1":"6 Main Alley","Address2":"Room 1272","City":"Pasadena","State":"CA","Zip":"91109","Description":null,"SalesValue":"$8760689.53"},
{"NoOfRooms":5,"NoOfBathrooms":4,"SqFeet":2464,"Address1":"7 Macpherson Park","Address2":"Suite 48","City":"Whittier","State":"CA","Zip":"90605","Description":null,"SalesValue":"$8241133.43"},
{"NoOfRooms":2,"NoOfBathrooms":4,"SqFeet":4251,"Address1":"99955 Banding Park","Address2":"PO Box 86574","City":"San Jose","State":"CA","Zip":"95173","Description":null,"SalesValue":"$4311702.28"},
{"NoOfRooms":4,"NoOfBathrooms":3,"SqFeet":6455,"Address1":"3318 Veith Hill","Address2":"Apt 1403","City":"San Luis Obispo","State":"CA","Zip":"93407","Description":null,"SalesValue":"$5075469.01"},
{"NoOfRooms":1,"NoOfBathrooms":4,"SqFeet":4622,"Address1":"6718 Forest Dale Court","Address2":"Apt 1231","City":"San Francisco","State":"CA","Zip":"94159","Description":null,"SalesValue":"$3418116.81"},
{"NoOfRooms":1,"NoOfBathrooms":3,"SqFeet":7045,"Address1":"42 Prairie Rose Terrace","Address2":"Room 470","City":"Torrance","State":"CA","Zip":"90505","Description":null,"SalesValue":"$3291131.61"},
{"NoOfRooms":3,"NoOfBathrooms":1,"SqFeet":7273,"Address1":"75104 Hintze Place","Address2":"11th Floor","City":"Riverside","State":"CA","Zip":"92519","Description":null,"SalesValue":"$7192581.51"},
{"NoOfRooms":3,"NoOfBathrooms":5,"SqFeet":1876,"Address1":"1 Hoffman Terrace","Address2":"Apt 1975","City":"Long Beach","State":"CA","Zip":"90810","Description":null,"SalesValue":"$1538494.10"},
{"NoOfRooms":2,"NoOfBathrooms":3,"SqFeet":7074,"Address1":"1513 Center Hill","Address2":"Room 225","City":"Los Angeles","State":"CA","Zip":"90071","Description":null,"SalesValue":"$9108004.62"},
{"NoOfRooms":4,"NoOfBathrooms":3,"SqFeet":5516,"Address1":"60806 Nova Plaza","Address2":"11th Floor","City":"San Diego","State":"CA","Zip":"92121","Description":null,"SalesValue":"$1257438.67"},
{"NoOfRooms":3,"NoOfBathrooms":5,"SqFeet":9927,"Address1":"192 Golf Point","Address2":"PO Box 72232","City":"Inglewood","State":"CA","Zip":"90305","Description":null,"SalesValue":"$1936609.67"},
{"NoOfRooms":3,"NoOfBathrooms":2,"SqFeet":5895,"Address1":"8 Portage Park","Address2":"10th Floor","City":"Anaheim","State":"CA","Zip":"92812","Description":null,"SalesValue":"$7494176.03"},
{"NoOfRooms":4,"NoOfBathrooms":1,"SqFeet":2678,"Address1":"7664 Hayes Lane","Address2":"Room 201","City":"Bakersfield","State":"CA","Zip":"93305","Description":null,"SalesValue":"$1330618.19"},
{"NoOfRooms":5,"NoOfBathrooms":1,"SqFeet":2452,"Address1":"95 Warner Hill","Address2":"PO Box 49501","City":"Burbank","State":"CA","Zip":"91505","Description":null,"SalesValue":"$3736781.55"},
{"NoOfRooms":2,"NoOfBathrooms":2,"SqFeet":5637,"Address1":"0 Rigney Parkway","Address2":"Room 1668","City":"Sacramento","State":"CA","Zip":"95833","Description":null,"SalesValue":"$623184.00"},
{"NoOfRooms":3,"NoOfBathrooms":3,"SqFeet":8863,"Address1":"2 Roth Pass","Address2":"Room 1400","City":"San Jose","State":"CA","Zip":"95150","Description":null,"SalesValue":"$4882180.04"},
{"NoOfRooms":2,"NoOfBathrooms":3,"SqFeet":9270,"Address1":"1210 Weeping Birch Lane","Address2":"16th Floor","City":"San Diego","State":"CA","Zip":"92196","Description":null,"SalesValue":"$2672059.60"},
{"NoOfRooms":5,"NoOfBathrooms":2,"SqFeet":1179,"Address1":"36 Walton Avenue","Address2":"1st Floor","City":"Pasadena","State":"CA","Zip":"91125","Description":null,"SalesValue":"$9964816.75"},
{"NoOfRooms":3,"NoOfBathrooms":2,"SqFeet":4751,"Address1":"721 Glacier Hill Avenue","Address2":"PO Box 27008","City":"Santa Barbara","State":"CA","Zip":"93106","Description":null,"SalesValue":"$5412943.39"},
{"NoOfRooms":1,"NoOfBathrooms":1,"SqFeet":2031,"Address1":"9858 Eagan Point","Address2":"Apt 284","City":"South Lake Tahoe","State":"CA","Zip":"96154","Description":null,"SalesValue":"$8574906.35"},
{"NoOfRooms":3,"NoOfBathrooms":5,"SqFeet":9745,"Address1":"51784 Ridgeview Street","Address2":"Room 1570","City":"Santa Clara","State":"CA","Zip":"95054","Description":null,"SalesValue":"$4421887.02"},
{"NoOfRooms":4,"NoOfBathrooms":3,"SqFeet":9301,"Address1":"7 Nancy Crossing","Address2":"Apt 1313","City":"Los Angeles","State":"CA","Zip":"90101","Description":null,"SalesValue":"$5255835.37"},
{"NoOfRooms":1,"NoOfBathrooms":5,"SqFeet":3112,"Address1":"42398 Butterfield Way","Address2":"Room 1239","City":"Santa Ana","State":"CA","Zip":"92725","Description":null,"SalesValue":"$9825775.06"},
{"NoOfRooms":2,"NoOfBathrooms":1,"SqFeet":751,"Address1":"573 Jay Hill","Address2":"Room 1954","City":"Alhambra","State":"CA","Zip":"91841","Description":null,"SalesValue":"$9014437.07"},
{"NoOfRooms":3,"NoOfBathrooms":1,"SqFeet":5320,"Address1":"72631 Monument Crossing","Address2":"Apt 477","City":"Oakland","State":"CA","Zip":"94611","Description":null,"SalesValue":"$9331897.35"},
{"NoOfRooms":4,"NoOfBathrooms":3,"SqFeet":8358,"Address1":"63 Reindahl Alley","Address2":"Room 1606","City":"Los Angeles","State":"CA","Zip":"90010","Description":null,"SalesValue":"$2045466.19"},
{"NoOfRooms":1,"NoOfBathrooms":1,"SqFeet":2044,"Address1":"30 Delladonna Road","Address2":"PO Box 47504","City":"Chico","State":"CA","Zip":"95973","Description":null,"SalesValue":"$9084598.74"},
{"NoOfRooms":1,"NoOfBathrooms":1,"SqFeet":2247,"Address1":"97 Pleasure Park","Address2":"Apt 1479","City":"Los Angeles","State":"CA","Zip":"90065","Description":null,"SalesValue":"$7741287.84"},
{"NoOfRooms":2,"NoOfBathrooms":2,"SqFeet":6623,"Address1":"614 Forster Crossing","Address2":"12th Floor","City":"Moreno Valley","State":"CA","Zip":"92555","Description":null,"SalesValue":"$3551094.12"},
{"NoOfRooms":1,"NoOfBathrooms":2,"SqFeet":1351,"Address1":"76 Tony Junction","Address2":"Room 1730","City":"Burbank","State":"CA","Zip":"91505","Description":null,"SalesValue":"$9353510.18"},
{"NoOfRooms":2,"NoOfBathrooms":4,"SqFeet":9155,"Address1":"4933 Sunbrook Drive","Address2":"14th Floor","City":"Inglewood","State":"CA","Zip":"90398","Description":null,"SalesValue":"$2722023.25"},
{"NoOfRooms":1,"NoOfBathrooms":2,"SqFeet":1990,"Address1":"35 Knutson Lane","Address2":"PO Box 84687","City":"Los Angeles","State":"CA","Zip":"90076","Description":null,"SalesValue":"$6117724.77"},
{"NoOfRooms":1,"NoOfBathrooms":4,"SqFeet":6759,"Address1":"55659 Spaight Trail","Address2":"Room 547","City":"Sacramento","State":"CA","Zip":"94273","Description":null,"SalesValue":"$8778348.76"},
{"NoOfRooms":5,"NoOfBathrooms":5,"SqFeet":2644,"Address1":"56 Ridge Oak Place","Address2":"Room 1906","City":"San Diego","State":"CA","Zip":"92186","Description":null,"SalesValue":"$7989470.38"},
{"NoOfRooms":2,"NoOfBathrooms":3,"SqFeet":6621,"Address1":"486 Blackbird Terrace","Address2":"Apt 1988","City":"Pasadena","State":"CA","Zip":"91199","Description":null,"SalesValue":"$4130454.48"},
{"NoOfRooms":4,"NoOfBathrooms":5,"SqFeet":901,"Address1":"3 Fairfield Pass","Address2":"Room 331","City":"Riverside","State":"CA","Zip":"92513","Description":null,"SalesValue":"$1952919.51"},
{"NoOfRooms":5,"NoOfBathrooms":3,"SqFeet":8278,"Address1":"4523 Erie Center","Address2":"Apt 1487","City":"Brea","State":"CA","Zip":"92822","Description":null,"SalesValue":"$7511327.04"},
{"NoOfRooms":5,"NoOfBathrooms":1,"SqFeet":6451,"Address1":"1 Havey Plaza","Address2":"Apt 1383","City":"Alhambra","State":"CA","Zip":"91841","Description":null,"SalesValue":"$1240563.02"},
{"NoOfRooms":5,"NoOfBathrooms":1,"SqFeet":2222,"Address1":"8866 Farmco Plaza","Address2":"20th Floor","City":"San Diego","State":"CA","Zip":"92132","Description":null,"SalesValue":"$6600519.15"},
{"NoOfRooms":2,"NoOfBathrooms":1,"SqFeet":3187,"Address1":"9260 Atwood Road","Address2":"Apt 686","City":"Pasadena","State":"CA","Zip":"91103","Description":null,"SalesValue":"$568835.47"},
{"NoOfRooms":5,"NoOfBathrooms":5,"SqFeet":3379,"Address1":"93 Carioca Avenue","Address2":"Apt 1719","City":"Sacramento","State":"CA","Zip":"94257","Description":null,"SalesValue":"$5805589.71"},
{"NoOfRooms":2,"NoOfBathrooms":1,"SqFeet":3046,"Address1":"54704 Union Junction","Address2":"Suite 20","City":"San Francisco","State":"CA","Zip":"94132","Description":null,"SalesValue":"$1399983.66"},
{"NoOfRooms":4,"NoOfBathrooms":1,"SqFeet":8031,"Address1":"631 Randy Court","Address2":"Apt 1522","City":"Riverside","State":"CA","Zip":"92505","Description":null,"SalesValue":"$4193839.78"},
{"NoOfRooms":4,"NoOfBathrooms":4,"SqFeet":8290,"Address1":"71 Melby Plaza","Address2":"Suite 40","City":"Orange","State":"CA","Zip":"92668","Description":null,"SalesValue":"$9374069.04"},
{"NoOfRooms":4,"NoOfBathrooms":2,"SqFeet":738,"Address1":"3 Arrowood Point","Address2":"PO Box 91329","City":"San Francisco","State":"CA","Zip":"94137","Description":null,"SalesValue":"$4696479.41"},
{"NoOfRooms":4,"NoOfBathrooms":1,"SqFeet":2889,"Address1":"921 Florence Street","Address2":"Suite 89","City":"Sacramento","State":"CA","Zip":"94291","Description":null,"SalesValue":"$679724.56"},
{"NoOfRooms":1,"NoOfBathrooms":5,"SqFeet":8488,"Address1":"84 Buhler Street","Address2":"Suite 64","City":"Los Angeles","State":"CA","Zip":"90189","Description":null,"SalesValue":"$5988327.88"},
{"NoOfRooms":5,"NoOfBathrooms":2,"SqFeet":7529,"Address1":"547 Elgar Park","Address2":"PO Box 29578","City":"Glendale","State":"CA","Zip":"91210","Description":null,"SalesValue":"$7525006.95"},
{"NoOfRooms":1,"NoOfBathrooms":1,"SqFeet":3745,"Address1":"8785 Blue Bill Park Park","Address2":"Apt 329","City":"Moreno Valley","State":"CA","Zip":"92555","Description":null,"SalesValue":"$630741.44"},
{"NoOfRooms":2,"NoOfBathrooms":2,"SqFeet":8123,"Address1":"0 Arapahoe Alley","Address2":"8th Floor","City":"Anaheim","State":"CA","Zip":"92812","Description":null,"SalesValue":"$7123078.40"},
{"NoOfRooms":1,"NoOfBathrooms":3,"SqFeet":3541,"Address1":"53684 Moland Place","Address2":"Suite 51","City":"Inglewood","State":"CA","Zip":"90305","Description":null,"SalesValue":"$9332198.95"},
{"NoOfRooms":3,"NoOfBathrooms":3,"SqFeet":7152,"Address1":"7 Shasta Lane","Address2":"Room 198","City":"Berkeley","State":"CA","Zip":"94705","Description":null,"SalesValue":"$2863932.56"},
{"NoOfRooms":2,"NoOfBathrooms":4,"SqFeet":8131,"Address1":"42735 Red Cloud Trail","Address2":"Apt 908","City":"Fresno","State":"CA","Zip":"93709","Description":null,"SalesValue":"$6702542.69"},
{"NoOfRooms":1,"NoOfBathrooms":5,"SqFeet":9829,"Address1":"581 Bashford Pass","Address2":"Room 77","City":"Stockton","State":"CA","Zip":"95219","Description":null,"SalesValue":"$6177138.30"},
{"NoOfRooms":4,"NoOfBathrooms":1,"SqFeet":1624,"Address1":"3 Mallory Court","Address2":"Suite 23","City":"Alhambra","State":"CA","Zip":"91841","Description":null,"SalesValue":"$5288120.96"},
{"NoOfRooms":1,"NoOfBathrooms":5,"SqFeet":560,"Address1":"4 Ludington Court","Address2":"Suite 60","City":"Escondido","State":"CA","Zip":"92030","Description":null,"SalesValue":"$6443266.70"},
{"NoOfRooms":5,"NoOfBathrooms":5,"SqFeet":4289,"Address1":"2 Buhler Hill","Address2":"Room 955","City":"Pasadena","State":"CA","Zip":"91131","Description":null,"SalesValue":"$4535434.99"},
{"NoOfRooms":1,"NoOfBathrooms":2,"SqFeet":5503,"Address1":"10 Clemons Avenue","Address2":"PO Box 46490","City":"Bakersfield","State":"CA","Zip":"93386","Description":null,"SalesValue":"$5135533.75"},
{"NoOfRooms":5,"NoOfBathrooms":2,"SqFeet":2706,"Address1":"95 Armistice Road","Address2":"PO Box 14153","City":"Stockton","State":"CA","Zip":"95210","Description":null,"SalesValue":"$3598335.95"},
{"NoOfRooms":2,"NoOfBathrooms":5,"SqFeet":9729,"Address1":"31462 Fair Oaks Terrace","Address2":"Suite 88","City":"Fullerton","State":"CA","Zip":"92640","Description":null,"SalesValue":"$1149505.62"},
{"NoOfRooms":5,"NoOfBathrooms":4,"SqFeet":7163,"Address1":"74470 Starling Alley","Address2":"Suite 26","City":"North Hollywood","State":"CA","Zip":"91616","Description":null,"SalesValue":"$3643722.14"},
{"NoOfRooms":4,"NoOfBathrooms":3,"SqFeet":2479,"Address1":"30035 Del Sol Drive","Address2":"Suite 87","City":"Moreno Valley","State":"CA","Zip":"92555","Description":null,"SalesValue":"$5210175.04"},
{"NoOfRooms":1,"NoOfBathrooms":4,"SqFeet":254,"Address1":"563 Sunfield Park","Address2":"Suite 25","City":"Santa Barbara","State":"CA","Zip":"93106","Description":null,"SalesValue":"$5140094.19"},
{"NoOfRooms":3,"NoOfBathrooms":1,"SqFeet":366,"Address1":"3656 Nevada Street","Address2":"Suite 87","City":"Whittier","State":"CA","Zip":"90605","Description":null,"SalesValue":"$6596332.10"},
{"NoOfRooms":3,"NoOfBathrooms":3,"SqFeet":5544,"Address1":"99 Nevada Place","Address2":"Suite 38","City":"San Francisco","State":"CA","Zip":"94154","Description":null,"SalesValue":"$2760200.52"},
{"NoOfRooms":4,"NoOfBathrooms":4,"SqFeet":2781,"Address1":"91 Orin Lane","Address2":"13th Floor","City":"South Lake Tahoe","State":"CA","Zip":"96154","Description":null,"SalesValue":"$3685453.64"},
{"NoOfRooms":5,"NoOfBathrooms":5,"SqFeet":6044,"Address1":"48366 Pleasure Center","Address2":"Apt 1572","City":"Salinas","State":"CA","Zip":"93907","Description":null,"SalesValue":"$5253526.80"},
{"NoOfRooms":1,"NoOfBathrooms":5,"SqFeet":9809,"Address1":"158 Lighthouse Bay Place","Address2":"PO Box 74760","City":"San Jose","State":"CA","Zip":"95118","Description":null,"SalesValue":"$759001.07"},
{"NoOfRooms":2,"NoOfBathrooms":3,"SqFeet":3095,"Address1":"25 Judy Drive","Address2":"Apt 964","City":"San Diego","State":"CA","Zip":"92137","Description":null,"SalesValue":"$2383229.26"},
{"NoOfRooms":1,"NoOfBathrooms":2,"SqFeet":8267,"Address1":"44258 Eliot Terrace","Address2":"Room 1220","City":"Irvine","State":"CA","Zip":"92717","Description":null,"SalesValue":"$5411303.28"},
{"NoOfRooms":5,"NoOfBathrooms":2,"SqFeet":4295,"Address1":"4 Sunfield Crossing","Address2":"Apt 1628","City":"Glendale","State":"CA","Zip":"91205","Description":null,"SalesValue":"$4614004.80"},
{"NoOfRooms":2,"NoOfBathrooms":3,"SqFeet":1567,"Address1":"69478 Old Gate Parkway","Address2":"15th Floor","City":"Pasadena","State":"CA","Zip":"91103","Description":null,"SalesValue":"$1395812.51"},
{"NoOfRooms":1,"NoOfBathrooms":5,"SqFeet":161,"Address1":"6 Sage Lane","Address2":"Suite 33","City":"Huntington Beach","State":"CA","Zip":"92648","Description":null,"SalesValue":"$9852919.62"},
{"NoOfRooms":4,"NoOfBathrooms":3,"SqFeet":8530,"Address1":"2281 Twin Pines Hill","Address2":"Apt 1478","City":"Bakersfield","State":"CA","Zip":"93311","Description":null,"SalesValue":"$5320559.52"},
{"NoOfRooms":3,"NoOfBathrooms":3,"SqFeet":2069,"Address1":"989 Florence Circle","Address2":"Suite 17","City":"Los Angeles","State":"CA","Zip":"90101","Description":null,"SalesValue":"$9983197.05"},
{"NoOfRooms":3,"NoOfBathrooms":3,"SqFeet":1248,"Address1":"697 Truax Terrace","Address2":"11th Floor","City":"Pomona","State":"CA","Zip":"91797","Description":null,"SalesValue":"$1445837.27"},
{"NoOfRooms":2,"NoOfBathrooms":4,"SqFeet":7831,"Address1":"08064 International Terrace","Address2":"Suite 39","City":"San Bernardino","State":"CA","Zip":"92410","Description":null,"SalesValue":"$3073523.59"},
{"NoOfRooms":1,"NoOfBathrooms":1,"SqFeet":2650,"Address1":"86222 Sloan Parkway","Address2":"PO Box 73678","City":"Anaheim","State":"CA","Zip":"92805","Description":null,"SalesValue":"$4166603.63"},
{"NoOfRooms":1,"NoOfBathrooms":5,"SqFeet":1391,"Address1":"9 Barnett Park","Address2":"Room 559","City":"Bakersfield","State":"CA","Zip":"93305","Description":null,"SalesValue":"$9976088.70"},
{"NoOfRooms":3,"NoOfBathrooms":4,"SqFeet":2434,"Address1":"8 Bluestem Plaza","Address2":"PO Box 27127","City":"Sacramento","State":"CA","Zip":"95813","Description":null,"SalesValue":"$9784902.08"},
{"NoOfRooms":2,"NoOfBathrooms":2,"SqFeet":9730,"Address1":"185 Mayfield Street","Address2":"Room 1452","City":"Fresno","State":"CA","Zip":"93786","Description":null,"SalesValue":"$1051417.91"},
{"NoOfRooms":1,"NoOfBathrooms":3,"SqFeet":9266,"Address1":"274 Mifflin Park","Address2":"4th Floor","City":"Santa Barbara","State":"CA","Zip":"93150","Description":null,"SalesValue":"$7861072.89"},
{"NoOfRooms":3,"NoOfBathrooms":2,"SqFeet":5608,"Address1":"25 Warner Pass","Address2":"1st Floor","City":"San Bernardino","State":"CA","Zip":"92405","Description":null,"SalesValue":"$6741954.52"},
{"NoOfRooms":2,"NoOfBathrooms":4,"SqFeet":6591,"Address1":"3656 Gulseth Point","Address2":"PO Box 97650","City":"Los Angeles","State":"CA","Zip":"90065","Description":null,"SalesValue":"$8146094.84"},
{"NoOfRooms":3,"NoOfBathrooms":5,"SqFeet":7759,"Address1":"86 Bay Parkway","Address2":"6th Floor","City":"Palo Alto","State":"CA","Zip":"94302","Description":null,"SalesValue":"$1280893.00"},
{"NoOfRooms":4,"NoOfBathrooms":2,"SqFeet":209,"Address1":"836 Lyons Place","Address2":"Suite 80","City":"San Diego","State":"CA","Zip":"92191","Description":null,"SalesValue":"$4845185.42"},
{"NoOfRooms":5,"NoOfBathrooms":2,"SqFeet":7193,"Address1":"645 Shasta Alley","Address2":"Apt 705","City":"San Francisco","State":"CA","Zip":"94132","Description":null,"SalesValue":"$3781186.38"},
{"NoOfRooms":5,"NoOfBathrooms":3,"SqFeet":9305,"Address1":"1106 Dovetail Park","Address2":"7th Floor","City":"Oakland","State":"CA","Zip":"94660","Description":null,"SalesValue":"$5966792.05"},
{"NoOfRooms":3,"NoOfBathrooms":4,"SqFeet":4104,"Address1":"0 Birchwood Street","Address2":"Room 60","City":"Los Angeles","State":"CA","Zip":"90005","Description":null,"SalesValue":"$2542774.72"},
{"NoOfRooms":4,"NoOfBathrooms":3,"SqFeet":8450,"Address1":"0614 Eastwood Pass","Address2":"Suite 3","City":"Los Angeles","State":"CA","Zip":"90055","Description":null,"SalesValue":"$3868731.74"},
{"NoOfRooms":2,"NoOfBathrooms":4,"SqFeet":7367,"Address1":"9 Chinook Plaza","Address2":"5th Floor","City":"Concord","State":"CA","Zip":"94522","Description":null,"SalesValue":"$9180186.08"},
{"NoOfRooms":5,"NoOfBathrooms":2,"SqFeet":333,"Address1":"5978 Sheridan Circle","Address2":"PO Box 10493","City":"Petaluma","State":"CA","Zip":"94975","Description":null,"SalesValue":"$5241720.75"},
{"NoOfRooms":1,"NoOfBathrooms":3,"SqFeet":8131,"Address1":"66156 Kenwood Plaza","Address2":"Apt 35","City":"San Francisco","State":"CA","Zip":"94154","Description":null,"SalesValue":"$7396608.68"},
{"NoOfRooms":1,"NoOfBathrooms":2,"SqFeet":7492,"Address1":"43 Hazelcrest Circle","Address2":"Suite 97","City":"San Francisco","State":"CA","Zip":"94121","Description":null,"SalesValue":"$6151035.84"},
{"NoOfRooms":1,"NoOfBathrooms":2,"SqFeet":3360,"Address1":"52668 Messerschmidt Point","Address2":"Room 26","City":"San Bernardino","State":"CA","Zip":"92410","Description":null,"SalesValue":"$9294756.09"},
{"NoOfRooms":5,"NoOfBathrooms":5,"SqFeet":9309,"Address1":"79567 Ronald Regan Park","Address2":"PO Box 64418","City":"San Francisco","State":"CA","Zip":"94147","Description":null,"SalesValue":"$9427954.95"},
{"NoOfRooms":2,"NoOfBathrooms":4,"SqFeet":403,"Address1":"6 Barby Hill","Address2":"Suite 66","City":"Sacramento","State":"CA","Zip":"95818","Description":null,"SalesValue":"$8246216.45"},
{"NoOfRooms":2,"NoOfBathrooms":3,"SqFeet":2484,"Address1":"8290 Shasta Point","Address2":"Apt 403","City":"Los Angeles","State":"CA","Zip":"90020","Description":null,"SalesValue":"$1968870.55"},
{"NoOfRooms":3,"NoOfBathrooms":3,"SqFeet":2779,"Address1":"2 Summerview Hill","Address2":"Suite 66","City":"Sacramento","State":"CA","Zip":"95852","Description":null,"SalesValue":"$6228666.10"},
{"NoOfRooms":3,"NoOfBathrooms":5,"SqFeet":2617,"Address1":"0 Dapin Court","Address2":"Room 1565","City":"San Diego","State":"CA","Zip":"92115","Description":null,"SalesValue":"$8582587.76"},
{"NoOfRooms":4,"NoOfBathrooms":4,"SqFeet":5039,"Address1":"94232 Dahle Point","Address2":"Apt 59","City":"Fresno","State":"CA","Zip":"93762","Description":null,"SalesValue":"$9941774.52"},
{"NoOfRooms":1,"NoOfBathrooms":1,"SqFeet":9286,"Address1":"784 Meadow Vale Hill","Address2":"Suite 22","City":"Los Angeles","State":"CA","Zip":"90071","Description":null,"SalesValue":"$1486211.20"},
{"NoOfRooms":3,"NoOfBathrooms":5,"SqFeet":3335,"Address1":"56 Jackson Trail","Address2":"PO Box 71714","City":"Santa Clara","State":"CA","Zip":"95054","Description":null,"SalesValue":"$4839504.03"},
{"NoOfRooms":2,"NoOfBathrooms":3,"SqFeet":9910,"Address1":"0961 Sycamore Avenue","Address2":"Apt 1656","City":"Bakersfield","State":"CA","Zip":"93305","Description":null,"SalesValue":"$6746357.82"},
{"NoOfRooms":1,"NoOfBathrooms":4,"SqFeet":5091,"Address1":"7 Golf Course Road","Address2":"Suite 56","City":"San Diego","State":"CA","Zip":"92160","Description":null,"SalesValue":"$9578306.47"},
{"NoOfRooms":5,"NoOfBathrooms":1,"SqFeet":9985,"Address1":"56 Lotheville Crossing","Address2":"Suite 59","City":"San Francisco","State":"CA","Zip":"94132","Description":null,"SalesValue":"$2843970.04"},
{"NoOfRooms":5,"NoOfBathrooms":1,"SqFeet":374,"Address1":"7 Aberg Street","Address2":"Room 577","City":"Redwood City","State":"CA","Zip":"94064","Description":null,"SalesValue":"$3824708.91"},
{"NoOfRooms":3,"NoOfBathrooms":4,"SqFeet":5579,"Address1":"86134 Morningstar Park","Address2":"Suite 65","City":"Riverside","State":"CA","Zip":"92505","Description":null,"SalesValue":"$5799536.76"},
{"NoOfRooms":2,"NoOfBathrooms":2,"SqFeet":1393,"Address1":"8 Jenifer Parkway","Address2":"Room 874","City":"Stockton","State":"CA","Zip":"95205","Description":null,"SalesValue":"$2524355.48"},
{"NoOfRooms":5,"NoOfBathrooms":1,"SqFeet":7424,"Address1":"3 Lillian Street","Address2":"14th Floor","City":"San Francisco","State":"CA","Zip":"94159","Description":null,"SalesValue":"$5669542.40"},
{"NoOfRooms":3,"NoOfBathrooms":5,"SqFeet":6663,"Address1":"41438 David Trail","Address2":"Apt 1247","City":"Burbank","State":"CA","Zip":"91505","Description":null,"SalesValue":"$9142558.35"},
{"NoOfRooms":3,"NoOfBathrooms":2,"SqFeet":3349,"Address1":"992 Bashford Parkway","Address2":"6th Floor","City":"Pasadena","State":"CA","Zip":"91125","Description":null,"SalesValue":"$3246301.20"},
{"NoOfRooms":5,"NoOfBathrooms":3,"SqFeet":6944,"Address1":"68 Talmadge Center","Address2":"15th Floor","City":"San Jose","State":"CA","Zip":"95150","Description":null,"SalesValue":"$1140101.91"},
{"NoOfRooms":5,"NoOfBathrooms":5,"SqFeet":1932,"Address1":"116 Little Fleur Hill","Address2":"Suite 13","City":"San Francisco","State":"CA","Zip":"94116","Description":null,"SalesValue":"$2524679.91"},
{"NoOfRooms":3,"NoOfBathrooms":3,"SqFeet":3671,"Address1":"01 Crescent Oaks Trail","Address2":"PO Box 3473","City":"San Francisco","State":"CA","Zip":"94154","Description":null,"SalesValue":"$2710001.89"},
{"NoOfRooms":5,"NoOfBathrooms":2,"SqFeet":3271,"Address1":"71 Kenwood Pass","Address2":"Room 1379","City":"North Hollywood","State":"CA","Zip":"91616","Description":null,"SalesValue":"$9233485.52"},
{"NoOfRooms":1,"NoOfBathrooms":2,"SqFeet":7574,"Address1":"9806 Hollow Ridge Junction","Address2":"Room 669","City":"Bakersfield","State":"CA","Zip":"93381","Description":null,"SalesValue":"$4779075.50"},
{"NoOfRooms":4,"NoOfBathrooms":3,"SqFeet":6579,"Address1":"4089 Victoria Plaza","Address2":"Room 1870","City":"Garden Grove","State":"CA","Zip":"92645","Description":null,"SalesValue":"$8884449.38"},
{"NoOfRooms":4,"NoOfBathrooms":5,"SqFeet":5476,"Address1":"5 Sullivan Court","Address2":"Suite 1","City":"Pasadena","State":"CA","Zip":"91199","Description":null,"SalesValue":"$9368968.93"},
{"NoOfRooms":1,"NoOfBathrooms":3,"SqFeet":1153,"Address1":"3185 Utah Road","Address2":"Apt 456","City":"San Diego","State":"CA","Zip":"92153","Description":null,"SalesValue":"$3720377.54"},
{"NoOfRooms":5,"NoOfBathrooms":3,"SqFeet":743,"Address1":"78800 School Place","Address2":"Room 350","City":"Anaheim","State":"CA","Zip":"92805","Description":null,"SalesValue":"$9788742.71"},
{"NoOfRooms":1,"NoOfBathrooms":2,"SqFeet":100,"Address1":"8 Stone Corner Circle","Address2":"Apt 1647","City":"Santa Barbara","State":"CA","Zip":"93150","Description":null,"SalesValue":"$5582009.57"},
{"NoOfRooms":1,"NoOfBathrooms":3,"SqFeet":2101,"Address1":"402 Banding Lane","Address2":"Suite 36","City":"Stockton","State":"CA","Zip":"95298","Description":null,"SalesValue":"$4845567.31"},
{"NoOfRooms":3,"NoOfBathrooms":4,"SqFeet":1096,"Address1":"91 Buhler Park","Address2":"2nd Floor","City":"Van Nuys","State":"CA","Zip":"91499","Description":null,"SalesValue":"$9172967.22"},
{"NoOfRooms":3,"NoOfBathrooms":3,"SqFeet":2840,"Address1":"1 Prentice Park","Address2":"PO Box 54426","City":"Corona","State":"CA","Zip":"92878","Description":null,"SalesValue":"$4595415.57"},
{"NoOfRooms":2,"NoOfBathrooms":3,"SqFeet":4817,"Address1":"0763 Manufacturers Avenue","Address2":"PO Box 72099","City":"Sacramento","State":"CA","Zip":"95852","Description":null,"SalesValue":"$7901396.20"},
{"NoOfRooms":5,"NoOfBathrooms":2,"SqFeet":6892,"Address1":"81 Maple Drive","Address2":"Suite 6","City":"San Jose","State":"CA","Zip":"95173","Description":null,"SalesValue":"$516018.11"},
{"NoOfRooms":2,"NoOfBathrooms":3,"SqFeet":7942,"Address1":"5304 Moulton Street","Address2":"12th Floor","City":"Fresno","State":"CA","Zip":"93740","Description":null,"SalesValue":"$7600078.25"},
{"NoOfRooms":1,"NoOfBathrooms":3,"SqFeet":4560,"Address1":"1 Starling Court","Address2":"Room 344","City":"San Luis Obispo","State":"CA","Zip":"93407","Description":null,"SalesValue":"$7195883.68"},
{"NoOfRooms":5,"NoOfBathrooms":2,"SqFeet":3636,"Address1":"3 Bobwhite Terrace","Address2":"Room 1447","City":"Van Nuys","State":"CA","Zip":"91411","Description":null,"SalesValue":"$5717437.13"},
{"NoOfRooms":1,"NoOfBathrooms":4,"SqFeet":6295,"Address1":"335 Riverside Lane","Address2":"2nd Floor","City":"Long Beach","State":"CA","Zip":"90831","Description":null,"SalesValue":"$4144977.54"},
{"NoOfRooms":1,"NoOfBathrooms":5,"SqFeet":7711,"Address1":"7703 Grasskamp Pass","Address2":"Room 845","City":"Los Angeles","State":"CA","Zip":"90094","Description":null,"SalesValue":"$6738788.22"},
{"NoOfRooms":1,"NoOfBathrooms":3,"SqFeet":7036,"Address1":"9 Elgar Terrace","Address2":"PO Box 97793","City":"Fresno","State":"CA","Zip":"93709","Description":null,"SalesValue":"$4151284.13"},
{"NoOfRooms":3,"NoOfBathrooms":4,"SqFeet":9807,"Address1":"881 Morrow Park","Address2":"PO Box 34588","City":"Los Angeles","State":"CA","Zip":"90035","Description":null,"SalesValue":"$2084206.94"},
{"NoOfRooms":5,"NoOfBathrooms":3,"SqFeet":3918,"Address1":"20623 Grover Point","Address2":"Suite 98","City":"Stockton","State":"CA","Zip":"95298","Description":null,"SalesValue":"$9471712.99"},
{"NoOfRooms":5,"NoOfBathrooms":1,"SqFeet":9972,"Address1":"65 Eastlawn Parkway","Address2":"Apt 1814","City":"Sacramento","State":"CA","Zip":"95823","Description":null,"SalesValue":"$6649294.58"},
{"NoOfRooms":5,"NoOfBathrooms":4,"SqFeet":9547,"Address1":"58910 Randy Avenue","Address2":"PO Box 66490","City":"Sacramento","State":"CA","Zip":"94263","Description":null,"SalesValue":"$8653518.41"},
{"NoOfRooms":4,"NoOfBathrooms":2,"SqFeet":3324,"Address1":"8166 Meadow Ridge Crossing","Address2":"Room 1424","City":"San Francisco","State":"CA","Zip":"94159","Description":null,"SalesValue":"$5879496.59"},
{"NoOfRooms":1,"NoOfBathrooms":5,"SqFeet":6274,"Address1":"46979 Browning Court","Address2":"PO Box 67694","City":"Los Angeles","State":"CA","Zip":"90035","Description":null,"SalesValue":"$8214274.16"},
{"NoOfRooms":3,"NoOfBathrooms":5,"SqFeet":9683,"Address1":"9684 Dapin Crossing","Address2":"PO Box 33784","City":"San Francisco","State":"CA","Zip":"94142","Description":null,"SalesValue":"$6879178.91"},
{"NoOfRooms":3,"NoOfBathrooms":2,"SqFeet":1704,"Address1":"7 Morningstar Park","Address2":"Room 118","City":"Los Angeles","State":"CA","Zip":"90094","Description":null,"SalesValue":"$9132489.24"},
{"NoOfRooms":5,"NoOfBathrooms":4,"SqFeet":8585,"Address1":"5448 Buhler Place","Address2":"Apt 1016","City":"Glendale","State":"CA","Zip":"91210","Description":null,"SalesValue":"$7035298.58"},
{"NoOfRooms":1,"NoOfBathrooms":3,"SqFeet":338,"Address1":"405 Artisan Road","Address2":"PO Box 88666","City":"Sacramento","State":"CA","Zip":"95818","Description":null,"SalesValue":"$1329631.32"},
{"NoOfRooms":4,"NoOfBathrooms":5,"SqFeet":5672,"Address1":"695 5th Road","Address2":"Room 1216","City":"Berkeley","State":"CA","Zip":"94705","Description":null,"SalesValue":"$9996353.41"},
{"NoOfRooms":2,"NoOfBathrooms":1,"SqFeet":2615,"Address1":"59 Sunnyside Road","Address2":"Suite 63","City":"Pasadena","State":"CA","Zip":"91103","Description":null,"SalesValue":"$9661907.51"},
{"NoOfRooms":1,"NoOfBathrooms":1,"SqFeet":3604,"Address1":"86 Butterfield Alley","Address2":"Apt 558","City":"Mountain View","State":"CA","Zip":"94042","Description":null,"SalesValue":"$993720.65"},
{"NoOfRooms":4,"NoOfBathrooms":3,"SqFeet":365,"Address1":"167 Sutteridge Street","Address2":"Apt 64","City":"Sacramento","State":"CA","Zip":"94257","Description":null,"SalesValue":"$6600245.68"},
{"NoOfRooms":1,"NoOfBathrooms":4,"SqFeet":1332,"Address1":"8185 Ronald Regan Hill","Address2":"PO Box 10533","City":"Los Angeles","State":"CA","Zip":"90035","Description":null,"SalesValue":"$7246316.34"},
{"NoOfRooms":2,"NoOfBathrooms":3,"SqFeet":9825,"Address1":"06 Utah Lane","Address2":"Suite 79","City":"San Diego","State":"CA","Zip":"92160","Description":null,"SalesValue":"$7209381.67"},
{"NoOfRooms":1,"NoOfBathrooms":5,"SqFeet":2341,"Address1":"31 Kinsman Lane","Address2":"Suite 36","City":"Sacramento","State":"CA","Zip":"94280","Description":null,"SalesValue":"$1683782.43"},
{"NoOfRooms":2,"NoOfBathrooms":4,"SqFeet":5990,"Address1":"47765 Talisman Lane","Address2":"Suite 99","City":"Palmdale","State":"CA","Zip":"93591","Description":null,"SalesValue":"$5476958.33"},
{"NoOfRooms":4,"NoOfBathrooms":1,"SqFeet":7394,"Address1":"01340 Mandrake Way","Address2":"7th Floor","City":"Bakersfield","State":"CA","Zip":"93399","Description":null,"SalesValue":"$5824088.21"},
{"NoOfRooms":5,"NoOfBathrooms":2,"SqFeet":7246,"Address1":"9674 Longview Circle","Address2":"Apt 1637","City":"Ventura","State":"CA","Zip":"93005","Description":null,"SalesValue":"$2509902.45"},
{"NoOfRooms":3,"NoOfBathrooms":5,"SqFeet":4497,"Address1":"31 Banding Court","Address2":"Suite 74","City":"Los Angeles","State":"CA","Zip":"90030","Description":null,"SalesValue":"$8127867.46"},
{"NoOfRooms":3,"NoOfBathrooms":2,"SqFeet":2274,"Address1":"7 Calypso Center","Address2":"5th Floor","City":"Huntington Beach","State":"CA","Zip":"92648","Description":null,"SalesValue":"$3668037.72"},
{"NoOfRooms":5,"NoOfBathrooms":1,"SqFeet":2775,"Address1":"98623 Sommers Center","Address2":"Suite 91","City":"San Jose","State":"CA","Zip":"95173","Description":null,"SalesValue":"$6593030.91"},
{"NoOfRooms":2,"NoOfBathrooms":2,"SqFeet":8791,"Address1":"894 Kennedy Avenue","Address2":"PO Box 630","City":"San Jose","State":"CA","Zip":"95123","Description":null,"SalesValue":"$2901956.45"},
{"NoOfRooms":5,"NoOfBathrooms":4,"SqFeet":5801,"Address1":"5558 Jenifer Crossing","Address2":"1st Floor","City":"Los Angeles","State":"CA","Zip":"90189","Description":null,"SalesValue":"$6588844.70"},
{"NoOfRooms":3,"NoOfBathrooms":1,"SqFeet":2044,"Address1":"25128 Banding Road","Address2":"PO Box 94863","City":"San Jose","State":"CA","Zip":"95173","Description":null,"SalesValue":"$4207395.86"},
{"NoOfRooms":2,"NoOfBathrooms":3,"SqFeet":5720,"Address1":"40 Lighthouse Bay Road","Address2":"Suite 79","City":"Fullerton","State":"CA","Zip":"92640","Description":null,"SalesValue":"$1251052.17"},
{"NoOfRooms":2,"NoOfBathrooms":5,"SqFeet":3765,"Address1":"9072 Bluejay Circle","Address2":"3rd Floor","City":"San Diego","State":"CA","Zip":"92105","Description":null,"SalesValue":"$4976355.13"},
{"NoOfRooms":2,"NoOfBathrooms":1,"SqFeet":7969,"Address1":"22513 Hanover Way","Address2":"Room 1732","City":"Los Angeles","State":"CA","Zip":"90060","Description":null,"SalesValue":"$4689129.97"},
{"NoOfRooms":4,"NoOfBathrooms":3,"SqFeet":7802,"Address1":"315 Laurel Circle","Address2":"11th Floor","City":"Los Angeles","State":"CA","Zip":"90094","Description":null,"SalesValue":"$1942815.82"},
{"NoOfRooms":4,"NoOfBathrooms":1,"SqFeet":3314,"Address1":"979 Gale Avenue","Address2":"Apt 1349","City":"Fresno","State":"CA","Zip":"93762","Description":null,"SalesValue":"$5694958.82"},
{"NoOfRooms":5,"NoOfBathrooms":5,"SqFeet":413,"Address1":"1964 3rd Alley","Address2":"PO Box 15404","City":"San Rafael","State":"CA","Zip":"94913","Description":null,"SalesValue":"$748010.22"},
{"NoOfRooms":2,"NoOfBathrooms":4,"SqFeet":4758,"Address1":"3127 Gerald Road","Address2":"Suite 21","City":"Santa Cruz","State":"CA","Zip":"95064","Description":null,"SalesValue":"$1877093.83"},
{"NoOfRooms":2,"NoOfBathrooms":5,"SqFeet":129,"Address1":"46322 Hintze Junction","Address2":"Suite 63","City":"Sacramento","State":"CA","Zip":"94237","Description":null,"SalesValue":"$4834944.62"},
{"NoOfRooms":5,"NoOfBathrooms":5,"SqFeet":823,"Address1":"11 Surrey Alley","Address2":"PO Box 36843","City":"Modesto","State":"CA","Zip":"95354","Description":null,"SalesValue":"$1615945.61"},
{"NoOfRooms":5,"NoOfBathrooms":5,"SqFeet":4485,"Address1":"5 Bluejay Parkway","Address2":"15th Floor","City":"San Diego","State":"CA","Zip":"92115","Description":null,"SalesValue":"$742698.08"},
{"NoOfRooms":4,"NoOfBathrooms":2,"SqFeet":7400,"Address1":"80 Luster Drive","Address2":"Suite 77","City":"Sacramento","State":"CA","Zip":"95894","Description":null,"SalesValue":"$9595506.38"},
{"NoOfRooms":3,"NoOfBathrooms":3,"SqFeet":8528,"Address1":"142 American Court","Address2":"Apt 1562","City":"Visalia","State":"CA","Zip":"93291","Description":null,"SalesValue":"$2996596.69"},
{"NoOfRooms":2,"NoOfBathrooms":3,"SqFeet":7990,"Address1":"104 Corben Road","Address2":"Room 1020","City":"Fullerton","State":"CA","Zip":"92640","Description":null,"SalesValue":"$7642274.96"},
{"NoOfRooms":4,"NoOfBathrooms":3,"SqFeet":4800,"Address1":"5 Wayridge Terrace","Address2":"Apt 1074","City":"Los Angeles","State":"CA","Zip":"90076","Description":null,"SalesValue":"$1315793.91"},
{"NoOfRooms":3,"NoOfBathrooms":4,"SqFeet":4669,"Address1":"44850 Summit Crossing","Address2":"11th Floor","City":"Los Angeles","State":"CA","Zip":"90087","Description":null,"SalesValue":"$3922454.15"},
{"NoOfRooms":3,"NoOfBathrooms":5,"SqFeet":7701,"Address1":"0638 Ilene Park","Address2":"Room 42","City":"Simi Valley","State":"CA","Zip":"93094","Description":null,"SalesValue":"$7390696.12"},
{"NoOfRooms":3,"NoOfBathrooms":4,"SqFeet":9557,"Address1":"76739 Dunning Way","Address2":"Room 854","City":"Santa Cruz","State":"CA","Zip":"95064","Description":null,"SalesValue":"$7883387.06"},
{"NoOfRooms":3,"NoOfBathrooms":3,"SqFeet":8499,"Address1":"45 Nancy Junction","Address2":"Room 1450","City":"Sacramento","State":"CA","Zip":"95838","Description":null,"SalesValue":"$575837.32"},
{"NoOfRooms":1,"NoOfBathrooms":1,"SqFeet":6314,"Address1":"03 Rutledge Place","Address2":"Apt 761","City":"San Francisco","State":"CA","Zip":"94159","Description":null,"SalesValue":"$8145313.19"},
{"NoOfRooms":5,"NoOfBathrooms":5,"SqFeet":354,"Address1":"3886 Holy Cross Pass","Address2":"PO Box 59878","City":"Los Angeles","State":"CA","Zip":"90087","Description":null,"SalesValue":"$7941857.43"},
{"NoOfRooms":2,"NoOfBathrooms":1,"SqFeet":8940,"Address1":"14910 Gateway Plaza","Address2":"Apt 629","City":"Escondido","State":"CA","Zip":"92030","Description":null,"SalesValue":"$9665649.56"},
{"NoOfRooms":2,"NoOfBathrooms":5,"SqFeet":5442,"Address1":"74 Burrows Crossing","Address2":"Apt 1591","City":"Long Beach","State":"CA","Zip":"90810","Description":null,"SalesValue":"$1160916.76"},
{"NoOfRooms":2,"NoOfBathrooms":2,"SqFeet":3606,"Address1":"0201 Warner Street","Address2":"Suite 48","City":"Los Angeles","State":"CA","Zip":"90055","Description":null,"SalesValue":"$5849096.78"},
{"NoOfRooms":1,"NoOfBathrooms":1,"SqFeet":161,"Address1":"16 Esch Drive","Address2":"Suite 61","City":"Modesto","State":"CA","Zip":"95397","Description":null,"SalesValue":"$4516769.83"},
{"NoOfRooms":5,"NoOfBathrooms":5,"SqFeet":6445,"Address1":"0564 Hintze Alley","Address2":"Apt 1345","City":"Sacramento","State":"CA","Zip":"94230","Description":null,"SalesValue":"$6160370.25"},
{"NoOfRooms":5,"NoOfBathrooms":5,"SqFeet":6984,"Address1":"523 Graedel Center","Address2":"Suite 26","City":"San Diego","State":"CA","Zip":"92191","Description":null,"SalesValue":"$6971551.60"},
{"NoOfRooms":4,"NoOfBathrooms":5,"SqFeet":6819,"Address1":"98 Algoma Park","Address2":"Apt 300","City":"Fresno","State":"CA","Zip":"93794","Description":null,"SalesValue":"$2094296.42"},
{"NoOfRooms":3,"NoOfBathrooms":2,"SqFeet":932,"Address1":"015 Menomonie Hill","Address2":"Apt 344","City":"Glendale","State":"CA","Zip":"91205","Description":null,"SalesValue":"$4052226.13"},
{"NoOfRooms":2,"NoOfBathrooms":1,"SqFeet":1163,"Address1":"5 Riverside Circle","Address2":"Apt 790","City":"South Lake Tahoe","State":"CA","Zip":"96154","Description":null,"SalesValue":"$9361402.70"},
{"NoOfRooms":3,"NoOfBathrooms":2,"SqFeet":427,"Address1":"38 Harbort Place","Address2":"9th Floor","City":"San Jose","State":"CA","Zip":"95113","Description":null,"SalesValue":"$3176581.29"},
{"NoOfRooms":1,"NoOfBathrooms":3,"SqFeet":9393,"Address1":"83330 Arkansas Terrace","Address2":"PO Box 67673","City":"Whittier","State":"CA","Zip":"90610","Description":null,"SalesValue":"$5018041.40"},
{"NoOfRooms":4,"NoOfBathrooms":3,"SqFeet":7953,"Address1":"37 Transport Park","Address2":"Apt 15","City":"Los Angeles","State":"CA","Zip":"90010","Description":null,"SalesValue":"$8537270.58"},
{"NoOfRooms":1,"NoOfBathrooms":2,"SqFeet":7184,"Address1":"2 Hermina Crossing","Address2":"Suite 70","City":"Long Beach","State":"CA","Zip":"90810","Description":null,"SalesValue":"$7558449.27"},
{"NoOfRooms":3,"NoOfBathrooms":2,"SqFeet":9215,"Address1":"6408 Texas Pass","Address2":"Room 42","City":"Torrance","State":"CA","Zip":"90510","Description":null,"SalesValue":"$7399604.93"},
{"NoOfRooms":5,"NoOfBathrooms":3,"SqFeet":7145,"Address1":"6 Nevada Parkway","Address2":"PO Box 27993","City":"Glendale","State":"CA","Zip":"91205","Description":null,"SalesValue":"$8320472.99"},
{"NoOfRooms":5,"NoOfBathrooms":4,"SqFeet":3692,"Address1":"9 North Street","Address2":"Apt 534","City":"San Francisco","State":"CA","Zip":"94142","Description":null,"SalesValue":"$7703791.02"},
{"NoOfRooms":1,"NoOfBathrooms":1,"SqFeet":2197,"Address1":"457 Norway Maple Center","Address2":"Suite 61","City":"San Francisco","State":"CA","Zip":"94159","Description":null,"SalesValue":"$8123892.34"},
{"NoOfRooms":5,"NoOfBathrooms":5,"SqFeet":7507,"Address1":"37456 Namekagon Park","Address2":"17th Floor","City":"Pomona","State":"CA","Zip":"91797","Description":null,"SalesValue":"$3085413.74"},
{"NoOfRooms":2,"NoOfBathrooms":2,"SqFeet":4056,"Address1":"32 Hansons Plaza","Address2":"3rd Floor","City":"Bakersfield","State":"CA","Zip":"93311","Description":null,"SalesValue":"$5397664.24"},
{"NoOfRooms":3,"NoOfBathrooms":4,"SqFeet":6498,"Address1":"553 Vahlen Park","Address2":"4th Floor","City":"North Hollywood","State":"CA","Zip":"91606","Description":null,"SalesValue":"$2224521.65"},
{"NoOfRooms":1,"NoOfBathrooms":2,"SqFeet":5225,"Address1":"40 Starling Place","Address2":"Apt 88","City":"Fresno","State":"CA","Zip":"93709","Description":null,"SalesValue":"$8452548.74"},
{"NoOfRooms":5,"NoOfBathrooms":5,"SqFeet":3354,"Address1":"3 Lakeland Avenue","Address2":"PO Box 67437","City":"San Mateo","State":"CA","Zip":"94405","Description":null,"SalesValue":"$1924519.02"},
{"NoOfRooms":1,"NoOfBathrooms":4,"SqFeet":3229,"Address1":"6128 Crownhardt Way","Address2":"Suite 47","City":"Fresno","State":"CA","Zip":"93786","Description":null,"SalesValue":"$9519320.41"},
{"NoOfRooms":3,"NoOfBathrooms":1,"SqFeet":3173,"Address1":"0 Jackson Drive","Address2":"PO Box 20627","City":"Santa Monica","State":"CA","Zip":"90410","Description":null,"SalesValue":"$3889196.15"},
{"NoOfRooms":2,"NoOfBathrooms":2,"SqFeet":4694,"Address1":"882 Ludington Park","Address2":"Suite 18","City":"Brea","State":"CA","Zip":"92822","Description":null,"SalesValue":"$4846672.51"},
{"NoOfRooms":4,"NoOfBathrooms":5,"SqFeet":1419,"Address1":"9145 Nancy Trail","Address2":"Apt 1771","City":"Moreno Valley","State":"CA","Zip":"92555","Description":null,"SalesValue":"$7018493.86"},
{"NoOfRooms":3,"NoOfBathrooms":5,"SqFeet":2999,"Address1":"20623 Barby Avenue","Address2":"Suite 80","City":"Palo Alto","State":"CA","Zip":"94302","Description":null,"SalesValue":"$9022414.79"},
{"NoOfRooms":2,"NoOfBathrooms":5,"SqFeet":6741,"Address1":"051 Artisan Avenue","Address2":"PO Box 98022","City":"Modesto","State":"CA","Zip":"95354","Description":null,"SalesValue":"$4147873.97"},
{"NoOfRooms":2,"NoOfBathrooms":5,"SqFeet":8951,"Address1":"13 Ludington Court","Address2":"PO Box 77314","City":"San Bernardino","State":"CA","Zip":"92405","Description":null,"SalesValue":"$1867631.34"},
{"NoOfRooms":3,"NoOfBathrooms":4,"SqFeet":1528,"Address1":"60555 Superior Lane","Address2":"15th Floor","City":"San Francisco","State":"CA","Zip":"94121","Description":null,"SalesValue":"$9325232.53"},
{"NoOfRooms":2,"NoOfBathrooms":1,"SqFeet":4012,"Address1":"1 American Court","Address2":"PO Box 46180","City":"Los Angeles","State":"CA","Zip":"90065","Description":null,"SalesValue":"$6304471.05"},
{"NoOfRooms":3,"NoOfBathrooms":3,"SqFeet":8570,"Address1":"29980 Brentwood Trail","Address2":"Apt 513","City":"Sacramento","State":"CA","Zip":"95852","Description":null,"SalesValue":"$9725576.27"},
{"NoOfRooms":1,"NoOfBathrooms":2,"SqFeet":6408,"Address1":"1804 Roth Plaza","Address2":"Apt 113","City":"San Jose","State":"CA","Zip":"95173","Description":null,"SalesValue":"$8486904.48"},
{"NoOfRooms":1,"NoOfBathrooms":2,"SqFeet":1105,"Address1":"46042 Forest Run Circle","Address2":"Room 830","City":"San Diego","State":"CA","Zip":"92132","Description":null,"SalesValue":"$9791745.76"},
{"NoOfRooms":2,"NoOfBathrooms":1,"SqFeet":6175,"Address1":"37260 Luster Park","Address2":"Room 1891","City":"Sacramento","State":"CA","Zip":"94257","Description":null,"SalesValue":"$4971699.02"},
{"NoOfRooms":3,"NoOfBathrooms":1,"SqFeet":8656,"Address1":"5803 Elka Park","Address2":"PO Box 32773","City":"Corona","State":"CA","Zip":"92883","Description":null,"SalesValue":"$7164490.47"},
{"NoOfRooms":4,"NoOfBathrooms":3,"SqFeet":8275,"Address1":"0026 Dapin Center","Address2":"Apt 111","City":"Los Angeles","State":"CA","Zip":"90101","Description":null,"SalesValue":"$7960162.84"},
{"NoOfRooms":5,"NoOfBathrooms":1,"SqFeet":9103,"Address1":"878 Alpine Parkway","Address2":"Apt 1761","City":"Bakersfield","State":"CA","Zip":"93381","Description":null,"SalesValue":"$6279501.52"},
{"NoOfRooms":2,"NoOfBathrooms":4,"SqFeet":7659,"Address1":"1 Michigan Junction","Address2":"PO Box 83141","City":"Alhambra","State":"CA","Zip":"91841","Description":null,"SalesValue":"$2373990.33"},
{"NoOfRooms":4,"NoOfBathrooms":4,"SqFeet":9319,"Address1":"686 Riverside Junction","Address2":"Suite 35","City":"Chico","State":"CA","Zip":"95973","Description":null,"SalesValue":"$4780255.89"},
{"NoOfRooms":4,"NoOfBathrooms":2,"SqFeet":1957,"Address1":"905 Tony Drive","Address2":"18th Floor","City":"Visalia","State":"CA","Zip":"93291","Description":null,"SalesValue":"$5577044.72"},
{"NoOfRooms":2,"NoOfBathrooms":4,"SqFeet":7513,"Address1":"15287 Thackeray Circle","Address2":"Apt 145","City":"Los Angeles","State":"CA","Zip":"90030","Description":null,"SalesValue":"$534886.63"},
{"NoOfRooms":4,"NoOfBathrooms":4,"SqFeet":7608,"Address1":"770 Buhler Hill","Address2":"Suite 45","City":"Santa Rosa","State":"CA","Zip":"95405","Description":null,"SalesValue":"$5591945.84"},
{"NoOfRooms":2,"NoOfBathrooms":3,"SqFeet":919,"Address1":"02588 Delladonna Road","Address2":"Apt 22","City":"Berkeley","State":"CA","Zip":"94712","Description":null,"SalesValue":"$3072604.61"},
{"NoOfRooms":4,"NoOfBathrooms":2,"SqFeet":8231,"Address1":"6 Warbler Crossing","Address2":"Apt 1661","City":"San Francisco","State":"CA","Zip":"94132","Description":null,"SalesValue":"$9726176.45"},
{"NoOfRooms":2,"NoOfBathrooms":1,"SqFeet":8927,"Address1":"994 Melby Parkway","Address2":"Apt 1658","City":"Los Angeles","State":"CA","Zip":"90015","Description":null,"SalesValue":"$8411922.98"},
{"NoOfRooms":4,"NoOfBathrooms":5,"SqFeet":2213,"Address1":"7020 Clemons Pass","Address2":"3rd Floor","City":"San Diego","State":"CA","Zip":"92170","Description":null,"SalesValue":"$3416645.47"},
{"NoOfRooms":2,"NoOfBathrooms":3,"SqFeet":3314,"Address1":"3704 Sauthoff Crossing","Address2":"Room 114","City":"Fresno","State":"CA","Zip":"93786","Description":null,"SalesValue":"$2063020.62"},
{"NoOfRooms":4,"NoOfBathrooms":3,"SqFeet":4594,"Address1":"63 Butterfield Park","Address2":"Room 513","City":"Santa Monica","State":"CA","Zip":"90405","Description":null,"SalesValue":"$5535109.29"},
{"NoOfRooms":5,"NoOfBathrooms":3,"SqFeet":8777,"Address1":"3928 Dwight Junction","Address2":"Apt 1885","City":"Santa Barbara","State":"CA","Zip":"93111","Description":null,"SalesValue":"$1061625.77"},
{"NoOfRooms":1,"NoOfBathrooms":1,"SqFeet":7950,"Address1":"9 Mandrake Road","Address2":"4th Floor","City":"Oakland","State":"CA","Zip":"94605","Description":null,"SalesValue":"$1474122.82"},
{"NoOfRooms":3,"NoOfBathrooms":1,"SqFeet":3529,"Address1":"7785 Bonner Park","Address2":"PO Box 12723","City":"Fresno","State":"CA","Zip":"93715","Description":null,"SalesValue":"$3670445.57"},
{"NoOfRooms":5,"NoOfBathrooms":3,"SqFeet":3790,"Address1":"01 Cherokee Court","Address2":"PO Box 19557","City":"Sacramento","State":"CA","Zip":"94280","Description":null,"SalesValue":"$8882229.67"},
{"NoOfRooms":5,"NoOfBathrooms":3,"SqFeet":8804,"Address1":"51861 Brown Street","Address2":"Apt 59","City":"San Francisco","State":"CA","Zip":"94121","Description":null,"SalesValue":"$6124965.82"},
{"NoOfRooms":1,"NoOfBathrooms":4,"SqFeet":7218,"Address1":"3 Calypso Parkway","Address2":"PO Box 22609","City":"San Diego","State":"CA","Zip":"92132","Description":null,"SalesValue":"$3378033.49"},
{"NoOfRooms":1,"NoOfBathrooms":2,"SqFeet":1354,"Address1":"18 Norway Maple Way","Address2":"16th Floor","City":"San Francisco","State":"CA","Zip":"94154","Description":null,"SalesValue":"$8002335.37"},
{"NoOfRooms":4,"NoOfBathrooms":2,"SqFeet":4171,"Address1":"01 Merrick Trail","Address2":"Apt 540","City":"San Diego","State":"CA","Zip":"92127","Description":null,"SalesValue":"$6803719.72"},
{"NoOfRooms":2,"NoOfBathrooms":2,"SqFeet":5708,"Address1":"134 Westport Park","Address2":"Suite 37","City":"North Hollywood","State":"CA","Zip":"91616","Description":null,"SalesValue":"$1220703.10"},
{"NoOfRooms":5,"NoOfBathrooms":5,"SqFeet":2182,"Address1":"3 Arrowood Terrace","Address2":"PO Box 93511","City":"Fresno","State":"CA","Zip":"93794","Description":null,"SalesValue":"$7171818.86"},
{"NoOfRooms":5,"NoOfBathrooms":4,"SqFeet":6036,"Address1":"7883 Karstens Center","Address2":"Room 896","City":"San Jose","State":"CA","Zip":"95133","Description":null,"SalesValue":"$4746009.21"},
{"NoOfRooms":4,"NoOfBathrooms":5,"SqFeet":3981,"Address1":"27562 Colorado Point","Address2":"PO Box 5735","City":"Lancaster","State":"CA","Zip":"93584","Description":null,"SalesValue":"$1815924.29"},
{"NoOfRooms":3,"NoOfBathrooms":5,"SqFeet":8947,"Address1":"0 Sachtjen Court","Address2":"Apt 522","City":"Stockton","State":"CA","Zip":"95298","Description":null,"SalesValue":"$2443591.17"},
{"NoOfRooms":1,"NoOfBathrooms":5,"SqFeet":5213,"Address1":"0949 American Place","Address2":"Apt 775","City":"Los Angeles","State":"CA","Zip":"90040","Description":null,"SalesValue":"$5934466.05"},
{"NoOfRooms":4,"NoOfBathrooms":1,"SqFeet":2995,"Address1":"86 Hooker Lane","Address2":"Room 748","City":"Sacramento","State":"CA","Zip":"95823","Description":null,"SalesValue":"$7321814.39"},
{"NoOfRooms":1,"NoOfBathrooms":5,"SqFeet":897,"Address1":"8 Spaight Terrace","Address2":"2nd Floor","City":"Sacramento","State":"CA","Zip":"94273","Description":null,"SalesValue":"$7736061.58"},
{"NoOfRooms":3,"NoOfBathrooms":4,"SqFeet":6835,"Address1":"609 Hoepker Pass","Address2":"Apt 1075","City":"Sacramento","State":"CA","Zip":"95828","Description":null,"SalesValue":"$4095707.05"},
{"NoOfRooms":1,"NoOfBathrooms":5,"SqFeet":1955,"Address1":"300 Old Shore Alley","Address2":"Suite 7","City":"Los Angeles","State":"CA","Zip":"90101","Description":null,"SalesValue":"$5672458.15"},
{"NoOfRooms":4,"NoOfBathrooms":1,"SqFeet":3573,"Address1":"34514 Badeau Park","Address2":"PO Box 35656","City":"Los Angeles","State":"CA","Zip":"90081","Description":null,"SalesValue":"$8195403.05"},
{"NoOfRooms":2,"NoOfBathrooms":2,"SqFeet":4830,"Address1":"788 American Ash Avenue","Address2":"4th Floor","City":"Alhambra","State":"CA","Zip":"91841","Description":null,"SalesValue":"$6980266.64"},
{"NoOfRooms":1,"NoOfBathrooms":5,"SqFeet":7368,"Address1":"52 Alpine Alley","Address2":"17th Floor","City":"Glendale","State":"CA","Zip":"91210","Description":null,"SalesValue":"$6876180.57"},
{"NoOfRooms":3,"NoOfBathrooms":1,"SqFeet":6128,"Address1":"4836 Bluejay Pass","Address2":"6th Floor","City":"Whittier","State":"CA","Zip":"90610","Description":null,"SalesValue":"$2957475.11"},
{"NoOfRooms":3,"NoOfBathrooms":3,"SqFeet":6150,"Address1":"7 Forest Dale Pass","Address2":"Room 1415","City":"Santa Barbara","State":"CA","Zip":"93150","Description":null,"SalesValue":"$5766860.46"},
{"NoOfRooms":3,"NoOfBathrooms":1,"SqFeet":3910,"Address1":"5095 Comanche Place","Address2":"16th Floor","City":"Los Angeles","State":"CA","Zip":"90060","Description":null,"SalesValue":"$8959051.27"},
{"NoOfRooms":5,"NoOfBathrooms":5,"SqFeet":6222,"Address1":"241 Northview Trail","Address2":"Suite 12","City":"Oxnard","State":"CA","Zip":"93034","Description":null,"SalesValue":"$9971791.66"},
{"NoOfRooms":4,"NoOfBathrooms":1,"SqFeet":7791,"Address1":"74989 Anzinger Drive","Address2":"Room 1384","City":"San Jose","State":"CA","Zip":"95194","Description":null,"SalesValue":"$2019625.30"},
{"NoOfRooms":1,"NoOfBathrooms":2,"SqFeet":185,"Address1":"2269 Rockefeller Lane","Address2":"PO Box 47232","City":"Sacramento","State":"CA","Zip":"94291","Description":null,"SalesValue":"$8139198.08"},
{"NoOfRooms":3,"NoOfBathrooms":3,"SqFeet":3168,"Address1":"436 Center Terrace","Address2":"Apt 1820","City":"Santa Clara","State":"CA","Zip":"95054","Description":null,"SalesValue":"$746043.81"},
{"NoOfRooms":3,"NoOfBathrooms":2,"SqFeet":8683,"Address1":"3 Di Loreto Road","Address2":"Room 1472","City":"Anaheim","State":"CA","Zip":"92825","Description":null,"SalesValue":"$4085810.28"},
{"NoOfRooms":2,"NoOfBathrooms":4,"SqFeet":729,"Address1":"96 Dapin Court","Address2":"16th Floor","City":"Chico","State":"CA","Zip":"95973","Description":null,"SalesValue":"$5505464.21"},
{"NoOfRooms":2,"NoOfBathrooms":2,"SqFeet":837,"Address1":"7831 Grover Circle","Address2":"10th Floor","City":"San Jose","State":"CA","Zip":"95160","Description":null,"SalesValue":"$6336733.94"},
{"NoOfRooms":4,"NoOfBathrooms":4,"SqFeet":6229,"Address1":"5796 Melby Street","Address2":"14th Floor","City":"Sacramento","State":"CA","Zip":"95818","Description":null,"SalesValue":"$7975890.30"},
{"NoOfRooms":2,"NoOfBathrooms":3,"SqFeet":747,"Address1":"4355 Kennedy Place","Address2":"Suite 52","City":"Sacramento","State":"CA","Zip":"94273","Description":null,"SalesValue":"$8402552.22"},
{"NoOfRooms":5,"NoOfBathrooms":4,"SqFeet":610,"Address1":"8901 Oak Valley Hill","Address2":"PO Box 69802","City":"Pomona","State":"CA","Zip":"91797","Description":null,"SalesValue":"$2479832.16"},
{"NoOfRooms":3,"NoOfBathrooms":4,"SqFeet":2038,"Address1":"7034 Upham Plaza","Address2":"Apt 604","City":"San Diego","State":"CA","Zip":"92186","Description":null,"SalesValue":"$6050279.21"},
{"NoOfRooms":3,"NoOfBathrooms":5,"SqFeet":5065,"Address1":"43 Meadow Vale Way","Address2":"Suite 61","City":"Redwood City","State":"CA","Zip":"94064","Description":null,"SalesValue":"$4054498.19"},
{"NoOfRooms":3,"NoOfBathrooms":4,"SqFeet":3547,"Address1":"270 Ronald Regan Junction","Address2":"12th Floor","City":"Los Angeles","State":"CA","Zip":"90055","Description":null,"SalesValue":"$3489955.91"},
{"NoOfRooms":3,"NoOfBathrooms":3,"SqFeet":4534,"Address1":"1447 Glendale Junction","Address2":"12th Floor","City":"Los Angeles","State":"CA","Zip":"90010","Description":null,"SalesValue":"$7742213.62"},
{"NoOfRooms":2,"NoOfBathrooms":4,"SqFeet":6995,"Address1":"0870 Dennis Circle","Address2":"Suite 35","City":"Torrance","State":"CA","Zip":"90505","Description":null,"SalesValue":"$3302961.94"},
{"NoOfRooms":2,"NoOfBathrooms":2,"SqFeet":9954,"Address1":"625 Springview Terrace","Address2":"Apt 1899","City":"Inglewood","State":"CA","Zip":"90305","Description":null,"SalesValue":"$1965169.98"},
{"NoOfRooms":3,"NoOfBathrooms":1,"SqFeet":9580,"Address1":"97603 Monterey Terrace","Address2":"4th Floor","City":"Sunnyvale","State":"CA","Zip":"94089","Description":null,"SalesValue":"$4888971.48"},
{"NoOfRooms":4,"NoOfBathrooms":4,"SqFeet":7751,"Address1":"5112 Everett Street","Address2":"Suite 78","City":"San Diego","State":"CA","Zip":"92170","Description":null,"SalesValue":"$5639827.39"},
{"NoOfRooms":2,"NoOfBathrooms":3,"SqFeet":2735,"Address1":"147 Elka Point","Address2":"5th Floor","City":"Corona","State":"CA","Zip":"92883","Description":null,"SalesValue":"$6028596.72"},
{"NoOfRooms":3,"NoOfBathrooms":1,"SqFeet":435,"Address1":"9299 Heffernan Circle","Address2":"Suite 93","City":"Huntington Beach","State":"CA","Zip":"92648","Description":null,"SalesValue":"$1666443.27"},
{"NoOfRooms":5,"NoOfBathrooms":1,"SqFeet":5497,"Address1":"1 Ryan Alley","Address2":"PO Box 95792","City":"Los Angeles","State":"CA","Zip":"90055","Description":null,"SalesValue":"$1656432.74"},
{"NoOfRooms":2,"NoOfBathrooms":4,"SqFeet":233,"Address1":"106 Shoshone Hill","Address2":"PO Box 30819","City":"Santa Barbara","State":"CA","Zip":"93150","Description":null,"SalesValue":"$7171287.63"},
{"NoOfRooms":3,"NoOfBathrooms":3,"SqFeet":9817,"Address1":"496 Roth Parkway","Address2":"Suite 62","City":"Fresno","State":"CA","Zip":"93740","Description":null,"SalesValue":"$7507950.91"},
{"NoOfRooms":2,"NoOfBathrooms":3,"SqFeet":8717,"Address1":"68021 Kim Point","Address2":"Suite 9","City":"Garden Grove","State":"CA","Zip":"92645","Description":null,"SalesValue":"$7621117.84"},
{"NoOfRooms":3,"NoOfBathrooms":1,"SqFeet":3147,"Address1":"0 Blaine Junction","Address2":"Room 829","City":"Sacramento","State":"CA","Zip":"94286","Description":null,"SalesValue":"$8218406.91"},
{"NoOfRooms":2,"NoOfBathrooms":4,"SqFeet":6192,"Address1":"00780 Lyons Court","Address2":"Apt 396","City":"North Hollywood","State":"CA","Zip":"91616","Description":null,"SalesValue":"$8972867.21"},
{"NoOfRooms":1,"NoOfBathrooms":1,"SqFeet":4024,"Address1":"3 Jenifer Street","Address2":"Room 1906","City":"Fresno","State":"CA","Zip":"93762","Description":null,"SalesValue":"$7168058.71"},
{"NoOfRooms":1,"NoOfBathrooms":4,"SqFeet":952,"Address1":"0351 Center Hill","Address2":"Suite 31","City":"Santa Barbara","State":"CA","Zip":"93150","Description":null,"SalesValue":"$2127375.48"},
{"NoOfRooms":5,"NoOfBathrooms":1,"SqFeet":113,"Address1":"198 Harper Circle","Address2":"PO Box 92539","City":"San Jose","State":"CA","Zip":"95160","Description":null,"SalesValue":"$2519713.81"},
{"NoOfRooms":3,"NoOfBathrooms":4,"SqFeet":1597,"Address1":"75 Shelley Avenue","Address2":"16th Floor","City":"San Diego","State":"CA","Zip":"92105","Description":null,"SalesValue":"$2386829.59"},
{"NoOfRooms":1,"NoOfBathrooms":4,"SqFeet":6378,"Address1":"61 Anniversary Junction","Address2":"Room 1507","City":"Whittier","State":"CA","Zip":"90610","Description":null,"SalesValue":"$4289287.94"},
{"NoOfRooms":2,"NoOfBathrooms":4,"SqFeet":8005,"Address1":"0372 Kennedy Parkway","Address2":"15th Floor","City":"San Diego","State":"CA","Zip":"92137","Description":null,"SalesValue":"$4263201.87"},
{"NoOfRooms":1,"NoOfBathrooms":5,"SqFeet":9443,"Address1":"88909 Cody Junction","Address2":"PO Box 41021","City":"Pasadena","State":"CA","Zip":"91199","Description":null,"SalesValue":"$3350916.79"},
{"NoOfRooms":5,"NoOfBathrooms":1,"SqFeet":3914,"Address1":"38 Charing Cross Circle","Address2":"Room 1040","City":"Sacramento","State":"CA","Zip":"95828","Description":null,"SalesValue":"$1129788.28"},
{"NoOfRooms":2,"NoOfBathrooms":4,"SqFeet":6086,"Address1":"7 Judy Road","Address2":"PO Box 34152","City":"Pasadena","State":"CA","Zip":"91131","Description":null,"SalesValue":"$9930209.34"},
{"NoOfRooms":4,"NoOfBathrooms":1,"SqFeet":2233,"Address1":"39109 Holy Cross Terrace","Address2":"Room 9","City":"Fresno","State":"CA","Zip":"93778","Description":null,"SalesValue":"$5832876.61"},
{"NoOfRooms":4,"NoOfBathrooms":1,"SqFeet":5920,"Address1":"9 Reindahl Place","Address2":"PO Box 47384","City":"San Diego","State":"CA","Zip":"92145","Description":null,"SalesValue":"$3966205.82"},
{"NoOfRooms":4,"NoOfBathrooms":3,"SqFeet":7619,"Address1":"90 Chive Drive","Address2":"Suite 6","City":"Los Angeles","State":"CA","Zip":"90071","Description":null,"SalesValue":"$6675700.57"},
{"NoOfRooms":3,"NoOfBathrooms":2,"SqFeet":367,"Address1":"22217 Texas Hill","Address2":"Suite 94","City":"San Diego","State":"CA","Zip":"92176","Description":null,"SalesValue":"$5838965.76"},
{"NoOfRooms":1,"NoOfBathrooms":2,"SqFeet":3832,"Address1":"7232 Calypso Plaza","Address2":"4th Floor","City":"Santa Ana","State":"CA","Zip":"92725","Description":null,"SalesValue":"$8767129.51"},
{"NoOfRooms":5,"NoOfBathrooms":1,"SqFeet":680,"Address1":"3739 Dryden Road","Address2":"PO Box 94331","City":"San Francisco","State":"CA","Zip":"94169","Description":null,"SalesValue":"$6971024.86"},
{"NoOfRooms":3,"NoOfBathrooms":2,"SqFeet":5185,"Address1":"11198 Packers Trail","Address2":"Room 1737","City":"Newport Beach","State":"CA","Zip":"92662","Description":null,"SalesValue":"$8509534.35"},
{"NoOfRooms":5,"NoOfBathrooms":4,"SqFeet":5587,"Address1":"2918 Lotheville Road","Address2":"Apt 1970","City":"Los Angeles","State":"CA","Zip":"90025","Description":null,"SalesValue":"$3175634.14"},
{"NoOfRooms":5,"NoOfBathrooms":4,"SqFeet":7093,"Address1":"77871 Golden Leaf Park","Address2":"Room 432","City":"Petaluma","State":"CA","Zip":"94975","Description":null,"SalesValue":"$2085339.14"},
{"NoOfRooms":3,"NoOfBathrooms":1,"SqFeet":8237,"Address1":"9 Rowland Drive","Address2":"Apt 1038","City":"Pasadena","State":"CA","Zip":"91103","Description":null,"SalesValue":"$7830777.61"},
{"NoOfRooms":4,"NoOfBathrooms":4,"SqFeet":2806,"Address1":"2 Forest Alley","Address2":"9th Floor","City":"Berkeley","State":"CA","Zip":"94712","Description":null,"SalesValue":"$3510136.53"},
{"NoOfRooms":4,"NoOfBathrooms":1,"SqFeet":2123,"Address1":"11705 Brown Center","Address2":"Suite 17","City":"Sacramento","State":"CA","Zip":"94263","Description":null,"SalesValue":"$2874121.38"},
{"NoOfRooms":2,"NoOfBathrooms":2,"SqFeet":3805,"Address1":"4977 Transport Road","Address2":"Room 1266","City":"Fresno","State":"CA","Zip":"93778","Description":null,"SalesValue":"$4709457.50"},
{"NoOfRooms":5,"NoOfBathrooms":3,"SqFeet":894,"Address1":"396 Merry Trail","Address2":"Room 1277","City":"Sacramento","State":"CA","Zip":"94230","Description":null,"SalesValue":"$6759704.52"},
{"NoOfRooms":3,"NoOfBathrooms":2,"SqFeet":3052,"Address1":"42 Drewry Park","Address2":"1st Floor","City":"Garden Grove","State":"CA","Zip":"92844","Description":null,"SalesValue":"$5491761.80"},
{"NoOfRooms":3,"NoOfBathrooms":3,"SqFeet":2797,"Address1":"75 Myrtle Plaza","Address2":"Room 506","City":"Escondido","State":"CA","Zip":"92030","Description":null,"SalesValue":"$4751821.40"},
{"NoOfRooms":1,"NoOfBathrooms":5,"SqFeet":2391,"Address1":"99863 Hagan Place","Address2":"9th Floor","City":"Sacramento","State":"CA","Zip":"95823","Description":null,"SalesValue":"$8134103.57"},
{"NoOfRooms":1,"NoOfBathrooms":5,"SqFeet":3674,"Address1":"17426 Claremont Street","Address2":"Room 397","City":"Oxnard","State":"CA","Zip":"93034","Description":null,"SalesValue":"$9461028.51"},
{"NoOfRooms":2,"NoOfBathrooms":4,"SqFeet":4890,"Address1":"8 La Follette Place","Address2":"PO Box 29597","City":"Sacramento","State":"CA","Zip":"94280","Description":null,"SalesValue":"$4538473.52"},
{"NoOfRooms":2,"NoOfBathrooms":3,"SqFeet":2415,"Address1":"05475 Delladonna Way","Address2":"Suite 60","City":"Fresno","State":"CA","Zip":"93750","Description":null,"SalesValue":"$2374485.03"},
{"NoOfRooms":4,"NoOfBathrooms":5,"SqFeet":8974,"Address1":"58389 Meadow Valley Parkway","Address2":"Apt 263","City":"San Francisco","State":"CA","Zip":"94177","Description":null,"SalesValue":"$8741967.07"},
{"NoOfRooms":5,"NoOfBathrooms":1,"SqFeet":5830,"Address1":"0642 Bowman Road","Address2":"Suite 77","City":"Burbank","State":"CA","Zip":"91505","Description":null,"SalesValue":"$8677699.01"},
{"NoOfRooms":5,"NoOfBathrooms":2,"SqFeet":8952,"Address1":"3 Forest Alley","Address2":"Suite 80","City":"Los Angeles","State":"CA","Zip":"90060","Description":null,"SalesValue":"$3384851.08"},
{"NoOfRooms":1,"NoOfBathrooms":4,"SqFeet":2455,"Address1":"2 American Ash Drive","Address2":"Apt 1175","City":"Long Beach","State":"CA","Zip":"90847","Description":null,"SalesValue":"$4365102.17"},
{"NoOfRooms":4,"NoOfBathrooms":1,"SqFeet":748,"Address1":"7 Dapin Drive","Address2":"Room 1474","City":"Los Angeles","State":"CA","Zip":"90081","Description":null,"SalesValue":"$8499346.04"},
{"NoOfRooms":1,"NoOfBathrooms":1,"SqFeet":4580,"Address1":"57580 Bobwhite Park","Address2":"PO Box 19760","City":"Los Angeles","State":"CA","Zip":"90015","Description":null,"SalesValue":"$3213932.97"},
{"NoOfRooms":3,"NoOfBathrooms":3,"SqFeet":6633,"Address1":"4193 Vernon Parkway","Address2":"Room 1148","City":"Sacramento","State":"CA","Zip":"95838","Description":null,"SalesValue":"$9190004.90"},
{"NoOfRooms":4,"NoOfBathrooms":4,"SqFeet":5396,"Address1":"8883 Blue Bill Park Park","Address2":"Apt 187","City":"Sacramento","State":"CA","Zip":"94291","Description":null,"SalesValue":"$9229712.97"},
{"NoOfRooms":3,"NoOfBathrooms":5,"SqFeet":5368,"Address1":"824 Arrowood Place","Address2":"Apt 574","City":"Sacramento","State":"CA","Zip":"94273","Description":null,"SalesValue":"$1089406.47"},
{"NoOfRooms":2,"NoOfBathrooms":4,"SqFeet":9198,"Address1":"3760 Bartillon Park","Address2":"PO Box 39928","City":"Los Angeles","State":"CA","Zip":"90015","Description":null,"SalesValue":"$4264835.62"},
{"NoOfRooms":2,"NoOfBathrooms":2,"SqFeet":1020,"Address1":"1678 Tony Parkway","Address2":"Suite 25","City":"San Francisco","State":"CA","Zip":"94121","Description":null,"SalesValue":"$8348318.82"},
{"NoOfRooms":1,"NoOfBathrooms":2,"SqFeet":8339,"Address1":"81 Sunnyside Lane","Address2":"PO Box 87975","City":"Palmdale","State":"CA","Zip":"93591","Description":null,"SalesValue":"$6850578.77"},
{"NoOfRooms":2,"NoOfBathrooms":4,"SqFeet":5776,"Address1":"148 Scofield Park","Address2":"Room 1127","City":"San Francisco","State":"CA","Zip":"94164","Description":null,"SalesValue":"$7866835.70"},
{"NoOfRooms":3,"NoOfBathrooms":1,"SqFeet":4935,"Address1":"6 Karstens Pass","Address2":"5th Floor","City":"Sacramento","State":"CA","Zip":"94230","Description":null,"SalesValue":"$1124346.10"},
{"NoOfRooms":5,"NoOfBathrooms":1,"SqFeet":2138,"Address1":"7607 Everett Drive","Address2":"Room 1429","City":"Van Nuys","State":"CA","Zip":"91406","Description":null,"SalesValue":"$1094595.24"},
{"NoOfRooms":3,"NoOfBathrooms":2,"SqFeet":5632,"Address1":"9513 Bluestem Plaza","Address2":"Suite 77","City":"Sacramento","State":"CA","Zip":"94297","Description":null,"SalesValue":"$4831911.23"},
{"NoOfRooms":5,"NoOfBathrooms":5,"SqFeet":7793,"Address1":"1 Killdeer Way","Address2":"PO Box 54926","City":"Los Angeles","State":"CA","Zip":"90101","Description":null,"SalesValue":"$8083763.32"},
{"NoOfRooms":3,"NoOfBathrooms":1,"SqFeet":4969,"Address1":"870 Merry Pass","Address2":"Room 1240","City":"Irvine","State":"CA","Zip":"92717","Description":null,"SalesValue":"$1207953.77"},
{"NoOfRooms":3,"NoOfBathrooms":2,"SqFeet":9487,"Address1":"62513 Beilfuss Way","Address2":"Suite 94","City":"Sunnyvale","State":"CA","Zip":"94089","Description":null,"SalesValue":"$4693428.86"},
{"NoOfRooms":4,"NoOfBathrooms":5,"SqFeet":1427,"Address1":"4 Bellgrove Terrace","Address2":"Suite 89","City":"Sacramento","State":"CA","Zip":"95828","Description":null,"SalesValue":"$2782566.03"},
{"NoOfRooms":2,"NoOfBathrooms":5,"SqFeet":9611,"Address1":"3653 Nova Parkway","Address2":"Apt 242","City":"Van Nuys","State":"CA","Zip":"91499","Description":null,"SalesValue":"$1762638.54"},
{"NoOfRooms":4,"NoOfBathrooms":3,"SqFeet":2201,"Address1":"1 Maple Crossing","Address2":"Room 1931","City":"Palo Alto","State":"CA","Zip":"94302","Description":null,"SalesValue":"$7168262.75"},
{"NoOfRooms":5,"NoOfBathrooms":2,"SqFeet":6291,"Address1":"1 Fordem Court","Address2":"Suite 25","City":"San Francisco","State":"CA","Zip":"94137","Description":null,"SalesValue":"$3188961.10"},
{"NoOfRooms":2,"NoOfBathrooms":3,"SqFeet":4941,"Address1":"83841 Parkside Avenue","Address2":"PO Box 289","City":"San Diego","State":"CA","Zip":"92127","Description":null,"SalesValue":"$3863924.72"},
{"NoOfRooms":4,"NoOfBathrooms":1,"SqFeet":3647,"Address1":"2 Londonderry Place","Address2":"Apt 377","City":"Bakersfield","State":"CA","Zip":"93311","Description":null,"SalesValue":"$2768823.31"},
{"NoOfRooms":5,"NoOfBathrooms":5,"SqFeet":8793,"Address1":"0595 Anthes Alley","Address2":"PO Box 92700","City":"Fresno","State":"CA","Zip":"93762","Description":null,"SalesValue":"$9038833.68"},
{"NoOfRooms":2,"NoOfBathrooms":2,"SqFeet":7498,"Address1":"43904 Sommers Terrace","Address2":"Apt 724","City":"San Diego","State":"CA","Zip":"92196","Description":null,"SalesValue":"$1582768.85"},
{"NoOfRooms":5,"NoOfBathrooms":2,"SqFeet":7519,"Address1":"067 Russell Point","Address2":"PO Box 88115","City":"Bakersfield","State":"CA","Zip":"93386","Description":null,"SalesValue":"$531661.61"},
{"NoOfRooms":3,"NoOfBathrooms":3,"SqFeet":6719,"Address1":"7 Katie Crossing","Address2":"PO Box 42368","City":"Los Angeles","State":"CA","Zip":"90030","Description":null,"SalesValue":"$5861068.65"},
{"NoOfRooms":4,"NoOfBathrooms":4,"SqFeet":368,"Address1":"86269 Pond Junction","Address2":"13th Floor","City":"Sacramento","State":"CA","Zip":"95833","Description":null,"SalesValue":"$2245569.06"},
{"NoOfRooms":4,"NoOfBathrooms":1,"SqFeet":2396,"Address1":"791 American Ash Hill","Address2":"Apt 1180","City":"Pasadena","State":"CA","Zip":"91109","Description":null,"SalesValue":"$1536749.68"},
{"NoOfRooms":3,"NoOfBathrooms":4,"SqFeet":340,"Address1":"30 Rusk Junction","Address2":"15th Floor","City":"Anaheim","State":"CA","Zip":"92825","Description":null,"SalesValue":"$3249767.47"},
{"NoOfRooms":3,"NoOfBathrooms":1,"SqFeet":3143,"Address1":"713 Killdeer Lane","Address2":"Suite 34","City":"Bakersfield","State":"CA","Zip":"93386","Description":null,"SalesValue":"$7268710.14"},
{"NoOfRooms":5,"NoOfBathrooms":4,"SqFeet":6987,"Address1":"08057 Saint Paul Avenue","Address2":"7th Floor","City":"San Diego","State":"CA","Zip":"92160","Description":null,"SalesValue":"$1246545.15"},
{"NoOfRooms":3,"NoOfBathrooms":4,"SqFeet":2339,"Address1":"6 Vidon Drive","Address2":"Suite 73","City":"Los Angeles","State":"CA","Zip":"90010","Description":null,"SalesValue":"$2844558.76"},
{"NoOfRooms":1,"NoOfBathrooms":5,"SqFeet":4316,"Address1":"7 Surrey Way","Address2":"Room 349","City":"San Mateo","State":"CA","Zip":"94405","Description":null,"SalesValue":"$5960348.05"},
{"NoOfRooms":4,"NoOfBathrooms":1,"SqFeet":8046,"Address1":"840 Dawn Place","Address2":"PO Box 70794","City":"Fresno","State":"CA","Zip":"93762","Description":null,"SalesValue":"$2920963.16"},
{"NoOfRooms":2,"NoOfBathrooms":5,"SqFeet":5739,"Address1":"668 Lakewood Road","Address2":"Apt 303","City":"Carlsbad","State":"CA","Zip":"92013","Description":null,"SalesValue":"$6553867.08"},
{"NoOfRooms":2,"NoOfBathrooms":3,"SqFeet":8801,"Address1":"536 Heffernan Road","Address2":"10th Floor","City":"Van Nuys","State":"CA","Zip":"91411","Description":null,"SalesValue":"$4336004.97"},
{"NoOfRooms":3,"NoOfBathrooms":5,"SqFeet":4566,"Address1":"2785 Maryland Circle","Address2":"Room 1156","City":"Torrance","State":"CA","Zip":"90510","Description":null,"SalesValue":"$6741316.85"},
{"NoOfRooms":3,"NoOfBathrooms":1,"SqFeet":6356,"Address1":"90 Johnson Parkway","Address2":"PO Box 59297","City":"Long Beach","State":"CA","Zip":"90840","Description":null,"SalesValue":"$5176635.07"},
{"NoOfRooms":1,"NoOfBathrooms":4,"SqFeet":9366,"Address1":"26723 Arizona Circle","Address2":"9th Floor","City":"Alhambra","State":"CA","Zip":"91841","Description":null,"SalesValue":"$4579142.42"},
{"NoOfRooms":3,"NoOfBathrooms":1,"SqFeet":1179,"Address1":"89406 Crescent Oaks Road","Address2":"13th Floor","City":"Pasadena","State":"CA","Zip":"91117","Description":null,"SalesValue":"$8581041.95"},
{"NoOfRooms":1,"NoOfBathrooms":2,"SqFeet":828,"Address1":"78251 Bluejay Parkway","Address2":"8th Floor","City":"Whittier","State":"CA","Zip":"90605","Description":null,"SalesValue":"$5234950.34"},
{"NoOfRooms":3,"NoOfBathrooms":5,"SqFeet":9129,"Address1":"34 Butternut Street","Address2":"PO Box 7579","City":"Huntington Beach","State":"CA","Zip":"92648","Description":null,"SalesValue":"$7458448.52"},
{"NoOfRooms":3,"NoOfBathrooms":1,"SqFeet":8530,"Address1":"16949 Raven Place","Address2":"Apt 1224","City":"South Lake Tahoe","State":"CA","Zip":"96154","Description":null,"SalesValue":"$4679565.25"},
{"NoOfRooms":3,"NoOfBathrooms":1,"SqFeet":3294,"Address1":"9471 Florence Drive","Address2":"Suite 4","City":"Berkeley","State":"CA","Zip":"94712","Description":null,"SalesValue":"$8056366.63"},
{"NoOfRooms":1,"NoOfBathrooms":4,"SqFeet":8533,"Address1":"790 Sachs Road","Address2":"Apt 1492","City":"Mountain View","State":"CA","Zip":"94042","Description":null,"SalesValue":"$9467934.34"},
{"NoOfRooms":3,"NoOfBathrooms":3,"SqFeet":5337,"Address1":"777 Katie Way","Address2":"Apt 1923","City":"Corona","State":"CA","Zip":"92878","Description":null,"SalesValue":"$1877967.23"},
{"NoOfRooms":2,"NoOfBathrooms":2,"SqFeet":6853,"Address1":"385 Autumn Leaf Junction","Address2":"5th Floor","City":"Pasadena","State":"CA","Zip":"91103","Description":null,"SalesValue":"$9191926.21"},
{"NoOfRooms":5,"NoOfBathrooms":3,"SqFeet":5675,"Address1":"45 Northridge Drive","Address2":"9th Floor","City":"Sacramento","State":"CA","Zip":"94257","Description":null,"SalesValue":"$4287336.79"},
{"NoOfRooms":5,"NoOfBathrooms":1,"SqFeet":5710,"Address1":"724 Dottie Road","Address2":"8th Floor","City":"Burbank","State":"CA","Zip":"91505","Description":null,"SalesValue":"$1809645.29"},
{"NoOfRooms":2,"NoOfBathrooms":2,"SqFeet":1436,"Address1":"25612 Macpherson Trail","Address2":"20th Floor","City":"Sacramento","State":"CA","Zip":"94280","Description":null,"SalesValue":"$3789772.54"},
{"NoOfRooms":1,"NoOfBathrooms":2,"SqFeet":7233,"Address1":"5 Huxley Trail","Address2":"PO Box 62082","City":"Los Angeles","State":"CA","Zip":"90050","Description":null,"SalesValue":"$1553243.51"},
{"NoOfRooms":5,"NoOfBathrooms":3,"SqFeet":6736,"Address1":"688 Saint Paul Center","Address2":"Apt 291","City":"San Diego","State":"CA","Zip":"92165","Description":null,"SalesValue":"$2695203.95"},
{"NoOfRooms":5,"NoOfBathrooms":3,"SqFeet":8410,"Address1":"72899 Milwaukee Circle","Address2":"Apt 1133","City":"Long Beach","State":"CA","Zip":"90840","Description":null,"SalesValue":"$3575425.78"},
{"NoOfRooms":4,"NoOfBathrooms":5,"SqFeet":2391,"Address1":"02 Melby Terrace","Address2":"Room 1541","City":"Santa Barbara","State":"CA","Zip":"93106","Description":null,"SalesValue":"$3021021.51"},
{"NoOfRooms":4,"NoOfBathrooms":4,"SqFeet":4127,"Address1":"90483 Victoria Terrace","Address2":"PO Box 24619","City":"Van Nuys","State":"CA","Zip":"91411","Description":null,"SalesValue":"$6652959.01"},
{"NoOfRooms":1,"NoOfBathrooms":2,"SqFeet":3262,"Address1":"15136 Laurel Alley","Address2":"Room 213","City":"San Bernardino","State":"CA","Zip":"92410","Description":null,"SalesValue":"$3034283.79"},
{"NoOfRooms":5,"NoOfBathrooms":2,"SqFeet":4043,"Address1":"17831 Dixon Terrace","Address2":"Apt 1602","City":"Los Angeles","State":"CA","Zip":"90040","Description":null,"SalesValue":"$9276231.54"},
{"NoOfRooms":3,"NoOfBathrooms":4,"SqFeet":7688,"Address1":"46439 Emmet Junction","Address2":"4th Floor","City":"San Jose","State":"CA","Zip":"95173","Description":null,"SalesValue":"$6247190.33"},
{"NoOfRooms":5,"NoOfBathrooms":1,"SqFeet":5381,"Address1":"57401 Burning Wood Road","Address2":"Suite 88","City":"Anaheim","State":"CA","Zip":"92812","Description":null,"SalesValue":"$3133195.09"},
{"NoOfRooms":2,"NoOfBathrooms":3,"SqFeet":5891,"Address1":"962 Forest Dale Lane","Address2":"PO Box 90694","City":"Sacramento","State":"CA","Zip":"94207","Description":null,"SalesValue":"$9252201.48"},
{"NoOfRooms":1,"NoOfBathrooms":4,"SqFeet":265,"Address1":"4 Evergreen Trail","Address2":"PO Box 65905","City":"Los Angeles","State":"CA","Zip":"90081","Description":null,"SalesValue":"$9143308.71"},
{"NoOfRooms":1,"NoOfBathrooms":1,"SqFeet":4553,"Address1":"17 Sommers Plaza","Address2":"10th Floor","City":"San Francisco","State":"CA","Zip":"94164","Description":null,"SalesValue":"$6714359.26"},
{"NoOfRooms":5,"NoOfBathrooms":4,"SqFeet":7567,"Address1":"639 School Road","Address2":"Room 372","City":"San Jose","State":"CA","Zip":"95150","Description":null,"SalesValue":"$4270858.86"},
{"NoOfRooms":5,"NoOfBathrooms":5,"SqFeet":4883,"Address1":"32902 Monument Alley","Address2":"10th Floor","City":"Modesto","State":"CA","Zip":"95397","Description":null,"SalesValue":"$2344471.04"},
{"NoOfRooms":3,"NoOfBathrooms":2,"SqFeet":3666,"Address1":"73 Gina Trail","Address2":"PO Box 30995","City":"North Hollywood","State":"CA","Zip":"91606","Description":null,"SalesValue":"$7153583.95"},
{"NoOfRooms":3,"NoOfBathrooms":4,"SqFeet":8262,"Address1":"1 Barby Junction","Address2":"PO Box 65633","City":"San Diego","State":"CA","Zip":"92191","Description":null,"SalesValue":"$2232753.71"},
{"NoOfRooms":4,"NoOfBathrooms":4,"SqFeet":1452,"Address1":"013 Dennis Alley","Address2":"15th Floor","City":"San Jose","State":"CA","Zip":"95113","Description":null,"SalesValue":"$5527481.66"},
{"NoOfRooms":1,"NoOfBathrooms":1,"SqFeet":2143,"Address1":"289 Commercial Street","Address2":"Room 732","City":"Anaheim","State":"CA","Zip":"92805","Description":null,"SalesValue":"$9323715.29"},
{"NoOfRooms":5,"NoOfBathrooms":2,"SqFeet":8413,"Address1":"86513 Meadow Ridge Pass","Address2":"Room 541","City":"Long Beach","State":"CA","Zip":"90805","Description":null,"SalesValue":"$6860901.52"},
{"NoOfRooms":2,"NoOfBathrooms":3,"SqFeet":8254,"Address1":"22 Miller Center","Address2":"6th Floor","City":"Richmond","State":"CA","Zip":"94807","Description":null,"SalesValue":"$5970308.58"},
{"NoOfRooms":3,"NoOfBathrooms":5,"SqFeet":9533,"Address1":"05 Shasta Drive","Address2":"PO Box 24711","City":"Fresno","State":"CA","Zip":"93721","Description":null,"SalesValue":"$9047751.36"},
{"NoOfRooms":2,"NoOfBathrooms":2,"SqFeet":8228,"Address1":"2 Charing Cross Court","Address2":"Apt 1103","City":"Pasadena","State":"CA","Zip":"91117","Description":null,"SalesValue":"$9782348.80"},
{"NoOfRooms":4,"NoOfBathrooms":4,"SqFeet":9110,"Address1":"5 Forest Dale Way","Address2":"PO Box 85993","City":"Fullerton","State":"CA","Zip":"92835","Description":null,"SalesValue":"$9479133.73"},
{"NoOfRooms":3,"NoOfBathrooms":2,"SqFeet":9971,"Address1":"5790 Sunnyside Court","Address2":"Suite 26","City":"Richmond","State":"CA","Zip":"94807","Description":null,"SalesValue":"$2211150.79"},
{"NoOfRooms":5,"NoOfBathrooms":2,"SqFeet":4548,"Address1":"13805 Kingsford Pass","Address2":"15th Floor","City":"Palmdale","State":"CA","Zip":"93591","Description":null,"SalesValue":"$5204615.17"},
{"NoOfRooms":1,"NoOfBathrooms":2,"SqFeet":8998,"Address1":"29962 Ridge Oak Lane","Address2":"Apt 1781","City":"San Francisco","State":"CA","Zip":"94116","Description":null,"SalesValue":"$2317137.26"},
{"NoOfRooms":2,"NoOfBathrooms":2,"SqFeet":7405,"Address1":"2 Bayside Place","Address2":"Room 29","City":"Fresno","State":"CA","Zip":"93709","Description":null,"SalesValue":"$9606879.93"},
{"NoOfRooms":3,"NoOfBathrooms":3,"SqFeet":9926,"Address1":"68221 Roth Parkway","Address2":"Suite 12","City":"Oxnard","State":"CA","Zip":"93034","Description":null,"SalesValue":"$2613909.15"},
{"NoOfRooms":4,"NoOfBathrooms":3,"SqFeet":937,"Address1":"8773 Lakewood Gardens Street","Address2":"5th Floor","City":"Santa Ana","State":"CA","Zip":"92725","Description":null,"SalesValue":"$7777807.95"},
{"NoOfRooms":5,"NoOfBathrooms":5,"SqFeet":3253,"Address1":"7220 Vidon Parkway","Address2":"11th Floor","City":"San Diego","State":"CA","Zip":"92176","Description":null,"SalesValue":"$4476709.82"},
{"NoOfRooms":3,"NoOfBathrooms":1,"SqFeet":2900,"Address1":"2 Lakewood Gardens Plaza","Address2":"Suite 2","City":"Sacramento","State":"CA","Zip":"94280","Description":null,"SalesValue":"$4527505.50"},
{"NoOfRooms":5,"NoOfBathrooms":5,"SqFeet":5688,"Address1":"6982 Blaine Trail","Address2":"Apt 1179","City":"San Bernardino","State":"CA","Zip":"92410","Description":null,"SalesValue":"$2014904.06"},
{"NoOfRooms":5,"NoOfBathrooms":3,"SqFeet":7565,"Address1":"5 Colorado Point","Address2":"Room 43","City":"Los Angeles","State":"CA","Zip":"90065","Description":null,"SalesValue":"$6043500.12"},
{"NoOfRooms":2,"NoOfBathrooms":3,"SqFeet":5233,"Address1":"6908 Briar Crest Parkway","Address2":"Apt 487","City":"Garden Grove","State":"CA","Zip":"92645","Description":null,"SalesValue":"$8766806.45"},
{"NoOfRooms":2,"NoOfBathrooms":1,"SqFeet":7727,"Address1":"5 Colorado Street","Address2":"Suite 47","City":"Stockton","State":"CA","Zip":"95219","Description":null,"SalesValue":"$8184880.59"},
{"NoOfRooms":3,"NoOfBathrooms":3,"SqFeet":201,"Address1":"6732 Garrison Lane","Address2":"Apt 1","City":"Long Beach","State":"CA","Zip":"90840","Description":null,"SalesValue":"$8305170.05"},
{"NoOfRooms":5,"NoOfBathrooms":4,"SqFeet":8325,"Address1":"71 Debs Hill","Address2":"12th Floor","City":"San Bernardino","State":"CA","Zip":"92424","Description":null,"SalesValue":"$763693.99"},
{"NoOfRooms":4,"NoOfBathrooms":3,"SqFeet":2348,"Address1":"9881 Meadow Ridge Junction","Address2":"Suite 89","City":"Sacramento","State":"CA","Zip":"95813","Description":null,"SalesValue":"$6159825.36"},
{"NoOfRooms":5,"NoOfBathrooms":5,"SqFeet":5881,"Address1":"286 Bayside Crossing","Address2":"Room 1060","City":"San Francisco","State":"CA","Zip":"94121","Description":null,"SalesValue":"$4920474.60"},
{"NoOfRooms":1,"NoOfBathrooms":3,"SqFeet":8871,"Address1":"738 Kings Street","Address2":"Suite 94","City":"San Jose","State":"CA","Zip":"95173","Description":null,"SalesValue":"$2953614.57"},
{"NoOfRooms":3,"NoOfBathrooms":1,"SqFeet":7859,"Address1":"7 Corscot Point","Address2":"Room 68","City":"Stockton","State":"CA","Zip":"95210","Description":null,"SalesValue":"$7183073.93"},
{"NoOfRooms":4,"NoOfBathrooms":5,"SqFeet":309,"Address1":"865 Crowley Crossing","Address2":"14th Floor","City":"Sacramento","State":"CA","Zip":"95833","Description":null,"SalesValue":"$9376310.43"},
{"NoOfRooms":2,"NoOfBathrooms":3,"SqFeet":7841,"Address1":"92955 Milwaukee Street","Address2":"Room 969","City":"Pasadena","State":"CA","Zip":"91186","Description":null,"SalesValue":"$5359423.55"},
{"NoOfRooms":3,"NoOfBathrooms":1,"SqFeet":1548,"Address1":"4117 Northridge Lane","Address2":"3rd Floor","City":"Burbank","State":"CA","Zip":"91520","Description":null,"SalesValue":"$7411636.22"},
{"NoOfRooms":1,"NoOfBathrooms":1,"SqFeet":4363,"Address1":"57752 Clyde Gallagher Avenue","Address2":"Suite 2","City":"Long Beach","State":"CA","Zip":"90810","Description":null,"SalesValue":"$7957319.66"},
{"NoOfRooms":4,"NoOfBathrooms":1,"SqFeet":8968,"Address1":"18 Saint Paul Crossing","Address2":"Apt 1161","City":"Long Beach","State":"CA","Zip":"90847","Description":null,"SalesValue":"$2700670.37"},
{"NoOfRooms":1,"NoOfBathrooms":1,"SqFeet":3858,"Address1":"480 Bobwhite Circle","Address2":"16th Floor","City":"San Francisco","State":"CA","Zip":"94159","Description":null,"SalesValue":"$1163879.55"},
{"NoOfRooms":1,"NoOfBathrooms":3,"SqFeet":9704,"Address1":"5234 Briar Crest Court","Address2":"PO Box 13399","City":"Newport Beach","State":"CA","Zip":"92662","Description":null,"SalesValue":"$5978162.71"},
{"NoOfRooms":4,"NoOfBathrooms":5,"SqFeet":7681,"Address1":"36 Donald Place","Address2":"Suite 35","City":"Los Angeles","State":"CA","Zip":"90050","Description":null,"SalesValue":"$1259977.13"},
{"NoOfRooms":1,"NoOfBathrooms":5,"SqFeet":4956,"Address1":"916 Kingsford Alley","Address2":"Apt 1911","City":"Fresno","State":"CA","Zip":"93794","Description":null,"SalesValue":"$4913400.40"},
{"NoOfRooms":5,"NoOfBathrooms":3,"SqFeet":7135,"Address1":"41 Reindahl Hill","Address2":"PO Box 92018","City":"Santa Monica","State":"CA","Zip":"90405","Description":null,"SalesValue":"$5350378.43"},
{"NoOfRooms":1,"NoOfBathrooms":5,"SqFeet":1346,"Address1":"9 Grasskamp Street","Address2":"14th Floor","City":"Whittier","State":"CA","Zip":"90610","Description":null,"SalesValue":"$8766811.77"},
{"NoOfRooms":3,"NoOfBathrooms":2,"SqFeet":8531,"Address1":"224 Delaware Alley","Address2":"Apt 367","City":"Torrance","State":"CA","Zip":"90505","Description":null,"SalesValue":"$645414.31"},
{"NoOfRooms":4,"NoOfBathrooms":4,"SqFeet":3765,"Address1":"8 Summit Terrace","Address2":"Suite 74","City":"Los Angeles","State":"CA","Zip":"90025","Description":null,"SalesValue":"$6404457.31"},
{"NoOfRooms":2,"NoOfBathrooms":3,"SqFeet":2252,"Address1":"78502 Rigney Drive","Address2":"Apt 151","City":"Oxnard","State":"CA","Zip":"93034","Description":null,"SalesValue":"$8752709.03"},
{"NoOfRooms":4,"NoOfBathrooms":5,"SqFeet":4978,"Address1":"1 Northridge Parkway","Address2":"PO Box 68473","City":"Stockton","State":"CA","Zip":"95210","Description":null,"SalesValue":"$7810254.72"},
{"NoOfRooms":2,"NoOfBathrooms":3,"SqFeet":7728,"Address1":"5112 Artisan Point","Address2":"PO Box 81290","City":"Bakersfield","State":"CA","Zip":"93386","Description":null,"SalesValue":"$3463683.87"},
{"NoOfRooms":3,"NoOfBathrooms":5,"SqFeet":7294,"Address1":"86878 Tomscot Crossing","Address2":"Apt 1273","City":"Fresno","State":"CA","Zip":"93709","Description":null,"SalesValue":"$3188843.63"},
{"NoOfRooms":3,"NoOfBathrooms":3,"SqFeet":259,"Address1":"59029 Ridgeway Alley","Address2":"Room 1465","City":"San Diego","State":"CA","Zip":"92165","Description":null,"SalesValue":"$4591705.08"},
{"NoOfRooms":2,"NoOfBathrooms":4,"SqFeet":6282,"Address1":"14456 Buhler Alley","Address2":"Room 1841","City":"South Lake Tahoe","State":"CA","Zip":"96154","Description":null,"SalesValue":"$5901580.52"},
{"NoOfRooms":4,"NoOfBathrooms":4,"SqFeet":5919,"Address1":"8593 Jana Circle","Address2":"Apt 472","City":"Ventura","State":"CA","Zip":"93005","Description":null,"SalesValue":"$831168.38"},
{"NoOfRooms":3,"NoOfBathrooms":1,"SqFeet":9858,"Address1":"6915 Brentwood Court","Address2":"Suite 36","City":"Bakersfield","State":"CA","Zip":"93381","Description":null,"SalesValue":"$5544669.37"},
{"NoOfRooms":4,"NoOfBathrooms":2,"SqFeet":8426,"Address1":"05012 Fuller Drive","Address2":"Room 1219","City":"Pomona","State":"CA","Zip":"91797","Description":null,"SalesValue":"$7661979.83"},
{"NoOfRooms":5,"NoOfBathrooms":3,"SqFeet":984,"Address1":"2912 Carey Place","Address2":"10th Floor","City":"Bakersfield","State":"CA","Zip":"93305","Description":null,"SalesValue":"$8539864.04"},
{"NoOfRooms":3,"NoOfBathrooms":2,"SqFeet":7275,"Address1":"5 Haas Avenue","Address2":"Suite 25","City":"Los Angeles","State":"CA","Zip":"90010","Description":null,"SalesValue":"$2965033.80"},
{"NoOfRooms":1,"NoOfBathrooms":3,"SqFeet":3639,"Address1":"232 Fairfield Lane","Address2":"Suite 83","City":"Stockton","State":"CA","Zip":"95210","Description":null,"SalesValue":"$7717266.59"},
{"NoOfRooms":3,"NoOfBathrooms":4,"SqFeet":2057,"Address1":"546 Mcbride Trail","Address2":"Apt 1396","City":"Anaheim","State":"CA","Zip":"92812","Description":null,"SalesValue":"$3610513.29"},
{"NoOfRooms":3,"NoOfBathrooms":1,"SqFeet":1653,"Address1":"82770 Gulseth Junction","Address2":"Suite 59","City":"San Jose","State":"CA","Zip":"95113","Description":null,"SalesValue":"$8971498.61"},
{"NoOfRooms":2,"NoOfBathrooms":1,"SqFeet":1387,"Address1":"815 Spohn Center","Address2":"Room 1469","City":"Inglewood","State":"CA","Zip":"90398","Description":null,"SalesValue":"$3660310.38"},
{"NoOfRooms":1,"NoOfBathrooms":5,"SqFeet":2585,"Address1":"2535 Oak Valley Plaza","Address2":"11th Floor","City":"San Diego","State":"CA","Zip":"92105","Description":null,"SalesValue":"$3509268.05"},
{"NoOfRooms":1,"NoOfBathrooms":5,"SqFeet":3002,"Address1":"03062 Petterle Park","Address2":"13th Floor","City":"San Jose","State":"CA","Zip":"95113","Description":null,"SalesValue":"$4054510.11"},
{"NoOfRooms":2,"NoOfBathrooms":5,"SqFeet":1899,"Address1":"2699 Sundown Circle","Address2":"Room 14","City":"Oxnard","State":"CA","Zip":"93034","Description":null,"SalesValue":"$1243403.75"},
{"NoOfRooms":5,"NoOfBathrooms":4,"SqFeet":8433,"Address1":"14 Longview Plaza","Address2":"Suite 9","City":"Oxnard","State":"CA","Zip":"93034","Description":null,"SalesValue":"$4750110.15"},
{"NoOfRooms":3,"NoOfBathrooms":2,"SqFeet":5087,"Address1":"60414 Jenifer Crossing","Address2":"Room 1063","City":"Fresno","State":"CA","Zip":"93778","Description":null,"SalesValue":"$4616540.14"},
{"NoOfRooms":2,"NoOfBathrooms":3,"SqFeet":9401,"Address1":"5 Luster Street","Address2":"Room 919","City":"Orange","State":"CA","Zip":"92668","Description":null,"SalesValue":"$2596902.53"},
{"NoOfRooms":4,"NoOfBathrooms":4,"SqFeet":5061,"Address1":"53 Valley Edge Drive","Address2":"Room 1030","City":"San Diego","State":"CA","Zip":"92176","Description":null,"SalesValue":"$2187125.53"},
{"NoOfRooms":5,"NoOfBathrooms":2,"SqFeet":9252,"Address1":"2676 Nevada Plaza","Address2":"12th Floor","City":"San Jose","State":"CA","Zip":"95173","Description":null,"SalesValue":"$7268099.73"},
{"NoOfRooms":5,"NoOfBathrooms":1,"SqFeet":8786,"Address1":"300 Del Mar Junction","Address2":"16th Floor","City":"San Jose","State":"CA","Zip":"95155","Description":null,"SalesValue":"$5200274.46"},
{"NoOfRooms":2,"NoOfBathrooms":5,"SqFeet":5657,"Address1":"2265 Prairie Rose Alley","Address2":"Room 1027","City":"Orange","State":"CA","Zip":"92867","Description":null,"SalesValue":"$6680370.80"},
{"NoOfRooms":4,"NoOfBathrooms":3,"SqFeet":3513,"Address1":"99 Lindbergh Crossing","Address2":"7th Floor","City":"Sacramento","State":"CA","Zip":"94297","Description":null,"SalesValue":"$6985848.94"},
{"NoOfRooms":1,"NoOfBathrooms":4,"SqFeet":943,"Address1":"13 Tennyson Trail","Address2":"PO Box 78880","City":"Orange","State":"CA","Zip":"92867","Description":null,"SalesValue":"$7213266.34"},
{"NoOfRooms":1,"NoOfBathrooms":4,"SqFeet":4319,"Address1":"63930 Emmet Point","Address2":"PO Box 51785","City":"Stockton","State":"CA","Zip":"95205","Description":null,"SalesValue":"$9456493.77"},
{"NoOfRooms":4,"NoOfBathrooms":3,"SqFeet":1487,"Address1":"255 Lerdahl Court","Address2":"Room 802","City":"Los Angeles","State":"CA","Zip":"90076","Description":null,"SalesValue":"$8695499.76"},
{"NoOfRooms":3,"NoOfBathrooms":5,"SqFeet":2399,"Address1":"222 Rockefeller Trail","Address2":"Room 1223","City":"Oakland","State":"CA","Zip":"94605","Description":null,"SalesValue":"$3801104.27"},
{"NoOfRooms":1,"NoOfBathrooms":1,"SqFeet":8519,"Address1":"1 Sloan Avenue","Address2":"Room 1132","City":"Newport Beach","State":"CA","Zip":"92662","Description":null,"SalesValue":"$8751525.87"},
{"NoOfRooms":5,"NoOfBathrooms":3,"SqFeet":6928,"Address1":"616 Nova Center","Address2":"PO Box 94132","City":"Berkeley","State":"CA","Zip":"94705","Description":null,"SalesValue":"$4144132.50"},
{"NoOfRooms":2,"NoOfBathrooms":4,"SqFeet":9476,"Address1":"0 Caliangt Lane","Address2":"Apt 175","City":"Fresno","State":"CA","Zip":"93704","Description":null,"SalesValue":"$3496368.78"},
{"NoOfRooms":3,"NoOfBathrooms":2,"SqFeet":9000,"Address1":"1657 American Point","Address2":"Apt 1805","City":"Fresno","State":"CA","Zip":"93715","Description":null,"SalesValue":"$1979340.38"},
{"NoOfRooms":5,"NoOfBathrooms":1,"SqFeet":2463,"Address1":"7 Blaine Crossing","Address2":"12th Floor","City":"Los Angeles","State":"CA","Zip":"90015","Description":null,"SalesValue":"$1273268.85"},
{"NoOfRooms":2,"NoOfBathrooms":4,"SqFeet":187,"Address1":"3284 Miller Hill","Address2":"Room 1678","City":"Long Beach","State":"CA","Zip":"90847","Description":null,"SalesValue":"$6456722.35"},
{"NoOfRooms":4,"NoOfBathrooms":2,"SqFeet":7266,"Address1":"65 Coolidge Court","Address2":"17th Floor","City":"Los Angeles","State":"CA","Zip":"90045","Description":null,"SalesValue":"$5588311.05"},
{"NoOfRooms":4,"NoOfBathrooms":4,"SqFeet":7119,"Address1":"6 Milwaukee Crossing","Address2":"Suite 49","City":"Los Angeles","State":"CA","Zip":"90045","Description":null,"SalesValue":"$1387412.12"},
{"NoOfRooms":1,"NoOfBathrooms":3,"SqFeet":3841,"Address1":"9903 Harper Place","Address2":"20th Floor","City":"San Jose","State":"CA","Zip":"95150","Description":null,"SalesValue":"$9008970.05"},
{"NoOfRooms":5,"NoOfBathrooms":4,"SqFeet":4290,"Address1":"4920 Knutson Pass","Address2":"Suite 51","City":"Sacramento","State":"CA","Zip":"94207","Description":null,"SalesValue":"$1895486.14"},
{"NoOfRooms":1,"NoOfBathrooms":4,"SqFeet":4688,"Address1":"98969 Weeping Birch Hill","Address2":"5th Floor","City":"Irvine","State":"CA","Zip":"92717","Description":null,"SalesValue":"$7237151.60"},
{"NoOfRooms":2,"NoOfBathrooms":5,"SqFeet":9646,"Address1":"5041 Oneill Circle","Address2":"Suite 18","City":"Sacramento","State":"CA","Zip":"95828","Description":null,"SalesValue":"$4770725.51"},
{"NoOfRooms":2,"NoOfBathrooms":2,"SqFeet":6291,"Address1":"0 Pierstorff Trail","Address2":"Suite 90","City":"Huntington Beach","State":"CA","Zip":"92648","Description":null,"SalesValue":"$8959219.37"},
{"NoOfRooms":1,"NoOfBathrooms":5,"SqFeet":9387,"Address1":"783 Gina Drive","Address2":"Room 286","City":"Bakersfield","State":"CA","Zip":"93386","Description":null,"SalesValue":"$5567183.80"},
{"NoOfRooms":1,"NoOfBathrooms":2,"SqFeet":1770,"Address1":"0 Sugar Drive","Address2":"Apt 762","City":"Sacramento","State":"CA","Zip":"94273","Description":null,"SalesValue":"$4528980.03"},
{"NoOfRooms":2,"NoOfBathrooms":1,"SqFeet":2550,"Address1":"40840 Independence Pass","Address2":"Apt 1310","City":"Chico","State":"CA","Zip":"95973","Description":null,"SalesValue":"$5927882.95"},
{"NoOfRooms":3,"NoOfBathrooms":3,"SqFeet":3322,"Address1":"91 Lakeland Lane","Address2":"Apt 1788","City":"Sacramento","State":"CA","Zip":"95823","Description":null,"SalesValue":"$1351741.98"},
{"NoOfRooms":2,"NoOfBathrooms":2,"SqFeet":2237,"Address1":"17 Novick Parkway","Address2":"PO Box 72618","City":"Stockton","State":"CA","Zip":"95205","Description":null,"SalesValue":"$8134846.41"},
{"NoOfRooms":4,"NoOfBathrooms":3,"SqFeet":3239,"Address1":"05394 Hansons Plaza","Address2":"Apt 878","City":"Burbank","State":"CA","Zip":"91520","Description":null,"SalesValue":"$2204043.12"},
{"NoOfRooms":1,"NoOfBathrooms":5,"SqFeet":7535,"Address1":"0184 Riverside Way","Address2":"PO Box 82600","City":"Sacramento","State":"CA","Zip":"94230","Description":null,"SalesValue":"$7455070.63"},
{"NoOfRooms":3,"NoOfBathrooms":3,"SqFeet":1078,"Address1":"64 Eagan Way","Address2":"11th Floor","City":"Fresno","State":"CA","Zip":"93794","Description":null,"SalesValue":"$2262967.23"},
{"NoOfRooms":4,"NoOfBathrooms":5,"SqFeet":1388,"Address1":"9 Reinke Park","Address2":"1st Floor","City":"San Jose","State":"CA","Zip":"95138","Description":null,"SalesValue":"$8932787.15"},
{"NoOfRooms":4,"NoOfBathrooms":4,"SqFeet":556,"Address1":"60017 Heath Hill","Address2":"Apt 1771","City":"Modesto","State":"CA","Zip":"95397","Description":null,"SalesValue":"$1049580.91"},
{"NoOfRooms":4,"NoOfBathrooms":4,"SqFeet":1649,"Address1":"545 Heffernan Point","Address2":"17th Floor","City":"Garden Grove","State":"CA","Zip":"92844","Description":null,"SalesValue":"$8241368.74"},
{"NoOfRooms":3,"NoOfBathrooms":4,"SqFeet":7779,"Address1":"924 Raven Trail","Address2":"Room 7","City":"San Diego","State":"CA","Zip":"92105","Description":null,"SalesValue":"$9868282.86"},
{"NoOfRooms":2,"NoOfBathrooms":4,"SqFeet":2178,"Address1":"954 Dottie Avenue","Address2":"Room 1767","City":"Santa Rosa","State":"CA","Zip":"95405","Description":null,"SalesValue":"$2772651.77"},
{"NoOfRooms":4,"NoOfBathrooms":2,"SqFeet":9045,"Address1":"5 Fordem Avenue","Address2":"8th Floor","City":"Santa Monica","State":"CA","Zip":"90410","Description":null,"SalesValue":"$7303429.60"},
{"NoOfRooms":4,"NoOfBathrooms":3,"SqFeet":1600,"Address1":"52 Jenna Hill","Address2":"Suite 11","City":"San Bernardino","State":"CA","Zip":"92405","Description":null,"SalesValue":"$7630096.78"},
{"NoOfRooms":5,"NoOfBathrooms":3,"SqFeet":2632,"Address1":"98 Hanover Junction","Address2":"15th Floor","City":"Sacramento","State":"CA","Zip":"94245","Description":null,"SalesValue":"$7546692.09"},
{"NoOfRooms":2,"NoOfBathrooms":1,"SqFeet":8631,"Address1":"765 Vahlen Lane","Address2":"PO Box 82412","City":"Fresno","State":"CA","Zip":"93778","Description":null,"SalesValue":"$5535475.76"},
{"NoOfRooms":2,"NoOfBathrooms":4,"SqFeet":3256,"Address1":"51 Heffernan Place","Address2":"Room 1788","City":"Fresno","State":"CA","Zip":"93794","Description":null,"SalesValue":"$5405530.27"},
{"NoOfRooms":4,"NoOfBathrooms":4,"SqFeet":6485,"Address1":"872 Elgar Point","Address2":"Apt 1535","City":"North Hollywood","State":"CA","Zip":"91616","Description":null,"SalesValue":"$8656902.46"},
{"NoOfRooms":4,"NoOfBathrooms":2,"SqFeet":5897,"Address1":"33084 Memorial Pass","Address2":"PO Box 62953","City":"Los Angeles","State":"CA","Zip":"90094","Description":null,"SalesValue":"$976166.74"},
{"NoOfRooms":1,"NoOfBathrooms":2,"SqFeet":8478,"Address1":"4772 Mandrake Junction","Address2":"Suite 78","City":"Pasadena","State":"CA","Zip":"91125","Description":null,"SalesValue":"$1176762.02"},
{"NoOfRooms":4,"NoOfBathrooms":4,"SqFeet":4291,"Address1":"6 Summit Pass","Address2":"Suite 60","City":"Riverside","State":"CA","Zip":"92513","Description":null,"SalesValue":"$935192.07"},
{"NoOfRooms":5,"NoOfBathrooms":3,"SqFeet":481,"Address1":"80407 Canary Drive","Address2":"Suite 1","City":"Oakland","State":"CA","Zip":"94627","Description":null,"SalesValue":"$9031406.26"},
{"NoOfRooms":3,"NoOfBathrooms":3,"SqFeet":710,"Address1":"4626 Hallows Terrace","Address2":"10th Floor","City":"San Jose","State":"CA","Zip":"95108","Description":null,"SalesValue":"$5005186.32"},
{"NoOfRooms":3,"NoOfBathrooms":5,"SqFeet":7043,"Address1":"727 Dawn Hill","Address2":"PO Box 17185","City":"Stockton","State":"CA","Zip":"95298","Description":null,"SalesValue":"$2225649.29"},
{"NoOfRooms":2,"NoOfBathrooms":1,"SqFeet":5653,"Address1":"84741 Sycamore Pass","Address2":"Apt 809","City":"Van Nuys","State":"CA","Zip":"91499","Description":null,"SalesValue":"$8539033.16"},
{"NoOfRooms":2,"NoOfBathrooms":4,"SqFeet":8431,"Address1":"9518 Raven Parkway","Address2":"Room 1137","City":"Pasadena","State":"CA","Zip":"91109","Description":null,"SalesValue":"$6456205.88"},
{"NoOfRooms":1,"NoOfBathrooms":4,"SqFeet":1669,"Address1":"36 1st Center","Address2":"19th Floor","City":"Fullerton","State":"CA","Zip":"92835","Description":null,"SalesValue":"$3901510.11"},
{"NoOfRooms":4,"NoOfBathrooms":1,"SqFeet":1889,"Address1":"88 Prairieview Avenue","Address2":"1st Floor","City":"Santa Barbara","State":"CA","Zip":"93111","Description":null,"SalesValue":"$4890187.42"},
{"NoOfRooms":3,"NoOfBathrooms":1,"SqFeet":1496,"Address1":"26574 Waxwing Place","Address2":"Suite 41","City":"Long Beach","State":"CA","Zip":"90810","Description":null,"SalesValue":"$6534434.59"},
{"NoOfRooms":2,"NoOfBathrooms":1,"SqFeet":2039,"Address1":"70 Mayer Pass","Address2":"4th Floor","City":"Corona","State":"CA","Zip":"92878","Description":null,"SalesValue":"$5831443.27"},
{"NoOfRooms":5,"NoOfBathrooms":4,"SqFeet":3263,"Address1":"58682 Dennis Parkway","Address2":"Room 1994","City":"San Francisco","State":"CA","Zip":"94105","Description":null,"SalesValue":"$9037356.01"},
{"NoOfRooms":1,"NoOfBathrooms":2,"SqFeet":2382,"Address1":"35 Gerald Crossing","Address2":"Room 1061","City":"San Diego","State":"CA","Zip":"92170","Description":null,"SalesValue":"$5136833.07"},
{"NoOfRooms":2,"NoOfBathrooms":4,"SqFeet":1896,"Address1":"91 Lake View Hill","Address2":"PO Box 74381","City":"Irvine","State":"CA","Zip":"92612","Description":null,"SalesValue":"$9657249.30"},
{"NoOfRooms":3,"NoOfBathrooms":1,"SqFeet":4742,"Address1":"4939 Banding Trail","Address2":"Room 654","City":"Inglewood","State":"CA","Zip":"90310","Description":null,"SalesValue":"$859413.51"},
{"NoOfRooms":2,"NoOfBathrooms":4,"SqFeet":3578,"Address1":"74 Pepper Wood Plaza","Address2":"Room 1718","City":"Los Angeles","State":"CA","Zip":"90050","Description":null,"SalesValue":"$5195771.26"},
{"NoOfRooms":3,"NoOfBathrooms":1,"SqFeet":1141,"Address1":"2968 Bunker Hill Court","Address2":"8th Floor","City":"Irvine","State":"CA","Zip":"92717","Description":null,"SalesValue":"$5527803.09"},
{"NoOfRooms":4,"NoOfBathrooms":5,"SqFeet":2285,"Address1":"73143 Butternut Avenue","Address2":"PO Box 61521","City":"Fresno","State":"CA","Zip":"93715","Description":null,"SalesValue":"$7274246.54"},
{"NoOfRooms":4,"NoOfBathrooms":1,"SqFeet":1871,"Address1":"2935 Cambridge Parkway","Address2":"16th Floor","City":"Santa Barbara","State":"CA","Zip":"93111","Description":null,"SalesValue":"$5158402.71"},
{"NoOfRooms":3,"NoOfBathrooms":4,"SqFeet":1336,"Address1":"4934 Troy Center","Address2":"1st Floor","City":"Fresno","State":"CA","Zip":"93709","Description":null,"SalesValue":"$5260147.20"},
{"NoOfRooms":3,"NoOfBathrooms":1,"SqFeet":1255,"Address1":"7 Debra Place","Address2":"Suite 17","City":"Pasadena","State":"CA","Zip":"91109","Description":null,"SalesValue":"$9321107.76"},
{"NoOfRooms":5,"NoOfBathrooms":4,"SqFeet":787,"Address1":"01462 Declaration Crossing","Address2":"PO Box 41140","City":"Sacramento","State":"CA","Zip":"95823","Description":null,"SalesValue":"$2095464.45"},
{"NoOfRooms":4,"NoOfBathrooms":3,"SqFeet":5842,"Address1":"3 Stuart Road","Address2":"Suite 46","City":"Sacramento","State":"CA","Zip":"95852","Description":null,"SalesValue":"$8311597.17"},
{"NoOfRooms":4,"NoOfBathrooms":2,"SqFeet":2885,"Address1":"31 Merry Lane","Address2":"Apt 159","City":"Sunnyvale","State":"CA","Zip":"94089","Description":null,"SalesValue":"$8667909.23"},
{"NoOfRooms":3,"NoOfBathrooms":1,"SqFeet":9062,"Address1":"6223 Springs Drive","Address2":"PO Box 49230","City":"North Hollywood","State":"CA","Zip":"91616","Description":null,"SalesValue":"$819284.99"},
{"NoOfRooms":1,"NoOfBathrooms":4,"SqFeet":9889,"Address1":"93387 Debs Street","Address2":"Suite 55","City":"San Jose","State":"CA","Zip":"95133","Description":null,"SalesValue":"$7616326.29"},
{"NoOfRooms":2,"NoOfBathrooms":1,"SqFeet":7259,"Address1":"41 Hayes Junction","Address2":"Suite 60","City":"Sunnyvale","State":"CA","Zip":"94089","Description":null,"SalesValue":"$4029132.22"},
{"NoOfRooms":5,"NoOfBathrooms":2,"SqFeet":1104,"Address1":"7023 Randy Road","Address2":"Suite 67","City":"Santa Barbara","State":"CA","Zip":"93106","Description":null,"SalesValue":"$6197729.89"},
{"NoOfRooms":2,"NoOfBathrooms":3,"SqFeet":6005,"Address1":"8 Shopko Terrace","Address2":"Suite 45","City":"Sacramento","State":"CA","Zip":"95823","Description":null,"SalesValue":"$3107145.77"},
{"NoOfRooms":3,"NoOfBathrooms":5,"SqFeet":6134,"Address1":"05596 Evergreen Terrace","Address2":"Room 447","City":"Oakland","State":"CA","Zip":"94616","Description":null,"SalesValue":"$4617387.75"},
{"NoOfRooms":1,"NoOfBathrooms":3,"SqFeet":1042,"Address1":"33 Superior Center","Address2":"Apt 1846","City":"Sacramento","State":"CA","Zip":"95894","Description":null,"SalesValue":"$5043746.41"},
{"NoOfRooms":2,"NoOfBathrooms":4,"SqFeet":1147,"Address1":"34303 Golf View Parkway","Address2":"Suite 32","City":"San Jose","State":"CA","Zip":"95138","Description":null,"SalesValue":"$9364064.01"},
{"NoOfRooms":2,"NoOfBathrooms":3,"SqFeet":8048,"Address1":"8 Russell Park","Address2":"PO Box 74643","City":"San Francisco","State":"CA","Zip":"94169","Description":null,"SalesValue":"$5531449.48"},
{"NoOfRooms":4,"NoOfBathrooms":3,"SqFeet":3489,"Address1":"628 Carioca Pass","Address2":"Apt 1301","City":"Bakersfield","State":"CA","Zip":"93311","Description":null,"SalesValue":"$977659.24"},
{"NoOfRooms":3,"NoOfBathrooms":1,"SqFeet":7364,"Address1":"82 Cambridge Trail","Address2":"Suite 22","City":"Sacramento","State":"CA","Zip":"95894","Description":null,"SalesValue":"$7726451.80"},
{"NoOfRooms":5,"NoOfBathrooms":5,"SqFeet":7103,"Address1":"879 Truax Hill","Address2":"Suite 38","City":"San Jose","State":"CA","Zip":"95108","Description":null,"SalesValue":"$4624234.60"},
{"NoOfRooms":5,"NoOfBathrooms":4,"SqFeet":1850,"Address1":"67 Ohio Plaza","Address2":"Suite 89","City":"Inglewood","State":"CA","Zip":"90398","Description":null,"SalesValue":"$6704814.17"},
{"NoOfRooms":2,"NoOfBathrooms":1,"SqFeet":3444,"Address1":"1196 Ryan Road","Address2":"PO Box 55495","City":"Sacramento","State":"CA","Zip":"95865","Description":null,"SalesValue":"$9865875.36"},
{"NoOfRooms":1,"NoOfBathrooms":1,"SqFeet":8952,"Address1":"770 Meadow Valley Point","Address2":"PO Box 31710","City":"San Jose","State":"CA","Zip":"95150","Description":null,"SalesValue":"$848198.70"},
{"NoOfRooms":2,"NoOfBathrooms":3,"SqFeet":9708,"Address1":"6 Bunker Hill Place","Address2":"PO Box 2265","City":"Irvine","State":"CA","Zip":"92717","Description":null,"SalesValue":"$6681905.89"},
{"NoOfRooms":5,"NoOfBathrooms":3,"SqFeet":6059,"Address1":"9312 Delladonna Alley","Address2":"3rd Floor","City":"San Diego","State":"CA","Zip":"92121","Description":null,"SalesValue":"$4962415.78"},
{"NoOfRooms":1,"NoOfBathrooms":5,"SqFeet":4444,"Address1":"8203 Sundown Terrace","Address2":"Suite 78","City":"Santa Cruz","State":"CA","Zip":"95064","Description":null,"SalesValue":"$2472990.70"},
{"NoOfRooms":4,"NoOfBathrooms":5,"SqFeet":6199,"Address1":"7 Hazelcrest Junction","Address2":"PO Box 70201","City":"Irvine","State":"CA","Zip":"92710","Description":null,"SalesValue":"$8701267.22"},
{"NoOfRooms":3,"NoOfBathrooms":4,"SqFeet":6471,"Address1":"46 Petterle Drive","Address2":"Suite 10","City":"Santa Rosa","State":"CA","Zip":"95405","Description":null,"SalesValue":"$8975454.53"},
{"NoOfRooms":1,"NoOfBathrooms":1,"SqFeet":8273,"Address1":"7629 Mallard Terrace","Address2":"Room 634","City":"Berkeley","State":"CA","Zip":"94712","Description":null,"SalesValue":"$2412719.29"},
{"NoOfRooms":5,"NoOfBathrooms":2,"SqFeet":1262,"Address1":"8 Delaware Road","Address2":"11th Floor","City":"Pasadena","State":"CA","Zip":"91186","Description":null,"SalesValue":"$5272830.93"},
{"NoOfRooms":3,"NoOfBathrooms":4,"SqFeet":1147,"Address1":"5778 Southridge Point","Address2":"Suite 51","City":"Northridge","State":"CA","Zip":"91328","Description":null,"SalesValue":"$2259708.44"},
{"NoOfRooms":5,"NoOfBathrooms":1,"SqFeet":8888,"Address1":"5 Riverside Pass","Address2":"Suite 87","City":"Pasadena","State":"CA","Zip":"91199","Description":null,"SalesValue":"$7984457.21"},
{"NoOfRooms":1,"NoOfBathrooms":5,"SqFeet":2389,"Address1":"8100 Gina Park","Address2":"Room 736","City":"Oakland","State":"CA","Zip":"94622","Description":null,"SalesValue":"$5971556.06"},
{"NoOfRooms":5,"NoOfBathrooms":5,"SqFeet":1291,"Address1":"71 Service Drive","Address2":"Suite 4","City":"Fresno","State":"CA","Zip":"93740","Description":null,"SalesValue":"$3534114.20"},
{"NoOfRooms":5,"NoOfBathrooms":3,"SqFeet":8207,"Address1":"794 Miller Avenue","Address2":"18th Floor","City":"Burbank","State":"CA","Zip":"91505","Description":null,"SalesValue":"$9879097.41"},
{"NoOfRooms":3,"NoOfBathrooms":3,"SqFeet":7588,"Address1":"66326 Eastlawn Circle","Address2":"13th Floor","City":"Oakland","State":"CA","Zip":"94605","Description":null,"SalesValue":"$3533932.33"},
{"NoOfRooms":4,"NoOfBathrooms":1,"SqFeet":172,"Address1":"0000 Goodland Street","Address2":"Suite 41","City":"Oakland","State":"CA","Zip":"94611","Description":null,"SalesValue":"$1283885.19"},
{"NoOfRooms":2,"NoOfBathrooms":4,"SqFeet":7987,"Address1":"0065 Riverside Drive","Address2":"1st Floor","City":"San Francisco","State":"CA","Zip":"94110","Description":null,"SalesValue":"$2886515.00"},
{"NoOfRooms":4,"NoOfBathrooms":2,"SqFeet":128,"Address1":"74 Green Ridge Street","Address2":"Room 1271","City":"Los Angeles","State":"CA","Zip":"90020","Description":null,"SalesValue":"$9138239.67"},
{"NoOfRooms":3,"NoOfBathrooms":3,"SqFeet":8377,"Address1":"3670 Merry Road","Address2":"PO Box 57640","City":"Irvine","State":"CA","Zip":"92612","Description":null,"SalesValue":"$5594180.57"},
{"NoOfRooms":4,"NoOfBathrooms":1,"SqFeet":7486,"Address1":"1140 Forest Place","Address2":"Room 1958","City":"San Jose","State":"CA","Zip":"95113","Description":null,"SalesValue":"$6387331.60"},
{"NoOfRooms":4,"NoOfBathrooms":5,"SqFeet":1131,"Address1":"82 Center Point","Address2":"17th Floor","City":"San Diego","State":"CA","Zip":"92160","Description":null,"SalesValue":"$5952508.47"},
{"NoOfRooms":4,"NoOfBathrooms":3,"SqFeet":3534,"Address1":"600 Lerdahl Road","Address2":"Apt 944","City":"San Diego","State":"CA","Zip":"92186","Description":null,"SalesValue":"$2306112.61"},
{"NoOfRooms":2,"NoOfBathrooms":4,"SqFeet":5916,"Address1":"9 Tennyson Drive","Address2":"11th Floor","City":"Sacramento","State":"CA","Zip":"94286","Description":null,"SalesValue":"$4759799.37"},
{"NoOfRooms":4,"NoOfBathrooms":3,"SqFeet":5828,"Address1":"5 Packers Road","Address2":"Apt 293","City":"Mountain View","State":"CA","Zip":"94042","Description":null,"SalesValue":"$9017068.52"},
{"NoOfRooms":5,"NoOfBathrooms":3,"SqFeet":2724,"Address1":"13 Holmberg Way","Address2":"13th Floor","City":"Los Angeles","State":"CA","Zip":"90035","Description":null,"SalesValue":"$715297.90"},
{"NoOfRooms":1,"NoOfBathrooms":1,"SqFeet":7757,"Address1":"094 Kinsman Center","Address2":"Suite 40","City":"San Jose","State":"CA","Zip":"95194","Description":null,"SalesValue":"$772319.81"},
{"NoOfRooms":3,"NoOfBathrooms":5,"SqFeet":2838,"Address1":"81543 Acker Lane","Address2":"Apt 420","City":"Santa Monica","State":"CA","Zip":"90410","Description":null,"SalesValue":"$3368888.20"},
{"NoOfRooms":4,"NoOfBathrooms":4,"SqFeet":1191,"Address1":"295 Lotheville Parkway","Address2":"Room 1525","City":"Inglewood","State":"CA","Zip":"90398","Description":null,"SalesValue":"$2013703.25"},
{"NoOfRooms":2,"NoOfBathrooms":5,"SqFeet":5133,"Address1":"5546 Mcbride Drive","Address2":"Apt 713","City":"San Diego","State":"CA","Zip":"92165","Description":null,"SalesValue":"$4696927.27"},
{"NoOfRooms":2,"NoOfBathrooms":4,"SqFeet":2245,"Address1":"4571 Dryden Junction","Address2":"Apt 67","City":"San Diego","State":"CA","Zip":"92105","Description":null,"SalesValue":"$4646163.56"},
{"NoOfRooms":1,"NoOfBathrooms":3,"SqFeet":6089,"Address1":"1 Blackbird Avenue","Address2":"PO Box 6660","City":"Oakland","State":"CA","Zip":"94660","Description":null,"SalesValue":"$9121183.49"},
{"NoOfRooms":5,"NoOfBathrooms":2,"SqFeet":483,"Address1":"327 Texas Lane","Address2":"Apt 1740","City":"Bakersfield","State":"CA","Zip":"93399","Description":null,"SalesValue":"$8975570.07"},
{"NoOfRooms":2,"NoOfBathrooms":5,"SqFeet":9824,"Address1":"1599 Forster Alley","Address2":"Apt 334","City":"Alhambra","State":"CA","Zip":"91841","Description":null,"SalesValue":"$6149632.93"},
{"NoOfRooms":5,"NoOfBathrooms":4,"SqFeet":3843,"Address1":"28 Redwing Alley","Address2":"Apt 1031","City":"Sacramento","State":"CA","Zip":"94230","Description":null,"SalesValue":"$9294893.22"},
{"NoOfRooms":5,"NoOfBathrooms":2,"SqFeet":6988,"Address1":"92 Westerfield Parkway","Address2":"Apt 1800","City":"San Bernardino","State":"CA","Zip":"92424","Description":null,"SalesValue":"$9649250.83"},
{"NoOfRooms":3,"NoOfBathrooms":4,"SqFeet":7897,"Address1":"0614 7th Lane","Address2":"Apt 1580","City":"Stockton","State":"CA","Zip":"95219","Description":null,"SalesValue":"$2586930.84"},
{"NoOfRooms":2,"NoOfBathrooms":1,"SqFeet":8177,"Address1":"45501 Melody Place","Address2":"Apt 105","City":"Stockton","State":"CA","Zip":"95205","Description":null,"SalesValue":"$9832499.44"},
{"NoOfRooms":2,"NoOfBathrooms":4,"SqFeet":263,"Address1":"532 Birchwood Avenue","Address2":"6th Floor","City":"Santa Clara","State":"CA","Zip":"95054","Description":null,"SalesValue":"$9765084.78"},
{"NoOfRooms":5,"NoOfBathrooms":1,"SqFeet":3693,"Address1":"78291 Harbort Plaza","Address2":"PO Box 7217","City":"Salinas","State":"CA","Zip":"93907","Description":null,"SalesValue":"$6945501.76"},
{"NoOfRooms":2,"NoOfBathrooms":4,"SqFeet":8397,"Address1":"68 Basil Place","Address2":"Suite 49","City":"San Diego","State":"CA","Zip":"92176","Description":null,"SalesValue":"$8431343.80"},
{"NoOfRooms":4,"NoOfBathrooms":2,"SqFeet":6628,"Address1":"05121 Granby Circle","Address2":"19th Floor","City":"Salinas","State":"CA","Zip":"93907","Description":null,"SalesValue":"$3087948.75"},
{"NoOfRooms":2,"NoOfBathrooms":5,"SqFeet":107,"Address1":"43 Sage Trail","Address2":"Room 792","City":"Bakersfield","State":"CA","Zip":"93386","Description":null,"SalesValue":"$7703504.53"},
{"NoOfRooms":2,"NoOfBathrooms":4,"SqFeet":2070,"Address1":"6584 Trailsway Alley","Address2":"Apt 1245","City":"Anaheim","State":"CA","Zip":"92812","Description":null,"SalesValue":"$7028126.28"},
{"NoOfRooms":1,"NoOfBathrooms":4,"SqFeet":6398,"Address1":"5 Crest Line Alley","Address2":"6th Floor","City":"Whittier","State":"CA","Zip":"90610","Description":null,"SalesValue":"$9822190.02"},
{"NoOfRooms":2,"NoOfBathrooms":4,"SqFeet":4565,"Address1":"625 Bobwhite Place","Address2":"PO Box 29713","City":"Van Nuys","State":"CA","Zip":"91406","Description":null,"SalesValue":"$7183167.01"},
{"NoOfRooms":3,"NoOfBathrooms":1,"SqFeet":1044,"Address1":"9 Packers Alley","Address2":"Apt 1875","City":"Riverside","State":"CA","Zip":"92513","Description":null,"SalesValue":"$6757517.03"},
{"NoOfRooms":2,"NoOfBathrooms":1,"SqFeet":9529,"Address1":"8 Goodland Road","Address2":"PO Box 38026","City":"San Diego","State":"CA","Zip":"92127","Description":null,"SalesValue":"$2288307.80"},
{"NoOfRooms":1,"NoOfBathrooms":1,"SqFeet":9009,"Address1":"8664 Lukken Hill","Address2":"Apt 64","City":"San Luis Obispo","State":"CA","Zip":"93407","Description":null,"SalesValue":"$1532437.65"},
{"NoOfRooms":4,"NoOfBathrooms":4,"SqFeet":4885,"Address1":"0 Crescent Oaks Junction","Address2":"Apt 1580","City":"San Jose","State":"CA","Zip":"95138","Description":null,"SalesValue":"$2764025.81"},
{"NoOfRooms":5,"NoOfBathrooms":3,"SqFeet":872,"Address1":"3802 Carpenter Drive","Address2":"Room 329","City":"Newport Beach","State":"CA","Zip":"92662","Description":null,"SalesValue":"$1492116.38"},
{"NoOfRooms":4,"NoOfBathrooms":1,"SqFeet":2695,"Address1":"52494 Melvin Park","Address2":"PO Box 63984","City":"San Jose","State":"CA","Zip":"95133","Description":null,"SalesValue":"$8336053.90"},
{"NoOfRooms":3,"NoOfBathrooms":4,"SqFeet":2341,"Address1":"02 Blackbird Hill","Address2":"9th Floor","City":"South Lake Tahoe","State":"CA","Zip":"96154","Description":null,"SalesValue":"$2435889.94"},
{"NoOfRooms":2,"NoOfBathrooms":2,"SqFeet":1135,"Address1":"27 Kipling Center","Address2":"Apt 1606","City":"Modesto","State":"CA","Zip":"95354","Description":null,"SalesValue":"$7968208.32"},
{"NoOfRooms":4,"NoOfBathrooms":5,"SqFeet":4324,"Address1":"8 Grover Center","Address2":"10th Floor","City":"San Francisco","State":"CA","Zip":"94147","Description":null,"SalesValue":"$6423256.89"},
{"NoOfRooms":5,"NoOfBathrooms":3,"SqFeet":4867,"Address1":"49624 Westend Road","Address2":"Room 6","City":"Santa Ana","State":"CA","Zip":"92705","Description":null,"SalesValue":"$9919731.57"},
{"NoOfRooms":3,"NoOfBathrooms":1,"SqFeet":1548,"Address1":"04 Norway Maple Drive","Address2":"Apt 35","City":"Los Angeles","State":"CA","Zip":"90015","Description":null,"SalesValue":"$3998339.95"},
{"NoOfRooms":5,"NoOfBathrooms":1,"SqFeet":1367,"Address1":"9 Old Shore Alley","Address2":"Apt 1749","City":"San Diego","State":"CA","Zip":"92170","Description":null,"SalesValue":"$3587138.29"},
{"NoOfRooms":3,"NoOfBathrooms":1,"SqFeet":7013,"Address1":"87 Scoville Place","Address2":"Suite 97","City":"Huntington Beach","State":"CA","Zip":"92648","Description":null,"SalesValue":"$3981160.18"},
{"NoOfRooms":4,"NoOfBathrooms":4,"SqFeet":7796,"Address1":"559 Nobel Way","Address2":"Room 132","City":"San Francisco","State":"CA","Zip":"94159","Description":null,"SalesValue":"$6165336.74"},
{"NoOfRooms":4,"NoOfBathrooms":4,"SqFeet":7178,"Address1":"2 Ridge Oak Junction","Address2":"PO Box 24650","City":"Oceanside","State":"CA","Zip":"92056","Description":null,"SalesValue":"$1654289.63"},
{"NoOfRooms":3,"NoOfBathrooms":3,"SqFeet":1963,"Address1":"5462 Arapahoe Avenue","Address2":"Room 1006","City":"Fresno","State":"CA","Zip":"93726","Description":null,"SalesValue":"$1014450.67"},
{"NoOfRooms":3,"NoOfBathrooms":3,"SqFeet":2228,"Address1":"57661 Thierer Court","Address2":"Suite 22","City":"Chula Vista","State":"CA","Zip":"91913","Description":null,"SalesValue":"$3643336.40"},
{"NoOfRooms":3,"NoOfBathrooms":3,"SqFeet":5908,"Address1":"21541 Anniversary Place","Address2":"Room 770","City":"Fresno","State":"CA","Zip":"93762","Description":null,"SalesValue":"$2019359.72"},
{"NoOfRooms":3,"NoOfBathrooms":2,"SqFeet":8364,"Address1":"79149 Little Fleur Alley","Address2":"PO Box 77146","City":"South Lake Tahoe","State":"CA","Zip":"96154","Description":null,"SalesValue":"$6676554.20"},
{"NoOfRooms":2,"NoOfBathrooms":4,"SqFeet":3078,"Address1":"7296 Bellgrove Terrace","Address2":"Apt 1365","City":"Sacramento","State":"CA","Zip":"95813","Description":null,"SalesValue":"$3098689.42"},
{"NoOfRooms":5,"NoOfBathrooms":2,"SqFeet":8935,"Address1":"195 Fulton Pass","Address2":"Room 1719","City":"Santa Cruz","State":"CA","Zip":"95064","Description":null,"SalesValue":"$7265074.39"},
{"NoOfRooms":2,"NoOfBathrooms":2,"SqFeet":7905,"Address1":"8 Express Drive","Address2":"PO Box 87018","City":"Stockton","State":"CA","Zip":"95298","Description":null,"SalesValue":"$7523908.49"},
{"NoOfRooms":3,"NoOfBathrooms":3,"SqFeet":616,"Address1":"727 Esch Avenue","Address2":"PO Box 33215","City":"San Jose","State":"CA","Zip":"95160","Description":null,"SalesValue":"$3881231.78"},
{"NoOfRooms":4,"NoOfBathrooms":5,"SqFeet":5272,"Address1":"3 Evergreen Court","Address2":"Suite 89","City":"Fresno","State":"CA","Zip":"93715","Description":null,"SalesValue":"$1054449.12"},
{"NoOfRooms":1,"NoOfBathrooms":1,"SqFeet":8451,"Address1":"2 Messerschmidt Road","Address2":"Suite 30","City":"Simi Valley","State":"CA","Zip":"93094","Description":null,"SalesValue":"$3242556.68"},
{"NoOfRooms":4,"NoOfBathrooms":1,"SqFeet":8378,"Address1":"5927 Mendota Avenue","Address2":"19th Floor","City":"Irvine","State":"CA","Zip":"92612","Description":null,"SalesValue":"$9467272.68"},
{"NoOfRooms":5,"NoOfBathrooms":2,"SqFeet":1799,"Address1":"06 Bluestem Park","Address2":"Room 1212","City":"Long Beach","State":"CA","Zip":"90805","Description":null,"SalesValue":"$6089234.68"},
{"NoOfRooms":5,"NoOfBathrooms":5,"SqFeet":309,"Address1":"532 Coolidge Parkway","Address2":"Apt 946","City":"Irvine","State":"CA","Zip":"92619","Description":null,"SalesValue":"$6323070.55"},
{"NoOfRooms":2,"NoOfBathrooms":2,"SqFeet":5053,"Address1":"5894 Towne Avenue","Address2":"Suite 22","City":"Long Beach","State":"CA","Zip":"90847","Description":null,"SalesValue":"$932895.00"},
{"NoOfRooms":1,"NoOfBathrooms":4,"SqFeet":7722,"Address1":"82885 Canary Trail","Address2":"PO Box 1498","City":"San Diego","State":"CA","Zip":"92170","Description":null,"SalesValue":"$9999672.21"},
{"NoOfRooms":4,"NoOfBathrooms":2,"SqFeet":4509,"Address1":"062 Dahle Circle","Address2":"Room 719","City":"Palo Alto","State":"CA","Zip":"94302","Description":null,"SalesValue":"$655333.18"},
{"NoOfRooms":3,"NoOfBathrooms":5,"SqFeet":1342,"Address1":"164 Eliot Drive","Address2":"Apt 764","City":"Oxnard","State":"CA","Zip":"93034","Description":null,"SalesValue":"$5383706.61"},
{"NoOfRooms":1,"NoOfBathrooms":5,"SqFeet":6637,"Address1":"11 Esker Street","Address2":"Suite 73","City":"Sacramento","State":"CA","Zip":"95852","Description":null,"SalesValue":"$2711525.10"},
{"NoOfRooms":5,"NoOfBathrooms":2,"SqFeet":919,"Address1":"1 Maple Center","Address2":"PO Box 50888","City":"Sacramento","State":"CA","Zip":"94257","Description":null,"SalesValue":"$6571998.24"},
{"NoOfRooms":5,"NoOfBathrooms":3,"SqFeet":1943,"Address1":"54034 Gateway Alley","Address2":"Suite 57","City":"Sacramento","State":"CA","Zip":"95852","Description":null,"SalesValue":"$684262.63"},
{"NoOfRooms":1,"NoOfBathrooms":1,"SqFeet":6893,"Address1":"83 Maryland Place","Address2":"Room 721","City":"Van Nuys","State":"CA","Zip":"91406","Description":null,"SalesValue":"$3552869.16"},
{"NoOfRooms":1,"NoOfBathrooms":1,"SqFeet":7810,"Address1":"3 Raven Junction","Address2":"PO Box 8000","City":"Sacramento","State":"CA","Zip":"95823","Description":null,"SalesValue":"$8406291.60"},
{"NoOfRooms":4,"NoOfBathrooms":5,"SqFeet":4759,"Address1":"3854 Oxford Court","Address2":"Room 702","City":"Santa Cruz","State":"CA","Zip":"95064","Description":null,"SalesValue":"$8253409.67"},
{"NoOfRooms":3,"NoOfBathrooms":4,"SqFeet":7034,"Address1":"69063 Mosinee Circle","Address2":"Room 1613","City":"Sunnyvale","State":"CA","Zip":"94089","Description":null,"SalesValue":"$5970428.69"},
{"NoOfRooms":2,"NoOfBathrooms":3,"SqFeet":4115,"Address1":"2 Hallows Hill","Address2":"9th Floor","City":"Santa Barbara","State":"CA","Zip":"93106","Description":null,"SalesValue":"$6655861.09"},
{"NoOfRooms":4,"NoOfBathrooms":3,"SqFeet":9602,"Address1":"59449 Erie Road","Address2":"Suite 11","City":"Long Beach","State":"CA","Zip":"90847","Description":null,"SalesValue":"$8296915.61"},
{"NoOfRooms":3,"NoOfBathrooms":2,"SqFeet":5083,"Address1":"6518 Debra Street","Address2":"Suite 17","City":"Los Angeles","State":"CA","Zip":"90065","Description":null,"SalesValue":"$800502.64"},
{"NoOfRooms":4,"NoOfBathrooms":3,"SqFeet":323,"Address1":"06641 Surrey Hill","Address2":"Apt 1152","City":"San Jose","State":"CA","Zip":"95118","Description":null,"SalesValue":"$3332063.02"},
{"NoOfRooms":3,"NoOfBathrooms":3,"SqFeet":5183,"Address1":"10622 Myrtle Center","Address2":"Suite 62","City":"Bakersfield","State":"CA","Zip":"93386","Description":null,"SalesValue":"$8963371.37"},
{"NoOfRooms":4,"NoOfBathrooms":4,"SqFeet":6678,"Address1":"7 Vernon Plaza","Address2":"Suite 63","City":"Fresno","State":"CA","Zip":"93726","Description":null,"SalesValue":"$2459592.32"},
{"NoOfRooms":4,"NoOfBathrooms":3,"SqFeet":8418,"Address1":"0 Mariners Cove Center","Address2":"8th Floor","City":"Riverside","State":"CA","Zip":"92513","Description":null,"SalesValue":"$1618829.84"},
{"NoOfRooms":2,"NoOfBathrooms":1,"SqFeet":2279,"Address1":"2 Cascade Court","Address2":"13th Floor","City":"San Francisco","State":"CA","Zip":"94164","Description":null,"SalesValue":"$1181113.46"},
{"NoOfRooms":2,"NoOfBathrooms":4,"SqFeet":841,"Address1":"2 Kim Pass","Address2":"Apt 542","City":"Irvine","State":"CA","Zip":"92619","Description":null,"SalesValue":"$8600017.39"},
{"NoOfRooms":4,"NoOfBathrooms":3,"SqFeet":4003,"Address1":"75 5th Circle","Address2":"Apt 1179","City":"San Francisco","State":"CA","Zip":"94121","Description":null,"SalesValue":"$3175550.03"},
{"NoOfRooms":1,"NoOfBathrooms":3,"SqFeet":4487,"Address1":"935 Burning Wood Lane","Address2":"Apt 1412","City":"San Bernardino","State":"CA","Zip":"92405","Description":null,"SalesValue":"$5492467.96"},
{"NoOfRooms":2,"NoOfBathrooms":3,"SqFeet":4481,"Address1":"47 Vera Court","Address2":"PO Box 49603","City":"Inglewood","State":"CA","Zip":"90305","Description":null,"SalesValue":"$3406104.34"},
{"NoOfRooms":4,"NoOfBathrooms":5,"SqFeet":4167,"Address1":"5437 Golf Drive","Address2":"Suite 21","City":"Long Beach","State":"CA","Zip":"90840","Description":null,"SalesValue":"$5951492.67"},
{"NoOfRooms":4,"NoOfBathrooms":3,"SqFeet":6489,"Address1":"64 Meadow Ridge Pass","Address2":"5th Floor","City":"Fresno","State":"CA","Zip":"93704","Description":null,"SalesValue":"$5635337.25"},
{"NoOfRooms":3,"NoOfBathrooms":5,"SqFeet":3326,"Address1":"3 Cardinal Lane","Address2":"Suite 46","City":"San Luis Obispo","State":"CA","Zip":"93407","Description":null,"SalesValue":"$4436298.68"},
{"NoOfRooms":4,"NoOfBathrooms":1,"SqFeet":3225,"Address1":"426 Manley Junction","Address2":"PO Box 30126","City":"Oakland","State":"CA","Zip":"94622","Description":null,"SalesValue":"$6442878.27"},
{"NoOfRooms":5,"NoOfBathrooms":4,"SqFeet":2729,"Address1":"319 Porter Drive","Address2":"PO Box 38024","City":"Los Angeles","State":"CA","Zip":"90087","Description":null,"SalesValue":"$7080155.25"},
{"NoOfRooms":1,"NoOfBathrooms":4,"SqFeet":3378,"Address1":"99 Arizona Circle","Address2":"PO Box 78556","City":"Irvine","State":"CA","Zip":"92612","Description":null,"SalesValue":"$6232671.65"},
{"NoOfRooms":1,"NoOfBathrooms":3,"SqFeet":2566,"Address1":"37 Green Ridge Way","Address2":"9th Floor","City":"San Francisco","State":"CA","Zip":"94110","Description":null,"SalesValue":"$9109544.67"},
{"NoOfRooms":1,"NoOfBathrooms":4,"SqFeet":5570,"Address1":"044 Holy Cross Center","Address2":"PO Box 55519","City":"Los Angeles","State":"CA","Zip":"90101","Description":null,"SalesValue":"$1869208.80"},
{"NoOfRooms":5,"NoOfBathrooms":4,"SqFeet":3940,"Address1":"5 Golden Leaf Hill","Address2":"Apt 203","City":"Sacramento","State":"CA","Zip":"94286","Description":null,"SalesValue":"$8753819.05"},
{"NoOfRooms":4,"NoOfBathrooms":5,"SqFeet":5251,"Address1":"05257 Holmberg Lane","Address2":"Apt 1995","City":"Hayward","State":"CA","Zip":"94544","Description":null,"SalesValue":"$6586962.28"},
{"NoOfRooms":2,"NoOfBathrooms":4,"SqFeet":1192,"Address1":"99557 Everett Court","Address2":"PO Box 25376","City":"San Luis Obispo","State":"CA","Zip":"93407","Description":null,"SalesValue":"$9647851.41"},
{"NoOfRooms":4,"NoOfBathrooms":3,"SqFeet":8030,"Address1":"6093 Clarendon Lane","Address2":"Suite 16","City":"Fresno","State":"CA","Zip":"93778","Description":null,"SalesValue":"$1810919.40"},
{"NoOfRooms":3,"NoOfBathrooms":1,"SqFeet":7898,"Address1":"700 Vahlen Circle","Address2":"PO Box 29651","City":"Los Angeles","State":"CA","Zip":"90065","Description":null,"SalesValue":"$3785035.95"},
{"NoOfRooms":5,"NoOfBathrooms":1,"SqFeet":8931,"Address1":"13 Macpherson Drive","Address2":"PO Box 68121","City":"Bakersfield","State":"CA","Zip":"93399","Description":null,"SalesValue":"$2293038.43"},
{"NoOfRooms":4,"NoOfBathrooms":5,"SqFeet":4824,"Address1":"83474 Linden Parkway","Address2":"Suite 15","City":"Sacramento","State":"CA","Zip":"94257","Description":null,"SalesValue":"$6609136.04"},
{"NoOfRooms":1,"NoOfBathrooms":2,"SqFeet":2772,"Address1":"090 Butternut Way","Address2":"Room 424","City":"Fresno","State":"CA","Zip":"93773","Description":null,"SalesValue":"$886744.96"},
{"NoOfRooms":4,"NoOfBathrooms":2,"SqFeet":7408,"Address1":"9565 Brown Avenue","Address2":"Room 353","City":"San Diego","State":"CA","Zip":"92110","Description":null,"SalesValue":"$5322966.31"},
{"NoOfRooms":5,"NoOfBathrooms":5,"SqFeet":3137,"Address1":"562 Rowland Center","Address2":"Room 1524","City":"San Francisco","State":"CA","Zip":"94159","Description":null,"SalesValue":"$3512121.84"},
{"NoOfRooms":2,"NoOfBathrooms":5,"SqFeet":5880,"Address1":"412 Towne Parkway","Address2":"Apt 1727","City":"Santa Barbara","State":"CA","Zip":"93150","Description":null,"SalesValue":"$1755834.46"},
{"NoOfRooms":4,"NoOfBathrooms":2,"SqFeet":9136,"Address1":"09 Continental Court","Address2":"Suite 96","City":"Pasadena","State":"CA","Zip":"91131","Description":null,"SalesValue":"$7794064.31"},
{"NoOfRooms":2,"NoOfBathrooms":2,"SqFeet":6912,"Address1":"995 Caliangt Place","Address2":"8th Floor","City":"San Diego","State":"CA","Zip":"92186","Description":null,"SalesValue":"$6263214.82"},
{"NoOfRooms":5,"NoOfBathrooms":4,"SqFeet":8102,"Address1":"724 Oxford Point","Address2":"Apt 1743","City":"Stockton","State":"CA","Zip":"95298","Description":null,"SalesValue":"$2518062.93"},
{"NoOfRooms":1,"NoOfBathrooms":3,"SqFeet":2774,"Address1":"31626 Briar Crest Hill","Address2":"10th Floor","City":"San Jose","State":"CA","Zip":"95160","Description":null,"SalesValue":"$6700989.79"},
{"NoOfRooms":4,"NoOfBathrooms":5,"SqFeet":2317,"Address1":"48 Shopko Circle","Address2":"PO Box 52517","City":"Fresno","State":"CA","Zip":"93726","Description":null,"SalesValue":"$8726386.14"},
{"NoOfRooms":5,"NoOfBathrooms":2,"SqFeet":6760,"Address1":"5335 Merrick Park","Address2":"Apt 465","City":"Long Beach","State":"CA","Zip":"90847","Description":null,"SalesValue":"$4244218.61"},
{"NoOfRooms":3,"NoOfBathrooms":1,"SqFeet":6925,"Address1":"5 Ridge Oak Point","Address2":"Apt 515","City":"San Jose","State":"CA","Zip":"95160","Description":null,"SalesValue":"$9540407.49"},
{"NoOfRooms":2,"NoOfBathrooms":4,"SqFeet":5341,"Address1":"448 Menomonie Hill","Address2":"Apt 226","City":"South Lake Tahoe","State":"CA","Zip":"96154","Description":null,"SalesValue":"$7864977.36"},
{"NoOfRooms":2,"NoOfBathrooms":3,"SqFeet":5216,"Address1":"788 Norway Maple Pass","Address2":"Apt 1810","City":"Torrance","State":"CA","Zip":"90505","Description":null,"SalesValue":"$9590824.60"},
{"NoOfRooms":5,"NoOfBathrooms":4,"SqFeet":8765,"Address1":"733 Meadow Ridge Parkway","Address2":"10th Floor","City":"San Francisco","State":"CA","Zip":"94126","Description":null,"SalesValue":"$7725671.36"},
{"NoOfRooms":3,"NoOfBathrooms":3,"SqFeet":6695,"Address1":"775 Butterfield Avenue","Address2":"Suite 74","City":"Oxnard","State":"CA","Zip":"93034","Description":null,"SalesValue":"$8209706.64"},
{"NoOfRooms":1,"NoOfBathrooms":4,"SqFeet":1135,"Address1":"66 Beilfuss Center","Address2":"Room 1502","City":"Santa Barbara","State":"CA","Zip":"93150","Description":null,"SalesValue":"$7708989.11"},
{"NoOfRooms":3,"NoOfBathrooms":2,"SqFeet":2816,"Address1":"59 Katie Lane","Address2":"Room 1014","City":"San Francisco","State":"CA","Zip":"94137","Description":null,"SalesValue":"$3951726.14"},
{"NoOfRooms":5,"NoOfBathrooms":1,"SqFeet":4052,"Address1":"6 Orin Plaza","Address2":"Apt 1302","City":"Inglewood","State":"CA","Zip":"90310","Description":null,"SalesValue":"$6942359.59"},
{"NoOfRooms":3,"NoOfBathrooms":3,"SqFeet":2915,"Address1":"04 Anzinger Point","Address2":"Apt 1765","City":"Concord","State":"CA","Zip":"94522","Description":null,"SalesValue":"$2766787.76"},
{"NoOfRooms":3,"NoOfBathrooms":5,"SqFeet":2318,"Address1":"58 Leroy Lane","Address2":"Room 261","City":"Carlsbad","State":"CA","Zip":"92013","Description":null,"SalesValue":"$8811480.83"},
{"NoOfRooms":2,"NoOfBathrooms":3,"SqFeet":8801,"Address1":"09812 Northland Terrace","Address2":"Suite 36","City":"Pasadena","State":"CA","Zip":"91125","Description":null,"SalesValue":"$3437754.38"},
{"NoOfRooms":4,"NoOfBathrooms":4,"SqFeet":7324,"Address1":"65100 Erie Avenue","Address2":"PO Box 41849","City":"Sacramento","State":"CA","Zip":"94286","Description":null,"SalesValue":"$7418261.56"},
{"NoOfRooms":5,"NoOfBathrooms":5,"SqFeet":7490,"Address1":"5 Emmet Circle","Address2":"Room 1430","City":"San Francisco","State":"CA","Zip":"94169","Description":null,"SalesValue":"$1954339.87"},
{"NoOfRooms":4,"NoOfBathrooms":5,"SqFeet":2897,"Address1":"09143 Green Hill","Address2":"PO Box 59018","City":"Alhambra","State":"CA","Zip":"91841","Description":null,"SalesValue":"$1613532.81"},
{"NoOfRooms":4,"NoOfBathrooms":5,"SqFeet":5629,"Address1":"9288 Green Court","Address2":"PO Box 85396","City":"San Jose","State":"CA","Zip":"95123","Description":null,"SalesValue":"$6611519.62"},
{"NoOfRooms":3,"NoOfBathrooms":2,"SqFeet":8163,"Address1":"5 Old Gate Way","Address2":"5th Floor","City":"Sacramento","State":"CA","Zip":"95894","Description":null,"SalesValue":"$3050479.78"},
{"NoOfRooms":4,"NoOfBathrooms":1,"SqFeet":3014,"Address1":"04 Warbler Street","Address2":"19th Floor","City":"Pasadena","State":"CA","Zip":"91103","Description":null,"SalesValue":"$7642095.60"},
{"NoOfRooms":3,"NoOfBathrooms":5,"SqFeet":8482,"Address1":"83 Banding Place","Address2":"Apt 1193","City":"San Francisco","State":"CA","Zip":"94147","Description":null,"SalesValue":"$7408419.95"},
{"NoOfRooms":5,"NoOfBathrooms":3,"SqFeet":6788,"Address1":"62696 Bobwhite Court","Address2":"Suite 93","City":"Los Angeles","State":"CA","Zip":"90189","Description":null,"SalesValue":"$5196318.40"},
{"NoOfRooms":3,"NoOfBathrooms":4,"SqFeet":5916,"Address1":"833 Twin Pines Point","Address2":"Room 1015","City":"Sacramento","State":"CA","Zip":"94207","Description":null,"SalesValue":"$2801601.30"},
{"NoOfRooms":5,"NoOfBathrooms":3,"SqFeet":7568,"Address1":"24 Hazelcrest Parkway","Address2":"10th Floor","City":"San Diego","State":"CA","Zip":"92115","Description":null,"SalesValue":"$653086.79"},
{"NoOfRooms":1,"NoOfBathrooms":2,"SqFeet":3075,"Address1":"92 Autumn Leaf Avenue","Address2":"Suite 1","City":"Santa Monica","State":"CA","Zip":"90405","Description":null,"SalesValue":"$5682705.47"},
{"NoOfRooms":4,"NoOfBathrooms":4,"SqFeet":189,"Address1":"69 Trailsway Drive","Address2":"16th Floor","City":"Sacramento","State":"CA","Zip":"94257","Description":null,"SalesValue":"$6854347.91"},
{"NoOfRooms":2,"NoOfBathrooms":5,"SqFeet":9613,"Address1":"1555 Green Road","Address2":"Apt 1188","City":"San Diego","State":"CA","Zip":"92176","Description":null,"SalesValue":"$3123255.94"},
{"NoOfRooms":5,"NoOfBathrooms":1,"SqFeet":4641,"Address1":"5097 Rieder Lane","Address2":"Suite 10","City":"Lancaster","State":"CA","Zip":"93584","Description":null,"SalesValue":"$8967295.29"},
{"NoOfRooms":4,"NoOfBathrooms":1,"SqFeet":1686,"Address1":"81 Boyd Junction","Address2":"PO Box 98696","City":"Sacramento","State":"CA","Zip":"94273","Description":null,"SalesValue":"$2786417.58"},
{"NoOfRooms":2,"NoOfBathrooms":1,"SqFeet":6344,"Address1":"78 Rutledge Circle","Address2":"PO Box 7088","City":"Sacramento","State":"CA","Zip":"95833","Description":null,"SalesValue":"$5123343.14"},
{"NoOfRooms":2,"NoOfBathrooms":2,"SqFeet":509,"Address1":"079 David Avenue","Address2":"12th Floor","City":"San Francisco","State":"CA","Zip":"94154","Description":null,"SalesValue":"$1131188.07"},
{"NoOfRooms":5,"NoOfBathrooms":5,"SqFeet":4484,"Address1":"1 Reinke Crossing","Address2":"Apt 1909","City":"San Jose","State":"CA","Zip":"95155","Description":null,"SalesValue":"$5198984.91"},
{"NoOfRooms":3,"NoOfBathrooms":4,"SqFeet":1511,"Address1":"473 Redwing Point","Address2":"PO Box 1933","City":"Moreno Valley","State":"CA","Zip":"92555","Description":null,"SalesValue":"$3036100.56"},
{"NoOfRooms":5,"NoOfBathrooms":5,"SqFeet":8268,"Address1":"0254 Northview Trail","Address2":"Apt 511","City":"Santa Clara","State":"CA","Zip":"95054","Description":null,"SalesValue":"$1857938.50"},
{"NoOfRooms":4,"NoOfBathrooms":4,"SqFeet":846,"Address1":"09 Browning Lane","Address2":"2nd Floor","City":"San Diego","State":"CA","Zip":"92186","Description":null,"SalesValue":"$977999.97"},
{"NoOfRooms":5,"NoOfBathrooms":2,"SqFeet":633,"Address1":"16953 Orin Alley","Address2":"Suite 80","City":"Los Angeles","State":"CA","Zip":"90025","Description":null,"SalesValue":"$2013171.46"},
{"NoOfRooms":5,"NoOfBathrooms":5,"SqFeet":5056,"Address1":"8038 Northland Circle","Address2":"Apt 206","City":"Corona","State":"CA","Zip":"92878","Description":null,"SalesValue":"$8018075.96"},
{"NoOfRooms":3,"NoOfBathrooms":1,"SqFeet":8634,"Address1":"89 David Center","Address2":"PO Box 23257","City":"Bakersfield","State":"CA","Zip":"93399","Description":null,"SalesValue":"$6132037.67"},
{"NoOfRooms":2,"NoOfBathrooms":3,"SqFeet":7857,"Address1":"695 8th Trail","Address2":"Room 463","City":"San Francisco","State":"CA","Zip":"94169","Description":null,"SalesValue":"$8530976.89"},
{"NoOfRooms":4,"NoOfBathrooms":5,"SqFeet":2981,"Address1":"91 Schmedeman Parkway","Address2":"7th Floor","City":"Simi Valley","State":"CA","Zip":"93094","Description":null,"SalesValue":"$3737504.70"},
{"NoOfRooms":3,"NoOfBathrooms":2,"SqFeet":7547,"Address1":"65 Butterfield Lane","Address2":"8th Floor","City":"San Diego","State":"CA","Zip":"92176","Description":null,"SalesValue":"$980839.35"},
{"NoOfRooms":2,"NoOfBathrooms":3,"SqFeet":6690,"Address1":"6 Crest Line Court","Address2":"Room 584","City":"San Francisco","State":"CA","Zip":"94110","Description":null,"SalesValue":"$6638850.30"},
{"NoOfRooms":4,"NoOfBathrooms":4,"SqFeet":7382,"Address1":"76127 Gateway Center","Address2":"PO Box 49782","City":"Pasadena","State":"CA","Zip":"91199","Description":null,"SalesValue":"$8179623.36"},
{"NoOfRooms":2,"NoOfBathrooms":5,"SqFeet":1328,"Address1":"7146 Lawn Point","Address2":"Suite 67","City":"Sacramento","State":"CA","Zip":"94297","Description":null,"SalesValue":"$1651846.84"},
{"NoOfRooms":4,"NoOfBathrooms":4,"SqFeet":5517,"Address1":"83 Hooker Lane","Address2":"7th Floor","City":"San Jose","State":"CA","Zip":"95138","Description":null,"SalesValue":"$6452946.17"},
{"NoOfRooms":1,"NoOfBathrooms":5,"SqFeet":4580,"Address1":"6 John Wall Terrace","Address2":"PO Box 745","City":"Oakland","State":"CA","Zip":"94627","Description":null,"SalesValue":"$5318868.86"},
{"NoOfRooms":5,"NoOfBathrooms":4,"SqFeet":5960,"Address1":"14 Bartillon Plaza","Address2":"20th Floor","City":"Stockton","State":"CA","Zip":"95298","Description":null,"SalesValue":"$7951613.86"},
{"NoOfRooms":4,"NoOfBathrooms":4,"SqFeet":3787,"Address1":"9 Gina Park","Address2":"Apt 70","City":"Orange","State":"CA","Zip":"92862","Description":null,"SalesValue":"$4883368.15"},
{"NoOfRooms":5,"NoOfBathrooms":4,"SqFeet":5061,"Address1":"788 Sherman Avenue","Address2":"Room 476","City":"Los Angeles","State":"CA","Zip":"90065","Description":null,"SalesValue":"$1476985.38"},
{"NoOfRooms":5,"NoOfBathrooms":5,"SqFeet":6092,"Address1":"8 Daystar Terrace","Address2":"Apt 179","City":"Brea","State":"CA","Zip":"92822","Description":null,"SalesValue":"$3549997.22"},
{"NoOfRooms":3,"NoOfBathrooms":3,"SqFeet":3367,"Address1":"38927 Quincy Junction","Address2":"PO Box 25324","City":"South Lake Tahoe","State":"CA","Zip":"96154","Description":null,"SalesValue":"$7028051.74"},
{"NoOfRooms":5,"NoOfBathrooms":3,"SqFeet":6062,"Address1":"109 Valley Edge Lane","Address2":"2nd Floor","City":"Long Beach","State":"CA","Zip":"90831","Description":null,"SalesValue":"$6141698.73"},
{"NoOfRooms":4,"NoOfBathrooms":4,"SqFeet":4527,"Address1":"46102 Sugar Lane","Address2":"Room 391","City":"Los Angeles","State":"CA","Zip":"90065","Description":null,"SalesValue":"$7188736.16"},
{"NoOfRooms":4,"NoOfBathrooms":4,"SqFeet":3733,"Address1":"58 Banding Way","Address2":"20th Floor","City":"Fresno","State":"CA","Zip":"93715","Description":null,"SalesValue":"$2500718.73"},
{"NoOfRooms":1,"NoOfBathrooms":3,"SqFeet":5326,"Address1":"19112 Elka Circle","Address2":"PO Box 4279","City":"Chico","State":"CA","Zip":"95973","Description":null,"SalesValue":"$6477250.82"},
{"NoOfRooms":4,"NoOfBathrooms":1,"SqFeet":8714,"Address1":"5433 Jay Circle","Address2":"14th Floor","City":"South Lake Tahoe","State":"CA","Zip":"96154","Description":null,"SalesValue":"$7217528.41"},
{"NoOfRooms":2,"NoOfBathrooms":1,"SqFeet":5150,"Address1":"9349 Utah Road","Address2":"Suite 73","City":"Concord","State":"CA","Zip":"94522","Description":null,"SalesValue":"$3852024.66"},
{"NoOfRooms":4,"NoOfBathrooms":2,"SqFeet":216,"Address1":"3869 Pawling Plaza","Address2":"PO Box 35696","City":"Fresno","State":"CA","Zip":"93762","Description":null,"SalesValue":"$8187240.80"},
{"NoOfRooms":3,"NoOfBathrooms":1,"SqFeet":6666,"Address1":"20 Grim Court","Address2":"Room 1160","City":"Santa Clara","State":"CA","Zip":"95054","Description":null,"SalesValue":"$6339080.95"},
{"NoOfRooms":1,"NoOfBathrooms":3,"SqFeet":1416,"Address1":"2773 Di Loreto Terrace","Address2":"PO Box 86277","City":"Hayward","State":"CA","Zip":"94544","Description":null,"SalesValue":"$6560655.16"},
{"NoOfRooms":5,"NoOfBathrooms":3,"SqFeet":6909,"Address1":"8652 Anderson Avenue","Address2":"PO Box 86241","City":"Van Nuys","State":"CA","Zip":"91406","Description":null,"SalesValue":"$4996352.90"},
{"NoOfRooms":2,"NoOfBathrooms":3,"SqFeet":1589,"Address1":"344 Carey Court","Address2":"8th Floor","City":"Los Angeles","State":"CA","Zip":"90065","Description":null,"SalesValue":"$5496761.16"},
{"NoOfRooms":5,"NoOfBathrooms":5,"SqFeet":6246,"Address1":"5201 Hagan Drive","Address2":"Room 343","City":"Anaheim","State":"CA","Zip":"92825","Description":null,"SalesValue":"$5513324.45"},
{"NoOfRooms":1,"NoOfBathrooms":1,"SqFeet":4892,"Address1":"1104 Truax Point","Address2":"Apt 519","City":"Whittier","State":"CA","Zip":"90605","Description":null,"SalesValue":"$8719600.24"},
{"NoOfRooms":2,"NoOfBathrooms":3,"SqFeet":6199,"Address1":"65098 Holmberg Junction","Address2":"PO Box 94999","City":"Oakland","State":"CA","Zip":"94611","Description":null,"SalesValue":"$7128474.14"},
{"NoOfRooms":1,"NoOfBathrooms":1,"SqFeet":4418,"Address1":"0911 Buena Vista Lane","Address2":"Room 435","City":"San Diego","State":"CA","Zip":"92110","Description":null,"SalesValue":"$4421949.03"},
{"NoOfRooms":1,"NoOfBathrooms":2,"SqFeet":9676,"Address1":"17723 Crowley Drive","Address2":"Apt 1429","City":"Sacramento","State":"CA","Zip":"95838","Description":null,"SalesValue":"$2709288.91"},
{"NoOfRooms":1,"NoOfBathrooms":1,"SqFeet":2925,"Address1":"028 Cascade Trail","Address2":"Room 747","City":"Los Angeles","State":"CA","Zip":"90060","Description":null,"SalesValue":"$7298222.48"},
{"NoOfRooms":2,"NoOfBathrooms":4,"SqFeet":2055,"Address1":"18 Hauk Parkway","Address2":"Room 1352","City":"San Francisco","State":"CA","Zip":"94154","Description":null,"SalesValue":"$6439921.07"},
{"NoOfRooms":2,"NoOfBathrooms":2,"SqFeet":8386,"Address1":"0 3rd Park","Address2":"14th Floor","City":"Bakersfield","State":"CA","Zip":"93311","Description":null,"SalesValue":"$4947190.01"},
{"NoOfRooms":1,"NoOfBathrooms":5,"SqFeet":882,"Address1":"2336 Steensland Hill","Address2":"PO Box 90067","City":"Sacramento","State":"CA","Zip":"95894","Description":null,"SalesValue":"$1351024.92"},
{"NoOfRooms":5,"NoOfBathrooms":4,"SqFeet":5500,"Address1":"45 Sunnyside Plaza","Address2":"PO Box 32475","City":"Sacramento","State":"CA","Zip":"95823","Description":null,"SalesValue":"$9443003.23"},
{"NoOfRooms":1,"NoOfBathrooms":2,"SqFeet":2869,"Address1":"1619 Dennis Terrace","Address2":"Suite 63","City":"Burbank","State":"CA","Zip":"91505","Description":null,"SalesValue":"$6911109.92"},
{"NoOfRooms":2,"NoOfBathrooms":2,"SqFeet":5644,"Address1":"1338 Oneill Avenue","Address2":"17th Floor","City":"Santa Ana","State":"CA","Zip":"92725","Description":null,"SalesValue":"$7987121.85"},
{"NoOfRooms":5,"NoOfBathrooms":1,"SqFeet":5637,"Address1":"99 Dapin Plaza","Address2":"16th Floor","City":"Alhambra","State":"CA","Zip":"91841","Description":null,"SalesValue":"$7633714.05"},
{"NoOfRooms":2,"NoOfBathrooms":1,"SqFeet":3048,"Address1":"0952 Red Cloud Court","Address2":"PO Box 63285","City":"Sacramento","State":"CA","Zip":"94286","Description":null,"SalesValue":"$504210.85"},
{"NoOfRooms":2,"NoOfBathrooms":1,"SqFeet":3904,"Address1":"65 Sauthoff Trail","Address2":"Room 1976","City":"San Jose","State":"CA","Zip":"95155","Description":null,"SalesValue":"$8575791.41"},
{"NoOfRooms":1,"NoOfBathrooms":3,"SqFeet":6954,"Address1":"73659 Becker Street","Address2":"Apt 1205","City":"Sacramento","State":"CA","Zip":"95818","Description":null,"SalesValue":"$4043591.53"},
{"NoOfRooms":2,"NoOfBathrooms":2,"SqFeet":2272,"Address1":"26818 Prairie Rose Junction","Address2":"PO Box 74676","City":"Stockton","State":"CA","Zip":"95205","Description":null,"SalesValue":"$1277607.52"},
{"NoOfRooms":5,"NoOfBathrooms":1,"SqFeet":7201,"Address1":"8689 Cody Road","Address2":"Suite 23","City":"Long Beach","State":"CA","Zip":"90847","Description":null,"SalesValue":"$5035369.75"},
{"NoOfRooms":3,"NoOfBathrooms":3,"SqFeet":798,"Address1":"500 Vernon Terrace","Address2":"Room 1394","City":"San Jose","State":"CA","Zip":"95150","Description":null,"SalesValue":"$8081650.92"},
{"NoOfRooms":3,"NoOfBathrooms":2,"SqFeet":6106,"Address1":"4 Grover Terrace","Address2":"Apt 1317","City":"Oakland","State":"CA","Zip":"94616","Description":null,"SalesValue":"$9535347.51"},
{"NoOfRooms":3,"NoOfBathrooms":5,"SqFeet":1114,"Address1":"79086 School Alley","Address2":"15th Floor","City":"Los Angeles","State":"CA","Zip":"90081","Description":null,"SalesValue":"$8055870.72"},
{"NoOfRooms":4,"NoOfBathrooms":4,"SqFeet":8857,"Address1":"1557 6th Avenue","Address2":"Apt 435","City":"Stockton","State":"CA","Zip":"95219","Description":null,"SalesValue":"$3372552.45"},
{"NoOfRooms":3,"NoOfBathrooms":3,"SqFeet":4052,"Address1":"91 Katie Trail","Address2":"PO Box 47466","City":"Corona","State":"CA","Zip":"92878","Description":null,"SalesValue":"$6740343.37"},
{"NoOfRooms":1,"NoOfBathrooms":2,"SqFeet":4339,"Address1":"3 International Court","Address2":"Room 1759","City":"San Rafael","State":"CA","Zip":"94913","Description":null,"SalesValue":"$2953952.55"},
{"NoOfRooms":2,"NoOfBathrooms":4,"SqFeet":1109,"Address1":"81 Burning Wood Way","Address2":"Room 223","City":"Lancaster","State":"CA","Zip":"93584","Description":null,"SalesValue":"$8280113.58"},
{"NoOfRooms":5,"NoOfBathrooms":4,"SqFeet":752,"Address1":"7833 Cottonwood Court","Address2":"Suite 58","City":"Los Angeles","State":"CA","Zip":"90101","Description":null,"SalesValue":"$3089842.05"},
{"NoOfRooms":2,"NoOfBathrooms":1,"SqFeet":7538,"Address1":"0350 Helena Drive","Address2":"Room 1552","City":"Concord","State":"CA","Zip":"94522","Description":null,"SalesValue":"$4645782.05"},
{"NoOfRooms":2,"NoOfBathrooms":4,"SqFeet":6738,"Address1":"4147 Armistice Park","Address2":"Room 1816","City":"San Diego","State":"CA","Zip":"92145","Description":null,"SalesValue":"$1391317.77"},
{"NoOfRooms":2,"NoOfBathrooms":2,"SqFeet":3154,"Address1":"48 Toban Place","Address2":"Apt 1800","City":"Redwood City","State":"CA","Zip":"94064","Description":null,"SalesValue":"$2059912.68"},
{"NoOfRooms":4,"NoOfBathrooms":3,"SqFeet":7641,"Address1":"6071 Pine View Crossing","Address2":"Apt 1448","City":"Oakland","State":"CA","Zip":"94611","Description":null,"SalesValue":"$2563976.69"},
{"NoOfRooms":4,"NoOfBathrooms":1,"SqFeet":9173,"Address1":"29 Schurz Drive","Address2":"Room 178","City":"Inglewood","State":"CA","Zip":"90398","Description":null,"SalesValue":"$3839784.51"},
{"NoOfRooms":5,"NoOfBathrooms":2,"SqFeet":9955,"Address1":"90 Maryland Hill","Address2":"Apt 662","City":"Concord","State":"CA","Zip":"94522","Description":null,"SalesValue":"$3069724.64"},
{"NoOfRooms":1,"NoOfBathrooms":5,"SqFeet":328,"Address1":"05 Barnett Alley","Address2":"Apt 1205","City":"Petaluma","State":"CA","Zip":"94975","Description":null,"SalesValue":"$6644655.41"},
{"NoOfRooms":5,"NoOfBathrooms":3,"SqFeet":6935,"Address1":"604 Vera Street","Address2":"Suite 45","City":"Sacramento","State":"CA","Zip":"94291","Description":null,"SalesValue":"$5152193.27"},
{"NoOfRooms":1,"NoOfBathrooms":4,"SqFeet":2255,"Address1":"73912 Farwell Plaza","Address2":"Apt 1678","City":"Mountain View","State":"CA","Zip":"94042","Description":null,"SalesValue":"$3161825.90"},
{"NoOfRooms":1,"NoOfBathrooms":2,"SqFeet":5050,"Address1":"8322 Main Park","Address2":"Suite 6","City":"Corona","State":"CA","Zip":"92883","Description":null,"SalesValue":"$956669.44"},
{"NoOfRooms":4,"NoOfBathrooms":4,"SqFeet":4116,"Address1":"29 Mendota Drive","Address2":"Suite 17","City":"San Jose","State":"CA","Zip":"95155","Description":null,"SalesValue":"$8174250.43"},
{"NoOfRooms":5,"NoOfBathrooms":1,"SqFeet":2059,"Address1":"8 Thackeray Alley","Address2":"Apt 274","City":"Fresno","State":"CA","Zip":"93704","Description":null,"SalesValue":"$1972927.96"},
{"NoOfRooms":3,"NoOfBathrooms":1,"SqFeet":7374,"Address1":"8 Logan Terrace","Address2":"Suite 18","City":"San Jose","State":"CA","Zip":"95173","Description":null,"SalesValue":"$7284304.95"},
{"NoOfRooms":1,"NoOfBathrooms":3,"SqFeet":1474,"Address1":"59 Aberg Trail","Address2":"Apt 527","City":"Stockton","State":"CA","Zip":"95219","Description":null,"SalesValue":"$2081413.40"},
{"NoOfRooms":5,"NoOfBathrooms":1,"SqFeet":8424,"Address1":"1307 Rigney Point","Address2":"Suite 32","City":"San Jose","State":"CA","Zip":"95133","Description":null,"SalesValue":"$1664475.29"},
{"NoOfRooms":3,"NoOfBathrooms":5,"SqFeet":4725,"Address1":"258 2nd Hill","Address2":"17th Floor","City":"Santa Barbara","State":"CA","Zip":"93150","Description":null,"SalesValue":"$9198768.83"},
{"NoOfRooms":5,"NoOfBathrooms":5,"SqFeet":8987,"Address1":"2 Hayes Street","Address2":"13th Floor","City":"Palmdale","State":"CA","Zip":"93591","Description":null,"SalesValue":"$515691.09"},
{"NoOfRooms":1,"NoOfBathrooms":4,"SqFeet":9874,"Address1":"1590 Fremont Hill","Address2":"Suite 41","City":"Riverside","State":"CA","Zip":"92505","Description":null,"SalesValue":"$5405018.77"},
{"NoOfRooms":3,"NoOfBathrooms":5,"SqFeet":8929,"Address1":"1 Mesta Terrace","Address2":"PO Box 21193","City":"San Francisco","State":"CA","Zip":"94126","Description":null,"SalesValue":"$4506156.90"},
{"NoOfRooms":4,"NoOfBathrooms":5,"SqFeet":8624,"Address1":"06863 Anderson Road","Address2":"Suite 8","City":"Santa Ana","State":"CA","Zip":"92705","Description":null,"SalesValue":"$3520428.28"},
{"NoOfRooms":3,"NoOfBathrooms":5,"SqFeet":3351,"Address1":"46 Katie Hill","Address2":"Suite 16","City":"Los Angeles","State":"CA","Zip":"90005","Description":null,"SalesValue":"$1040101.68"},
{"NoOfRooms":1,"NoOfBathrooms":5,"SqFeet":4799,"Address1":"16 Carpenter Point","Address2":"Room 168","City":"Hayward","State":"CA","Zip":"94544","Description":null,"SalesValue":"$6698310.27"},
{"NoOfRooms":5,"NoOfBathrooms":3,"SqFeet":4574,"Address1":"60 Lien Parkway","Address2":"Suite 38","City":"Los Angeles","State":"CA","Zip":"90020","Description":null,"SalesValue":"$1403426.91"},
{"NoOfRooms":1,"NoOfBathrooms":3,"SqFeet":7674,"Address1":"55411 Lillian Lane","Address2":"Apt 1962","City":"Richmond","State":"CA","Zip":"94807","Description":null,"SalesValue":"$6334676.69"},
{"NoOfRooms":2,"NoOfBathrooms":3,"SqFeet":351,"Address1":"97 Portage Crossing","Address2":"Apt 337","City":"Orange","State":"CA","Zip":"92862","Description":null,"SalesValue":"$8356389.51"},
{"NoOfRooms":3,"NoOfBathrooms":5,"SqFeet":6090,"Address1":"4684 Bluejay Pass","Address2":"Room 1143","City":"San Francisco","State":"CA","Zip":"94169","Description":null,"SalesValue":"$534891.15"},
{"NoOfRooms":1,"NoOfBathrooms":3,"SqFeet":4590,"Address1":"18892 Clarendon Plaza","Address2":"Apt 134","City":"Los Angeles","State":"CA","Zip":"90065","Description":null,"SalesValue":"$8989108.22"},
{"NoOfRooms":1,"NoOfBathrooms":2,"SqFeet":6043,"Address1":"2107 Village Green Lane","Address2":"3rd Floor","City":"Carlsbad","State":"CA","Zip":"92013","Description":null,"SalesValue":"$2717947.90"},
{"NoOfRooms":1,"NoOfBathrooms":3,"SqFeet":5066,"Address1":"6 Columbus Place","Address2":"Room 392","City":"San Jose","State":"CA","Zip":"95128","Description":null,"SalesValue":"$9307947.16"},
{"NoOfRooms":1,"NoOfBathrooms":5,"SqFeet":7150,"Address1":"895 Holy Cross Pass","Address2":"Suite 38","City":"Torrance","State":"CA","Zip":"90505","Description":null,"SalesValue":"$2591610.16"},
{"NoOfRooms":1,"NoOfBathrooms":3,"SqFeet":2444,"Address1":"66 Division Circle","Address2":"Apt 1137","City":"Burbank","State":"CA","Zip":"91520","Description":null,"SalesValue":"$8913270.27"},
{"NoOfRooms":1,"NoOfBathrooms":5,"SqFeet":6169,"Address1":"8869 Portage Pass","Address2":"Apt 1485","City":"San Francisco","State":"CA","Zip":"94116","Description":null,"SalesValue":"$3016353.65"},
{"NoOfRooms":3,"NoOfBathrooms":1,"SqFeet":4290,"Address1":"086 Tennessee Parkway","Address2":"PO Box 88398","City":"San Francisco","State":"CA","Zip":"94126","Description":null,"SalesValue":"$1356550.06"},
{"NoOfRooms":2,"NoOfBathrooms":5,"SqFeet":6750,"Address1":"33 Clyde Gallagher Avenue","Address2":"Room 1951","City":"San Jose","State":"CA","Zip":"95138","Description":null,"SalesValue":"$2011764.65"},
{"NoOfRooms":3,"NoOfBathrooms":4,"SqFeet":2454,"Address1":"1 Alpine Hill","Address2":"Room 557","City":"Torrance","State":"CA","Zip":"90510","Description":null,"SalesValue":"$7097479.11"},
{"NoOfRooms":1,"NoOfBathrooms":5,"SqFeet":3029,"Address1":"8 Londonderry Street","Address2":"Suite 47","City":"Los Angeles","State":"CA","Zip":"90015","Description":null,"SalesValue":"$5556097.86"},
{"NoOfRooms":5,"NoOfBathrooms":2,"SqFeet":7409,"Address1":"010 Oak Trail","Address2":"14th Floor","City":"Garden Grove","State":"CA","Zip":"92844","Description":null,"SalesValue":"$4908541.79"},
{"NoOfRooms":1,"NoOfBathrooms":1,"SqFeet":8766,"Address1":"87 Mallory Circle","Address2":"Room 697","City":"Inglewood","State":"CA","Zip":"90305","Description":null,"SalesValue":"$8272736.58"},
{"NoOfRooms":3,"NoOfBathrooms":5,"SqFeet":6249,"Address1":"33023 Barnett Pass","Address2":"Apt 39","City":"Los Angeles","State":"CA","Zip":"90020","Description":null,"SalesValue":"$3312576.02"},
{"NoOfRooms":2,"NoOfBathrooms":3,"SqFeet":5848,"Address1":"8 International Drive","Address2":"PO Box 94323","City":"Los Angeles","State":"CA","Zip":"90030","Description":null,"SalesValue":"$5337409.27"},
{"NoOfRooms":3,"NoOfBathrooms":3,"SqFeet":814,"Address1":"4 Muir Parkway","Address2":"PO Box 73657","City":"Richmond","State":"CA","Zip":"94807","Description":null,"SalesValue":"$9985826.94"},
{"NoOfRooms":5,"NoOfBathrooms":4,"SqFeet":1614,"Address1":"777 Raven Court","Address2":"9th Floor","City":"Escondido","State":"CA","Zip":"92030","Description":null,"SalesValue":"$5819505.35"},
{"NoOfRooms":3,"NoOfBathrooms":3,"SqFeet":5755,"Address1":"09 Northland Hill","Address2":"Room 277","City":"Stockton","State":"CA","Zip":"95298","Description":null,"SalesValue":"$6682224.86"},
{"NoOfRooms":4,"NoOfBathrooms":4,"SqFeet":3901,"Address1":"9 Kipling Plaza","Address2":"10th Floor","City":"San Diego","State":"CA","Zip":"92132","Description":null,"SalesValue":"$6126806.47"},
{"NoOfRooms":1,"NoOfBathrooms":1,"SqFeet":385,"Address1":"9722 Eagan Court","Address2":"Apt 1102","City":"Los Angeles","State":"CA","Zip":"90005","Description":null,"SalesValue":"$1244844.03"},
{"NoOfRooms":1,"NoOfBathrooms":5,"SqFeet":7321,"Address1":"718 Reinke Center","Address2":"Suite 21","City":"San Jose","State":"CA","Zip":"95128","Description":null,"SalesValue":"$3896679.16"},
{"NoOfRooms":3,"NoOfBathrooms":5,"SqFeet":7620,"Address1":"9 Bay Crossing","Address2":"Suite 31","City":"Pasadena","State":"CA","Zip":"91199","Description":null,"SalesValue":"$1893205.41"},
{"NoOfRooms":3,"NoOfBathrooms":3,"SqFeet":7462,"Address1":"66568 Magdeline Point","Address2":"1st Floor","City":"Los Angeles","State":"CA","Zip":"90045","Description":null,"SalesValue":"$7307442.04"},
{"NoOfRooms":4,"NoOfBathrooms":2,"SqFeet":6510,"Address1":"0 Laurel Avenue","Address2":"Room 1028","City":"San Jose","State":"CA","Zip":"95194","Description":null,"SalesValue":"$4771574.37"},
{"NoOfRooms":2,"NoOfBathrooms":1,"SqFeet":6127,"Address1":"7 Dayton Avenue","Address2":"PO Box 44258","City":"San Diego","State":"CA","Zip":"92153","Description":null,"SalesValue":"$7824218.91"},
{"NoOfRooms":1,"NoOfBathrooms":5,"SqFeet":2239,"Address1":"08867 Crest Line Parkway","Address2":"Room 561","City":"San Diego","State":"CA","Zip":"92127","Description":null,"SalesValue":"$4686007.87"},
{"NoOfRooms":3,"NoOfBathrooms":1,"SqFeet":6979,"Address1":"322 Mesta Pass","Address2":"Apt 1957","City":"Whittier","State":"CA","Zip":"90610","Description":null,"SalesValue":"$6507234.39"},
{"NoOfRooms":1,"NoOfBathrooms":5,"SqFeet":521,"Address1":"424 Village Center","Address2":"Suite 80","City":"San Jose","State":"CA","Zip":"95173","Description":null,"SalesValue":"$9927026.60"},
{"NoOfRooms":3,"NoOfBathrooms":1,"SqFeet":538,"Address1":"5 Magdeline Center","Address2":"Suite 88","City":"Fresno","State":"CA","Zip":"93721","Description":null,"SalesValue":"$6970434.95"},
{"NoOfRooms":4,"NoOfBathrooms":5,"SqFeet":1480,"Address1":"993 Prentice Plaza","Address2":"PO Box 9462","City":"Sacramento","State":"CA","Zip":"95828","Description":null,"SalesValue":"$3011300.34"},
{"NoOfRooms":5,"NoOfBathrooms":4,"SqFeet":4926,"Address1":"873 Cottonwood Road","Address2":"PO Box 15590","City":"Orange","State":"CA","Zip":"92867","Description":null,"SalesValue":"$1486354.11"},
{"NoOfRooms":3,"NoOfBathrooms":5,"SqFeet":1434,"Address1":"86 Sugar Junction","Address2":"Suite 27","City":"Fresno","State":"CA","Zip":"93715","Description":null,"SalesValue":"$5577051.06"},
{"NoOfRooms":4,"NoOfBathrooms":2,"SqFeet":4014,"Address1":"37920 Goodland Alley","Address2":"PO Box 96587","City":"Pasadena","State":"CA","Zip":"91117","Description":null,"SalesValue":"$799263.26"},
{"NoOfRooms":3,"NoOfBathrooms":5,"SqFeet":1321,"Address1":"9021 Stang Point","Address2":"Apt 1598","City":"Fresno","State":"CA","Zip":"93721","Description":null,"SalesValue":"$6491426.21"},
{"NoOfRooms":4,"NoOfBathrooms":3,"SqFeet":8612,"Address1":"816 Hoard Junction","Address2":"Apt 1219","City":"Orange","State":"CA","Zip":"92867","Description":null,"SalesValue":"$4705112.01"},
{"NoOfRooms":1,"NoOfBathrooms":2,"SqFeet":2401,"Address1":"7 Helena Lane","Address2":"Room 1126","City":"Newport Beach","State":"CA","Zip":"92662","Description":null,"SalesValue":"$3534104.84"},
{"NoOfRooms":5,"NoOfBathrooms":2,"SqFeet":7317,"Address1":"0 Nobel Park","Address2":"7th Floor","City":"San Francisco","State":"CA","Zip":"94105","Description":null,"SalesValue":"$6870088.42"},
{"NoOfRooms":2,"NoOfBathrooms":1,"SqFeet":2470,"Address1":"971 Burrows Court","Address2":"19th Floor","City":"San Francisco","State":"CA","Zip":"94142","Description":null,"SalesValue":"$761983.33"},
{"NoOfRooms":3,"NoOfBathrooms":3,"SqFeet":4098,"Address1":"19 Norway Maple Way","Address2":"Apt 758","City":"San Diego","State":"CA","Zip":"92132","Description":null,"SalesValue":"$3776077.62"},
{"NoOfRooms":1,"NoOfBathrooms":2,"SqFeet":7146,"Address1":"4765 Troy Park","Address2":"Apt 50","City":"Long Beach","State":"CA","Zip":"90810","Description":null,"SalesValue":"$6005025.52"},
{"NoOfRooms":2,"NoOfBathrooms":1,"SqFeet":2974,"Address1":"4 Pierstorff Place","Address2":"Suite 38","City":"Bakersfield","State":"CA","Zip":"93305","Description":null,"SalesValue":"$6184586.42"},
{"NoOfRooms":1,"NoOfBathrooms":2,"SqFeet":2884,"Address1":"8088 Lyons Road","Address2":"Room 993","City":"Los Angeles","State":"CA","Zip":"90081","Description":null,"SalesValue":"$2383651.74"},
{"NoOfRooms":3,"NoOfBathrooms":4,"SqFeet":2399,"Address1":"7084 Orin Circle","Address2":"Apt 1238","City":"Fresno","State":"CA","Zip":"93740","Description":null,"SalesValue":"$7227576.49"},
{"NoOfRooms":1,"NoOfBathrooms":2,"SqFeet":6186,"Address1":"85240 Oak Trail","Address2":"7th Floor","City":"Burbank","State":"CA","Zip":"91520","Description":null,"SalesValue":"$7306169.08"},
{"NoOfRooms":1,"NoOfBathrooms":5,"SqFeet":7048,"Address1":"944 Golf Avenue","Address2":"Room 777","City":"Los Angeles","State":"CA","Zip":"90005","Description":null,"SalesValue":"$8290869.26"},
{"NoOfRooms":4,"NoOfBathrooms":5,"SqFeet":6186,"Address1":"68 Oneill Avenue","Address2":"6th Floor","City":"Sacramento","State":"CA","Zip":"94286","Description":null,"SalesValue":"$5582261.10"},
{"NoOfRooms":1,"NoOfBathrooms":5,"SqFeet":6381,"Address1":"919 Porter Alley","Address2":"Room 1506","City":"San Diego","State":"CA","Zip":"92132","Description":null,"SalesValue":"$5680506.32"},
{"NoOfRooms":3,"NoOfBathrooms":3,"SqFeet":9899,"Address1":"749 Clemons Crossing","Address2":"Room 312","City":"Modesto","State":"CA","Zip":"95397","Description":null,"SalesValue":"$4029681.42"},
{"NoOfRooms":4,"NoOfBathrooms":2,"SqFeet":3380,"Address1":"4005 Truax Plaza","Address2":"13th Floor","City":"Santa Clara","State":"CA","Zip":"95054","Description":null,"SalesValue":"$5563710.98"},
{"NoOfRooms":4,"NoOfBathrooms":2,"SqFeet":5751,"Address1":"55110 Anhalt Crossing","Address2":"Apt 1168","City":"Corona","State":"CA","Zip":"92878","Description":null,"SalesValue":"$8936233.35"},
{"NoOfRooms":4,"NoOfBathrooms":3,"SqFeet":7752,"Address1":"9021 Corscot Alley","Address2":"Suite 90","City":"Los Angeles","State":"CA","Zip":"90005","Description":null,"SalesValue":"$6421729.66"},
{"NoOfRooms":2,"NoOfBathrooms":5,"SqFeet":2381,"Address1":"9621 Sommers Junction","Address2":"Room 1870","City":"San Francisco","State":"CA","Zip":"94105","Description":null,"SalesValue":"$815803.93"},
{"NoOfRooms":2,"NoOfBathrooms":3,"SqFeet":555,"Address1":"04 Rusk Lane","Address2":"Room 196","City":"Anaheim","State":"CA","Zip":"92805","Description":null,"SalesValue":"$8997730.83"},
{"NoOfRooms":3,"NoOfBathrooms":2,"SqFeet":2906,"Address1":"5119 Old Gate Place","Address2":"Room 498","City":"Simi Valley","State":"CA","Zip":"93094","Description":null,"SalesValue":"$9024849.71"},
{"NoOfRooms":3,"NoOfBathrooms":3,"SqFeet":8439,"Address1":"9 Hayes Center","Address2":"Room 994","City":"Bakersfield","State":"CA","Zip":"93386","Description":null,"SalesValue":"$1626338.12"},
{"NoOfRooms":4,"NoOfBathrooms":5,"SqFeet":4922,"Address1":"83433 Miller Plaza","Address2":"PO Box 32074","City":"Fresno","State":"CA","Zip":"93740","Description":null,"SalesValue":"$6822073.64"},
{"NoOfRooms":2,"NoOfBathrooms":5,"SqFeet":9166,"Address1":"258 Namekagon Alley","Address2":"Apt 1976","City":"San Diego","State":"CA","Zip":"92196","Description":null,"SalesValue":"$6230674.22"},
{"NoOfRooms":2,"NoOfBathrooms":1,"SqFeet":2422,"Address1":"16867 Lakeland Junction","Address2":"PO Box 83571","City":"San Jose","State":"CA","Zip":"95150","Description":null,"SalesValue":"$9859530.41"},
{"NoOfRooms":5,"NoOfBathrooms":1,"SqFeet":3365,"Address1":"0 High Crossing Lane","Address2":"Apt 1952","City":"Anaheim","State":"CA","Zip":"92805","Description":null,"SalesValue":"$8505362.91"},
{"NoOfRooms":2,"NoOfBathrooms":4,"SqFeet":7325,"Address1":"7 Warbler Plaza","Address2":"PO Box 52211","City":"Anaheim","State":"CA","Zip":"92805","Description":null,"SalesValue":"$4771484.45"},
{"NoOfRooms":5,"NoOfBathrooms":5,"SqFeet":1467,"Address1":"138 Forster Alley","Address2":"6th Floor","City":"Van Nuys","State":"CA","Zip":"91411","Description":null,"SalesValue":"$9804605.57"},
{"NoOfRooms":5,"NoOfBathrooms":4,"SqFeet":8019,"Address1":"32 Kropf Lane","Address2":"14th Floor","City":"Inglewood","State":"CA","Zip":"90398","Description":null,"SalesValue":"$4289270.72"},
{"NoOfRooms":3,"NoOfBathrooms":1,"SqFeet":6251,"Address1":"326 Eggendart Park","Address2":"PO Box 99003","City":"Riverside","State":"CA","Zip":"92505","Description":null,"SalesValue":"$5790858.90"},
{"NoOfRooms":2,"NoOfBathrooms":4,"SqFeet":5998,"Address1":"176 Scoville Alley","Address2":"Room 654","City":"San Jose","State":"CA","Zip":"95118","Description":null,"SalesValue":"$8381586.13"},
{"NoOfRooms":4,"NoOfBathrooms":5,"SqFeet":5935,"Address1":"639 Waubesa Trail","Address2":"Room 1421","City":"San Diego","State":"CA","Zip":"92165","Description":null,"SalesValue":"$6440338.59"},
{"NoOfRooms":2,"NoOfBathrooms":1,"SqFeet":4465,"Address1":"77219 Randy Court","Address2":"8th Floor","City":"North Hollywood","State":"CA","Zip":"91606","Description":null,"SalesValue":"$1017750.08"},
{"NoOfRooms":4,"NoOfBathrooms":4,"SqFeet":7436,"Address1":"368 Ramsey Terrace","Address2":"16th Floor","City":"Oakland","State":"CA","Zip":"94605","Description":null,"SalesValue":"$5267964.71"},
{"NoOfRooms":2,"NoOfBathrooms":1,"SqFeet":1676,"Address1":"2321 Porter Center","Address2":"Room 1223","City":"Riverside","State":"CA","Zip":"92505","Description":null,"SalesValue":"$3387951.89"},
{"NoOfRooms":4,"NoOfBathrooms":3,"SqFeet":9156,"Address1":"8062 Pennsylvania Street","Address2":"Apt 347","City":"Sacramento","State":"CA","Zip":"95818","Description":null,"SalesValue":"$9619526.84"},
{"NoOfRooms":1,"NoOfBathrooms":1,"SqFeet":8012,"Address1":"605 Pearson Park","Address2":"Room 1524","City":"North Hollywood","State":"CA","Zip":"91606","Description":null,"SalesValue":"$4767297.42"},
{"NoOfRooms":3,"NoOfBathrooms":4,"SqFeet":8778,"Address1":"2 Namekagon Parkway","Address2":"PO Box 41446","City":"Sacramento","State":"CA","Zip":"94245","Description":null,"SalesValue":"$979628.38"},
{"NoOfRooms":5,"NoOfBathrooms":3,"SqFeet":4848,"Address1":"5 Arkansas Place","Address2":"8th Floor","City":"Fresno","State":"CA","Zip":"93786","Description":null,"SalesValue":"$6796693.63"},
{"NoOfRooms":2,"NoOfBathrooms":1,"SqFeet":2038,"Address1":"5556 Rieder Court","Address2":"Apt 333","City":"Modesto","State":"CA","Zip":"95354","Description":null,"SalesValue":"$8266991.31"},
{"NoOfRooms":5,"NoOfBathrooms":5,"SqFeet":753,"Address1":"0316 Messerschmidt Drive","Address2":"15th Floor","City":"San Mateo","State":"CA","Zip":"94405","Description":null,"SalesValue":"$9110656.81"},
{"NoOfRooms":2,"NoOfBathrooms":1,"SqFeet":9107,"Address1":"66 Old Gate Avenue","Address2":"2nd Floor","City":"Los Angeles","State":"CA","Zip":"90045","Description":null,"SalesValue":"$4232573.98"},
{"NoOfRooms":3,"NoOfBathrooms":5,"SqFeet":5858,"Address1":"09 Shelley Plaza","Address2":"Suite 73","City":"Burbank","State":"CA","Zip":"91520","Description":null,"SalesValue":"$4864796.67"},
{"NoOfRooms":3,"NoOfBathrooms":5,"SqFeet":8153,"Address1":"46421 Meadow Valley Drive","Address2":"Room 415","City":"San Diego","State":"CA","Zip":"92176","Description":null,"SalesValue":"$2121724.59"},
{"NoOfRooms":4,"NoOfBathrooms":3,"SqFeet":8333,"Address1":"96953 Northridge Center","Address2":"20th Floor","City":"Irvine","State":"CA","Zip":"92619","Description":null,"SalesValue":"$3540510.32"},
{"NoOfRooms":3,"NoOfBathrooms":2,"SqFeet":5200,"Address1":"01 Monument Place","Address2":"10th Floor","City":"Carlsbad","State":"CA","Zip":"92013","Description":null,"SalesValue":"$6629617.27"},
{"NoOfRooms":2,"NoOfBathrooms":2,"SqFeet":4102,"Address1":"83423 Gale Crossing","Address2":"9th Floor","City":"Fullerton","State":"CA","Zip":"92835","Description":null,"SalesValue":"$1348395.65"},
{"NoOfRooms":5,"NoOfBathrooms":1,"SqFeet":8387,"Address1":"21767 Laurel Way","Address2":"PO Box 5158","City":"Corona","State":"CA","Zip":"92883","Description":null,"SalesValue":"$7778420.50"},
{"NoOfRooms":1,"NoOfBathrooms":1,"SqFeet":2402,"Address1":"144 Pepper Wood Lane","Address2":"Room 557","City":"Visalia","State":"CA","Zip":"93291","Description":null,"SalesValue":"$1884090.84"},
{"NoOfRooms":4,"NoOfBathrooms":5,"SqFeet":6821,"Address1":"64 Gina Street","Address2":"PO Box 9373","City":"Pasadena","State":"CA","Zip":"91117","Description":null,"SalesValue":"$8168024.70"},
{"NoOfRooms":3,"NoOfBathrooms":3,"SqFeet":4339,"Address1":"10228 Derek Circle","Address2":"Apt 1901","City":"Fresno","State":"CA","Zip":"93709","Description":null,"SalesValue":"$8183253.65"},
{"NoOfRooms":5,"NoOfBathrooms":3,"SqFeet":9383,"Address1":"48771 Jenifer Hill","Address2":"Apt 1183","City":"Garden Grove","State":"CA","Zip":"92645","Description":null,"SalesValue":"$2281478.35"},
{"NoOfRooms":2,"NoOfBathrooms":2,"SqFeet":6331,"Address1":"54 Hoard Circle","Address2":"8th Floor","City":"Sacramento","State":"CA","Zip":"94207","Description":null,"SalesValue":"$1938377.72"},
{"NoOfRooms":4,"NoOfBathrooms":5,"SqFeet":4596,"Address1":"7 Anhalt Center","Address2":"16th Floor","City":"Stockton","State":"CA","Zip":"95210","Description":null,"SalesValue":"$7842880.04"},
{"NoOfRooms":4,"NoOfBathrooms":3,"SqFeet":5543,"Address1":"377 Crescent Oaks Junction","Address2":"Suite 60","City":"Anaheim","State":"CA","Zip":"92805","Description":null,"SalesValue":"$8958162.53"},
{"NoOfRooms":1,"NoOfBathrooms":3,"SqFeet":2727,"Address1":"912 Morrow Court","Address2":"Suite 5","City":"Chico","State":"CA","Zip":"95973","Description":null,"SalesValue":"$4188259.71"},
{"NoOfRooms":1,"NoOfBathrooms":5,"SqFeet":8523,"Address1":"4 Troy Way","Address2":"Room 170","City":"San Diego","State":"CA","Zip":"92121","Description":null,"SalesValue":"$7496114.57"},
{"NoOfRooms":1,"NoOfBathrooms":5,"SqFeet":4573,"Address1":"906 Elgar Plaza","Address2":"Apt 1340","City":"Modesto","State":"CA","Zip":"95354","Description":null,"SalesValue":"$5815234.42"},
{"NoOfRooms":3,"NoOfBathrooms":3,"SqFeet":4468,"Address1":"701 Dunning Hill","Address2":"1st Floor","City":"Orange","State":"CA","Zip":"92862","Description":null,"SalesValue":"$4100229.69"},
{"NoOfRooms":4,"NoOfBathrooms":2,"SqFeet":8892,"Address1":"1372 Lakewood Circle","Address2":"Room 1356","City":"San Francisco","State":"CA","Zip":"94177","Description":null,"SalesValue":"$2669124.29"},
{"NoOfRooms":5,"NoOfBathrooms":3,"SqFeet":3182,"Address1":"35 Namekagon Way","Address2":"Suite 55","City":"Oakland","State":"CA","Zip":"94611","Description":null,"SalesValue":"$7037118.40"},
{"NoOfRooms":1,"NoOfBathrooms":1,"SqFeet":4653,"Address1":"3338 Johnson Place","Address2":"Room 1037","City":"Fresno","State":"CA","Zip":"93762","Description":null,"SalesValue":"$7062150.14"},
{"NoOfRooms":1,"NoOfBathrooms":5,"SqFeet":9774,"Address1":"7824 David Lane","Address2":"Apt 1477","City":"North Hollywood","State":"CA","Zip":"91616","Description":null,"SalesValue":"$5240636.34"},
{"NoOfRooms":5,"NoOfBathrooms":3,"SqFeet":4220,"Address1":"5851 Independence Pass","Address2":"PO Box 83419","City":"Sacramento","State":"CA","Zip":"94273","Description":null,"SalesValue":"$4094228.24"},
{"NoOfRooms":2,"NoOfBathrooms":1,"SqFeet":8545,"Address1":"2018 Green Ridge Alley","Address2":"Room 1591","City":"Los Angeles","State":"CA","Zip":"90005","Description":null,"SalesValue":"$1074117.32"},
{"NoOfRooms":1,"NoOfBathrooms":2,"SqFeet":3358,"Address1":"5 Burrows Center","Address2":"Room 582","City":"San Diego","State":"CA","Zip":"92153","Description":null,"SalesValue":"$9126874.40"},
{"NoOfRooms":3,"NoOfBathrooms":2,"SqFeet":3136,"Address1":"886 Spaight Alley","Address2":"Apt 999","City":"Irvine","State":"CA","Zip":"92612","Description":null,"SalesValue":"$5147376.82"},
{"NoOfRooms":3,"NoOfBathrooms":3,"SqFeet":9507,"Address1":"529 Green Point","Address2":"PO Box 15544","City":"Long Beach","State":"CA","Zip":"90810","Description":null,"SalesValue":"$9844944.22"},
{"NoOfRooms":4,"NoOfBathrooms":3,"SqFeet":4669,"Address1":"55 Derek Point","Address2":"18th Floor","City":"Los Angeles","State":"CA","Zip":"90020","Description":null,"SalesValue":"$7519477.22"},
{"NoOfRooms":3,"NoOfBathrooms":4,"SqFeet":952,"Address1":"4877 Upham Terrace","Address2":"Apt 184","City":"Los Angeles","State":"CA","Zip":"90045","Description":null,"SalesValue":"$7469436.60"},
{"NoOfRooms":5,"NoOfBathrooms":1,"SqFeet":1876,"Address1":"238 Kings Way","Address2":"PO Box 10843","City":"Glendale","State":"CA","Zip":"91205","Description":null,"SalesValue":"$9822874.08"},
{"NoOfRooms":2,"NoOfBathrooms":3,"SqFeet":6537,"Address1":"8374 4th Trail","Address2":"Suite 95","City":"Inglewood","State":"CA","Zip":"90310","Description":null,"SalesValue":"$6439962.40"},
{"NoOfRooms":4,"NoOfBathrooms":5,"SqFeet":1606,"Address1":"99 Straubel Hill","Address2":"9th Floor","City":"Lancaster","State":"CA","Zip":"93584","Description":null,"SalesValue":"$9583021.46"},
{"NoOfRooms":5,"NoOfBathrooms":5,"SqFeet":2083,"Address1":"7719 Garrison Pass","Address2":"Apt 866","City":"Santa Ana","State":"CA","Zip":"92725","Description":null,"SalesValue":"$9483592.35"},
{"NoOfRooms":1,"NoOfBathrooms":4,"SqFeet":6538,"Address1":"1073 Victoria Circle","Address2":"PO Box 89048","City":"San Francisco","State":"CA","Zip":"94110","Description":null,"SalesValue":"$1939986.68"},
{"NoOfRooms":5,"NoOfBathrooms":1,"SqFeet":3841,"Address1":"49092 Prentice Terrace","Address2":"PO Box 35425","City":"San Mateo","State":"CA","Zip":"94405","Description":null,"SalesValue":"$4682822.76"},
{"NoOfRooms":5,"NoOfBathrooms":1,"SqFeet":1323,"Address1":"26 Blaine Lane","Address2":"1st Floor","City":"Santa Barbara","State":"CA","Zip":"93150","Description":null,"SalesValue":"$8168022.21"},
{"NoOfRooms":3,"NoOfBathrooms":4,"SqFeet":453,"Address1":"344 Calypso Plaza","Address2":"PO Box 28143","City":"Alhambra","State":"CA","Zip":"91841","Description":null,"SalesValue":"$3642138.61"},
{"NoOfRooms":4,"NoOfBathrooms":2,"SqFeet":2799,"Address1":"20 Village Avenue","Address2":"3rd Floor","City":"San Diego","State":"CA","Zip":"92127","Description":null,"SalesValue":"$584215.65"},
{"NoOfRooms":1,"NoOfBathrooms":2,"SqFeet":2900,"Address1":"5 Vidon Road","Address2":"PO Box 91933","City":"Los Angeles","State":"CA","Zip":"90025","Description":null,"SalesValue":"$9265319.71"},
{"NoOfRooms":4,"NoOfBathrooms":3,"SqFeet":6842,"Address1":"0 Iowa Trail","Address2":"PO Box 79655","City":"Orange","State":"CA","Zip":"92668","Description":null,"SalesValue":"$9268222.70"},
{"NoOfRooms":2,"NoOfBathrooms":5,"SqFeet":4924,"Address1":"81974 Manitowish Court","Address2":"16th Floor","City":"San Jose","State":"CA","Zip":"95155","Description":null,"SalesValue":"$2016240.23"},
{"NoOfRooms":2,"NoOfBathrooms":1,"SqFeet":5096,"Address1":"20100 Mosinee Court","Address2":"11th Floor","City":"Fresno","State":"CA","Zip":"93750","Description":null,"SalesValue":"$970806.19"},
{"NoOfRooms":1,"NoOfBathrooms":2,"SqFeet":5925,"Address1":"01 Fisk Parkway","Address2":"PO Box 43076","City":"Van Nuys","State":"CA","Zip":"91499","Description":null,"SalesValue":"$5655120.74"},
{"NoOfRooms":4,"NoOfBathrooms":3,"SqFeet":117,"Address1":"6 Lindbergh Alley","Address2":"PO Box 53942","City":"San Jose","State":"CA","Zip":"95123","Description":null,"SalesValue":"$8136179.12"},
{"NoOfRooms":5,"NoOfBathrooms":3,"SqFeet":5057,"Address1":"75 Buhler Pass","Address2":"PO Box 43707","City":"Sacramento","State":"CA","Zip":"95833","Description":null,"SalesValue":"$1597387.32"},
{"NoOfRooms":3,"NoOfBathrooms":2,"SqFeet":5141,"Address1":"3605 Havey Terrace","Address2":"Room 1232","City":"Alhambra","State":"CA","Zip":"91841","Description":null,"SalesValue":"$5106585.66"},
{"NoOfRooms":5,"NoOfBathrooms":4,"SqFeet":6247,"Address1":"38946 East Hill","Address2":"Suite 56","City":"Fullerton","State":"CA","Zip":"92835","Description":null,"SalesValue":"$7011567.75"},
{"NoOfRooms":1,"NoOfBathrooms":5,"SqFeet":1321,"Address1":"377 Northwestern Parkway","Address2":"Apt 1903","City":"Long Beach","State":"CA","Zip":"90805","Description":null,"SalesValue":"$7785161.99"},
{"NoOfRooms":2,"NoOfBathrooms":5,"SqFeet":3901,"Address1":"7912 Bashford Drive","Address2":"Suite 100","City":"San Jose","State":"CA","Zip":"95128","Description":null,"SalesValue":"$9575298.96"},
{"NoOfRooms":1,"NoOfBathrooms":4,"SqFeet":4645,"Address1":"589 La Follette Court","Address2":"11th Floor","City":"San Jose","State":"CA","Zip":"95160","Description":null,"SalesValue":"$8690225.81"},
{"NoOfRooms":3,"NoOfBathrooms":1,"SqFeet":6369,"Address1":"8495 Stuart Avenue","Address2":"19th Floor","City":"Sacramento","State":"CA","Zip":"94273","Description":null,"SalesValue":"$2843269.44"},
{"NoOfRooms":4,"NoOfBathrooms":5,"SqFeet":6924,"Address1":"3 Petterle Street","Address2":"Apt 558","City":"Sacramento","State":"CA","Zip":"94257","Description":null,"SalesValue":"$5620793.36"},
{"NoOfRooms":5,"NoOfBathrooms":2,"SqFeet":7801,"Address1":"47 Green Pass","Address2":"15th Floor","City":"Pasadena","State":"CA","Zip":"91117","Description":null,"SalesValue":"$9402532.18"},
{"NoOfRooms":4,"NoOfBathrooms":3,"SqFeet":3807,"Address1":"69033 Arapahoe Plaza","Address2":"Suite 50","City":"Riverside","State":"CA","Zip":"92519","Description":null,"SalesValue":"$6407014.26"},
{"NoOfRooms":5,"NoOfBathrooms":5,"SqFeet":4459,"Address1":"76807 Mitchell Drive","Address2":"Apt 481","City":"Santa Barbara","State":"CA","Zip":"93150","Description":null,"SalesValue":"$7843188.88"},
{"NoOfRooms":3,"NoOfBathrooms":2,"SqFeet":8158,"Address1":"7 Springview Avenue","Address2":"Room 1159","City":"Los Angeles","State":"CA","Zip":"90035","Description":null,"SalesValue":"$2783670.39"},
{"NoOfRooms":1,"NoOfBathrooms":1,"SqFeet":5033,"Address1":"00 Maryland Court","Address2":"Apt 1336","City":"Pasadena","State":"CA","Zip":"91103","Description":null,"SalesValue":"$7095662.18"},
{"NoOfRooms":3,"NoOfBathrooms":2,"SqFeet":4684,"Address1":"68 Ruskin Pass","Address2":"1st Floor","City":"San Francisco","State":"CA","Zip":"94142","Description":null,"SalesValue":"$3689068.64"},
{"NoOfRooms":4,"NoOfBathrooms":2,"SqFeet":3428,"Address1":"58 Quincy Lane","Address2":"Suite 71","City":"Orange","State":"CA","Zip":"92862","Description":null,"SalesValue":"$8890274.52"},
{"NoOfRooms":1,"NoOfBathrooms":3,"SqFeet":3033,"Address1":"2942 Petterle Parkway","Address2":"PO Box 68693","City":"Chico","State":"CA","Zip":"95973","Description":null,"SalesValue":"$7050931.62"},
{"NoOfRooms":3,"NoOfBathrooms":1,"SqFeet":1377,"Address1":"49 Golf Place","Address2":"Suite 87","City":"San Jose","State":"CA","Zip":"95108","Description":null,"SalesValue":"$8199891.50"},
{"NoOfRooms":3,"NoOfBathrooms":2,"SqFeet":3870,"Address1":"76 Weeping Birch Hill","Address2":"Suite 35","City":"Long Beach","State":"CA","Zip":"90810","Description":null,"SalesValue":"$7416575.99"},
{"NoOfRooms":3,"NoOfBathrooms":5,"SqFeet":3042,"Address1":"11 Susan Lane","Address2":"PO Box 46800","City":"Los Angeles","State":"CA","Zip":"90081","Description":null,"SalesValue":"$1825775.53"},
{"NoOfRooms":3,"NoOfBathrooms":1,"SqFeet":9945,"Address1":"373 David Crossing","Address2":"Apt 1050","City":"Ventura","State":"CA","Zip":"93005","Description":null,"SalesValue":"$9176842.64"},
{"NoOfRooms":3,"NoOfBathrooms":3,"SqFeet":5047,"Address1":"2 Hayes Road","Address2":"4th Floor","City":"Carlsbad","State":"CA","Zip":"92013","Description":null,"SalesValue":"$7189550.24"},
{"NoOfRooms":4,"NoOfBathrooms":2,"SqFeet":452,"Address1":"58 Lillian Center","Address2":"Room 568","City":"Sacramento","State":"CA","Zip":"95813","Description":null,"SalesValue":"$8167023.51"},
{"NoOfRooms":2,"NoOfBathrooms":1,"SqFeet":4048,"Address1":"541 Petterle Plaza","Address2":"Suite 50","City":"Los Angeles","State":"CA","Zip":"90025","Description":null,"SalesValue":"$1778108.85"},
{"NoOfRooms":2,"NoOfBathrooms":3,"SqFeet":9115,"Address1":"2219 Green Ridge Circle","Address2":"Room 582","City":"Alhambra","State":"CA","Zip":"91841","Description":null,"SalesValue":"$2141150.72"},
{"NoOfRooms":2,"NoOfBathrooms":1,"SqFeet":7639,"Address1":"6 Mallory Road","Address2":"5th Floor","City":"Corona","State":"CA","Zip":"92878","Description":null,"SalesValue":"$2453280.29"},
{"NoOfRooms":1,"NoOfBathrooms":2,"SqFeet":5913,"Address1":"3 Nancy Terrace","Address2":"Suite 91","City":"San Francisco","State":"CA","Zip":"94126","Description":null,"SalesValue":"$7777004.09"},
{"NoOfRooms":2,"NoOfBathrooms":2,"SqFeet":8540,"Address1":"54 Eggendart Lane","Address2":"Suite 83","City":"Van Nuys","State":"CA","Zip":"91411","Description":null,"SalesValue":"$7313265.55"},
{"NoOfRooms":1,"NoOfBathrooms":5,"SqFeet":9023,"Address1":"921 Stone Corner Terrace","Address2":"Suite 31","City":"Corona","State":"CA","Zip":"92883","Description":null,"SalesValue":"$3756085.43"},
{"NoOfRooms":3,"NoOfBathrooms":1,"SqFeet":851,"Address1":"32014 Spaight Crossing","Address2":"9th Floor","City":"Northridge","State":"CA","Zip":"91328","Description":null,"SalesValue":"$1533338.84"},
{"NoOfRooms":2,"NoOfBathrooms":1,"SqFeet":4390,"Address1":"90 Bonner Street","Address2":"PO Box 92852","City":"Pasadena","State":"CA","Zip":"91109","Description":null,"SalesValue":"$6502675.92"},
{"NoOfRooms":2,"NoOfBathrooms":3,"SqFeet":9457,"Address1":"614 Colorado Trail","Address2":"Suite 78","City":"Irvine","State":"CA","Zip":"92710","Description":null,"SalesValue":"$1680941.11"},
{"NoOfRooms":5,"NoOfBathrooms":3,"SqFeet":5434,"Address1":"32 Corben Park","Address2":"Apt 1631","City":"Fresno","State":"CA","Zip":"93750","Description":null,"SalesValue":"$6360695.61"},
{"NoOfRooms":2,"NoOfBathrooms":1,"SqFeet":5052,"Address1":"90 Hanson Circle","Address2":"Suite 19","City":"San Diego","State":"CA","Zip":"92186","Description":null,"SalesValue":"$4475875.43"},
{"NoOfRooms":3,"NoOfBathrooms":1,"SqFeet":8494,"Address1":"04 Acker Road","Address2":"PO Box 3764","City":"Fresno","State":"CA","Zip":"93786","Description":null,"SalesValue":"$5185908.84"},
{"NoOfRooms":3,"NoOfBathrooms":3,"SqFeet":9311,"Address1":"5239 Westerfield Center","Address2":"PO Box 31565","City":"Carlsbad","State":"CA","Zip":"92013","Description":null,"SalesValue":"$3834045.21"},
{"NoOfRooms":3,"NoOfBathrooms":1,"SqFeet":3306,"Address1":"9 Del Mar Drive","Address2":"Room 346","City":"San Rafael","State":"CA","Zip":"94913","Description":null,"SalesValue":"$4766966.63"},
{"NoOfRooms":2,"NoOfBathrooms":1,"SqFeet":1832,"Address1":"4359 Glacier Hill Crossing","Address2":"PO Box 10001","City":"Modesto","State":"CA","Zip":"95397","Description":null,"SalesValue":"$8681652.73"},
{"NoOfRooms":2,"NoOfBathrooms":2,"SqFeet":8640,"Address1":"7749 Victoria Drive","Address2":"Suite 62","City":"Concord","State":"CA","Zip":"94522","Description":null,"SalesValue":"$1717542.08"},
{"NoOfRooms":1,"NoOfBathrooms":1,"SqFeet":6932,"Address1":"7 Ridgeview Street","Address2":"14th Floor","City":"San Jose","State":"CA","Zip":"95118","Description":null,"SalesValue":"$2886278.50"}]