[{"NoOfRooms":3,"NoOfBathrooms":3,"SqFeet":7872,"Address1":"56675 Bunker Hill Avenue","Address2":"Room 575","City":"Sunnyvale","State":"CA","Zip":"94089","Description":null,"SalesValue":"$6272106.68"},
{"NoOfRooms":5,"NoOfBathrooms":2,"SqFeet":5785,"Address1":"9662 Golden Leaf Junction","Address2":"Suite 12","City":"Sacramento","State":"CA","Zip":"95852","Description":null,"SalesValue":"$3415410.09"},
{"NoOfRooms":4,"NoOfBathrooms":3,"SqFeet":5638,"Address1":"494 Gateway Plaza","Address2":"12th Floor","City":"North Hollywood","State":"CA","Zip":"91616","Description":null,"SalesValue":"$1296495.05"},
{"NoOfRooms":1,"NoOfBathrooms":1,"SqFeet":8494,"Address1":"0 Elgar Plaza","Address2":"Suite 60","City":"Los Angeles","State":"CA","Zip":"90065","Description":null,"SalesValue":"$5154212.18"},
{"NoOfRooms":2,"NoOfBathrooms":1,"SqFeet":9392,"Address1":"75 Merrick Park","Address2":"Suite 41","City":"Irvine","State":"CA","Zip":"92717","Description":null,"SalesValue":"$497003.66"},
{"NoOfRooms":3,"NoOfBathrooms":1,"SqFeet":8672,"Address1":"705 Golden Leaf Point","Address2":"Room 924","City":"Sacramento","State":"CA","Zip":"94207","Description":null,"SalesValue":"$7629122.78"},
{"NoOfRooms":3,"NoOfBathrooms":2,"SqFeet":2038,"Address1":"5118 Village Street","Address2":"6th Floor","City":"Orange","State":"CA","Zip":"92862","Description":null,"SalesValue":"$6425973.11"},
{"NoOfRooms":3,"NoOfBathrooms":2,"SqFeet":5666,"Address1":"34 Rieder Terrace","Address2":"Room 142","City":"Garden Grove","State":"CA","Zip":"92645","Description":null,"SalesValue":"$3889862.64"},
{"NoOfRooms":5,"NoOfBathrooms":1,"SqFeet":1688,"Address1":"49639 Sommers Terrace","Address2":"PO Box 31927","City":"Northridge","State":"CA","Zip":"91328","Description":null,"SalesValue":"$6701374.76"},
{"NoOfRooms":2,"NoOfBathrooms":3,"SqFeet":3009,"Address1":"015 Artisan Junction","Address2":"PO Box 44858","City":"South Lake Tahoe","State":"CA","Zip":"96154","Description":null,"SalesValue":"$6531351.93"},
{"NoOfRooms":4,"NoOfBathrooms":2,"SqFeet":2478,"Address1":"2 Golden Leaf Court","Address2":"17th Floor","City":"San Diego","State":"CA","Zip":"92127","Description":null,"SalesValue":"$7752109.27"},
{"NoOfRooms":3,"NoOfBathrooms":1,"SqFeet":4746,"Address1":"7 Warner Trail","Address2":"Apt 106","City":"San Francisco","State":"CA","Zip":"94137","Description":null,"SalesValue":"$2909013.96"},
{"NoOfRooms":4,"NoOfBathrooms":3,"SqFeet":1651,"Address1":"86 Novick Pass","Address2":"13th Floor","City":"Sacramento","State":"CA","Zip":"94245","Description":null,"SalesValue":"$7106041.83"},
{"NoOfRooms":2,"NoOfBathrooms":3,"SqFeet":7828,"Address1":"4 Forest Run Pass","Address2":"PO Box 61326","City":"Stockton","State":"CA","Zip":"95219","Description":null,"SalesValue":"$5818332.17"},
{"NoOfRooms":4,"NoOfBathrooms":1,"SqFeet":1385,"Address1":"4 Spohn Lane","Address2":"Suite 23","City":"Garden Grove","State":"CA","Zip":"92645","Description":null,"SalesValue":"$6710871.64"},
{"NoOfRooms":4,"NoOfBathrooms":1,"SqFeet":5988,"Address1":"0353 Surrey Drive","Address2":"Room 1737","City":"Bakersfield","State":"CA","Zip":"93311","Description":null,"SalesValue":"$4556386.20"},
{"NoOfRooms":2,"NoOfBathrooms":2,"SqFeet":2756,"Address1":"45 Melby Lane","Address2":"13th Floor","City":"Stockton","State":"CA","Zip":"95210","Description":null,"SalesValue":"$7503060.78"},
{"NoOfRooms":5,"NoOfBathrooms":2,"SqFeet":1480,"Address1":"3451 Sunfield Hill","Address2":"Room 1531","City":"Simi Valley","State":"CA","Zip":"93094","Description":null,"SalesValue":"$7742057.25"},
{"NoOfRooms":1,"NoOfBathrooms":3,"SqFeet":6435,"Address1":"75536 5th Court","Address2":"Apt 1842","City":"Anaheim","State":"CA","Zip":"92825","Description":null,"SalesValue":"$8518592.36"},
{"NoOfRooms":3,"NoOfBathrooms":3,"SqFeet":7033,"Address1":"52 Lake View Lane","Address2":"Suite 59","City":"San Francisco","State":"CA","Zip":"94132","Description":null,"SalesValue":"$5435401.52"},
{"NoOfRooms":3,"NoOfBathrooms":1,"SqFeet":3712,"Address1":"217 Sachtjen Street","Address2":"PO Box 82664","City":"Los Angeles","State":"CA","Zip":"90015","Description":null,"SalesValue":"$3901604.76"},
{"NoOfRooms":3,"NoOfBathrooms":3,"SqFeet":9266,"Address1":"3 Bay Crossing","Address2":"17th Floor","City":"Sacramento","State":"CA","Zip":"94263","Description":null,"SalesValue":"$8477268.80"},
{"NoOfRooms":4,"NoOfBathrooms":3,"SqFeet":5907,"Address1":"553 Glendale Crossing","Address2":"2nd Floor","City":"Santa Monica","State":"CA","Zip":"90410","Description":null,"SalesValue":"$7729211.94"},
{"NoOfRooms":3,"NoOfBathrooms":2,"SqFeet":3765,"Address1":"7 Birchwood Circle","Address2":"PO Box 9640","City":"San Jose","State":"CA","Zip":"95128","Description":null,"SalesValue":"$1618599.11"},
{"NoOfRooms":1,"NoOfBathrooms":1,"SqFeet":5957,"Address1":"539 Hudson Terrace","Address2":"19th Floor","City":"Pasadena","State":"CA","Zip":"91109","Description":null,"SalesValue":"$4217928.73"},
{"NoOfRooms":5,"NoOfBathrooms":2,"SqFeet":1382,"Address1":"70412 Loeprich Street","Address2":"PO Box 67550","City":"Oceanside","State":"CA","Zip":"92056","Description":null,"SalesValue":"$5672782.66"},
{"NoOfRooms":1,"NoOfBathrooms":1,"SqFeet":9284,"Address1":"6597 Fremont Point","Address2":"Room 393","City":"Irvine","State":"CA","Zip":"92612","Description":null,"SalesValue":"$3739779.59"},
{"NoOfRooms":3,"NoOfBathrooms":1,"SqFeet":9072,"Address1":"3 Corscot Place","Address2":"Room 792","City":"Carlsbad","State":"CA","Zip":"92013","Description":null,"SalesValue":"$1192449.30"},
{"NoOfRooms":2,"NoOfBathrooms":3,"SqFeet":7636,"Address1":"15 Quincy Point","Address2":"PO Box 69167","City":"San Luis Obispo","State":"CA","Zip":"93407","Description":null,"SalesValue":"$8135153.59"},
{"NoOfRooms":5,"NoOfBathrooms":2,"SqFeet":404,"Address1":"69011 Meadow Valley Place","Address2":"1st Floor","City":"San Francisco","State":"CA","Zip":"94154","Description":null,"SalesValue":"$2078655.08"},
{"NoOfRooms":5,"NoOfBathrooms":3,"SqFeet":5563,"Address1":"87 Anhalt Street","Address2":"PO Box 67297","City":"Pasadena","State":"CA","Zip":"91103","Description":null,"SalesValue":"$6451263.25"},
{"NoOfRooms":3,"NoOfBathrooms":3,"SqFeet":308,"Address1":"0638 Toban Trail","Address2":"12th Floor","City":"Fresno","State":"CA","Zip":"93726","Description":null,"SalesValue":"$1777709.17"},
{"NoOfRooms":5,"NoOfBathrooms":1,"SqFeet":8019,"Address1":"2091 Crownhardt Junction","Address2":"Apt 1066","City":"San Jose","State":"CA","Zip":"95113","Description":null,"SalesValue":"$378028.61"},
{"NoOfRooms":5,"NoOfBathrooms":2,"SqFeet":447,"Address1":"806 Declaration Alley","Address2":"Apt 1571","City":"Salinas","State":"CA","Zip":"93907","Description":null,"SalesValue":"$1655142.70"},
{"NoOfRooms":4,"NoOfBathrooms":1,"SqFeet":7527,"Address1":"7682 Claremont Drive","Address2":"PO Box 53009","City":"San Jose","State":"CA","Zip":"95113","Description":null,"SalesValue":"$1153441.52"},
{"NoOfRooms":4,"NoOfBathrooms":2,"SqFeet":2659,"Address1":"41 Miller Circle","Address2":"Room 1226","City":"Huntington Beach","State":"CA","Zip":"92648","Description":null,"SalesValue":"$4422072.01"},
{"NoOfRooms":5,"NoOfBathrooms":2,"SqFeet":1766,"Address1":"9 Gateway Terrace","Address2":"PO Box 6232","City":"San Diego","State":"CA","Zip":"92105","Description":null,"SalesValue":"$5390423.93"},
{"NoOfRooms":1,"NoOfBathrooms":3,"SqFeet":9690,"Address1":"84578 Fulton Plaza","Address2":"Apt 562","City":"Anaheim","State":"CA","Zip":"92805","Description":null,"SalesValue":"$3298878.65"},
{"NoOfRooms":4,"NoOfBathrooms":3,"SqFeet":4048,"Address1":"333 Del Mar Court","Address2":"Suite 19","City":"Chico","State":"CA","Zip":"95973","Description":null,"SalesValue":"$612522.87"},
{"NoOfRooms":4,"NoOfBathrooms":1,"SqFeet":9489,"Address1":"89795 Katie Center","Address2":"Room 990","City":"Palmdale","State":"CA","Zip":"93591","Description":null,"SalesValue":"$654601.77"},
{"NoOfRooms":2,"NoOfBathrooms":1,"SqFeet":8234,"Address1":"8 Almo Point","Address2":"Suite 21","City":"San Bernardino","State":"CA","Zip":"92424","Description":null,"SalesValue":"$6309490.70"},
{"NoOfRooms":3,"NoOfBathrooms":1,"SqFeet":7603,"Address1":"28 Harper Point","Address2":"16th Floor","City":"San Francisco","State":"CA","Zip":"94164","Description":null,"SalesValue":"$7145709.62"},
{"NoOfRooms":1,"NoOfBathrooms":1,"SqFeet":8488,"Address1":"553 Dennis Road","Address2":"Suite 60","City":"Los Angeles","State":"CA","Zip":"90025","Description":null,"SalesValue":"$6646743.74"},
{"NoOfRooms":4,"NoOfBathrooms":3,"SqFeet":611,"Address1":"738 Manufacturers Crossing","Address2":"Apt 1171","City":"San Francisco","State":"CA","Zip":"94164","Description":null,"SalesValue":"$5573562.05"},
{"NoOfRooms":3,"NoOfBathrooms":3,"SqFeet":1468,"Address1":"89468 Brown Lane","Address2":"Suite 85","City":"San Francisco","State":"CA","Zip":"94142","Description":null,"SalesValue":"$4909190.47"},
{"NoOfRooms":2,"NoOfBathrooms":2,"SqFeet":4233,"Address1":"85632 Armistice Avenue","Address2":"Room 1392","City":"Long Beach","State":"CA","Zip":"90847","Description":null,"SalesValue":"$8215419.86"},
{"NoOfRooms":4,"NoOfBathrooms":3,"SqFeet":9203,"Address1":"2781 Elka Court","Address2":"Room 523","City":"San Bernardino","State":"CA","Zip":"92424","Description":null,"SalesValue":"$2694270.47"},
{"NoOfRooms":3,"NoOfBathrooms":1,"SqFeet":2228,"Address1":"85 Morningstar Court","Address2":"PO Box 10164","City":"Escondido","State":"CA","Zip":"92030","Description":null,"SalesValue":"$1818375.97"},
{"NoOfRooms":3,"NoOfBathrooms":2,"SqFeet":5062,"Address1":"52863 Pennsylvania Park","Address2":"12th Floor","City":"Santa Barbara","State":"CA","Zip":"93111","Description":null,"SalesValue":"$2710823.81"},
{"NoOfRooms":5,"NoOfBathrooms":3,"SqFeet":6255,"Address1":"63 Maryland Road","Address2":"Room 1992","City":"Mountain View","State":"CA","Zip":"94042","Description":null,"SalesValue":"$4071639.78"},
{"NoOfRooms":2,"NoOfBathrooms":3,"SqFeet":9190,"Address1":"631 Eagle Crest Trail","Address2":"Suite 51","City":"Long Beach","State":"CA","Zip":"90805","Description":null,"SalesValue":"$5406080.49"},
{"NoOfRooms":3,"NoOfBathrooms":2,"SqFeet":8415,"Address1":"09083 Dawn Avenue","Address2":"Apt 253","City":"San Diego","State":"CA","Zip":"92115","Description":null,"SalesValue":"$5903773.66"},
{"NoOfRooms":4,"NoOfBathrooms":2,"SqFeet":4857,"Address1":"762 Victoria Street","Address2":"Apt 1858","City":"Van Nuys","State":"CA","Zip":"91411","Description":null,"SalesValue":"$5298490.40"},
{"NoOfRooms":3,"NoOfBathrooms":3,"SqFeet":8133,"Address1":"27 Shoshone Hill","Address2":"PO Box 90895","City":"San Diego","State":"CA","Zip":"92127","Description":null,"SalesValue":"$1591057.64"},
{"NoOfRooms":5,"NoOfBathrooms":1,"SqFeet":2293,"Address1":"316 Golf Course Pass","Address2":"Suite 66","City":"Sacramento","State":"CA","Zip":"95865","Description":null,"SalesValue":"$7305330.06"},
{"NoOfRooms":4,"NoOfBathrooms":1,"SqFeet":8089,"Address1":"60 Sachs Lane","Address2":"19th Floor","City":"Pasadena","State":"CA","Zip":"91117","Description":null,"SalesValue":"$7978615.03"},
{"NoOfRooms":1,"NoOfBathrooms":2,"SqFeet":2070,"Address1":"824 Cambridge Junction","Address2":"Suite 75","City":"Orange","State":"CA","Zip":"92867","Description":null,"SalesValue":"$172627.94"},
{"NoOfRooms":3,"NoOfBathrooms":1,"SqFeet":3912,"Address1":"63137 Logan Center","Address2":"PO Box 17401","City":"Sacramento","State":"CA","Zip":"94263","Description":null,"SalesValue":"$3147129.64"},
{"NoOfRooms":3,"NoOfBathrooms":3,"SqFeet":5400,"Address1":"24 Mallard Avenue","Address2":"PO Box 24806","City":"San Francisco","State":"CA","Zip":"94132","Description":null,"SalesValue":"$7896654.93"},
{"NoOfRooms":5,"NoOfBathrooms":1,"SqFeet":9395,"Address1":"6 Hollow Ridge Park","Address2":"4th Floor","City":"Sacramento","State":"CA","Zip":"95852","Description":null,"SalesValue":"$4112211.71"},
{"NoOfRooms":4,"NoOfBathrooms":3,"SqFeet":1817,"Address1":"7 Scofield Hill","Address2":"PO Box 6593","City":"Los Angeles","State":"CA","Zip":"90076","Description":null,"SalesValue":"$7110222.07"},
{"NoOfRooms":1,"NoOfBathrooms":2,"SqFeet":7963,"Address1":"09 Laurel Way","Address2":"Apt 927","City":"San Jose","State":"CA","Zip":"95160","Description":null,"SalesValue":"$4156492.66"},
{"NoOfRooms":3,"NoOfBathrooms":2,"SqFeet":1230,"Address1":"651 Hoffman Parkway","Address2":"Suite 55","City":"Oxnard","State":"CA","Zip":"93034","Description":null,"SalesValue":"$2237733.62"},
{"NoOfRooms":4,"NoOfBathrooms":3,"SqFeet":5180,"Address1":"5964 Northview Terrace","Address2":"PO Box 77256","City":"Los Angeles","State":"CA","Zip":"90010","Description":null,"SalesValue":"$5300147.53"},
{"NoOfRooms":4,"NoOfBathrooms":2,"SqFeet":5102,"Address1":"440 Pine View Center","Address2":"Apt 1587","City":"San Jose","State":"CA","Zip":"95108","Description":null,"SalesValue":"$4065466.58"},
{"NoOfRooms":2,"NoOfBathrooms":1,"SqFeet":7947,"Address1":"24442 Magdeline Point","Address2":"Suite 30","City":"Modesto","State":"CA","Zip":"95354","Description":null,"SalesValue":"$9176768.04"},
{"NoOfRooms":1,"NoOfBathrooms":3,"SqFeet":222,"Address1":"91026 Summer Ridge Drive","Address2":"Suite 10","City":"Sacramento","State":"CA","Zip":"94245","Description":null,"SalesValue":"$5944178.29"},
{"NoOfRooms":4,"NoOfBathrooms":3,"SqFeet":9447,"Address1":"80605 Parkside Court","Address2":"PO Box 70641","City":"Sacramento","State":"CA","Zip":"94263","Description":null,"SalesValue":"$6852309.91"},
{"NoOfRooms":2,"NoOfBathrooms":1,"SqFeet":458,"Address1":"9638 Melrose Lane","Address2":"Suite 32","City":"Santa Rosa","State":"CA","Zip":"95405","Description":null,"SalesValue":"$5402918.88"},
{"NoOfRooms":4,"NoOfBathrooms":3,"SqFeet":2630,"Address1":"6 Buell Terrace","Address2":"PO Box 27401","City":"San Diego","State":"CA","Zip":"92127","Description":null,"SalesValue":"$2121003.67"},
{"NoOfRooms":4,"NoOfBathrooms":1,"SqFeet":6510,"Address1":"73 Tomscot Way","Address2":"Room 217","City":"Pomona","State":"CA","Zip":"91797","Description":null,"SalesValue":"$7342062.07"},
{"NoOfRooms":2,"NoOfBathrooms":3,"SqFeet":832,"Address1":"502 Sullivan Parkway","Address2":"Apt 1375","City":"Fresno","State":"CA","Zip":"93715","Description":null,"SalesValue":"$5321245.97"},
{"NoOfRooms":3,"NoOfBathrooms":2,"SqFeet":2871,"Address1":"7614 Randy Street","Address2":"Apt 1970","City":"Los Angeles","State":"CA","Zip":"90035","Description":null,"SalesValue":"$8531116.31"},
{"NoOfRooms":3,"NoOfBathrooms":2,"SqFeet":4431,"Address1":"616 Scofield Lane","Address2":"Apt 1701","City":"San Bernardino","State":"CA","Zip":"92410","Description":null,"SalesValue":"$5515987.36"},
{"NoOfRooms":3,"NoOfBathrooms":3,"SqFeet":7837,"Address1":"14862 Monterey Drive","Address2":"Apt 154","City":"Fresno","State":"CA","Zip":"93709","Description":null,"SalesValue":"$5159280.38"},
{"NoOfRooms":5,"NoOfBathrooms":3,"SqFeet":8484,"Address1":"50 Clyde Gallagher Way","Address2":"7th Floor","City":"San Diego","State":"CA","Zip":"92186","Description":null,"SalesValue":"$7181944.85"},
{"NoOfRooms":5,"NoOfBathrooms":2,"SqFeet":3948,"Address1":"39265 Sunfield Pass","Address2":"Apt 774","City":"Sacramento","State":"CA","Zip":"94286","Description":null,"SalesValue":"$6658298.58"},
{"NoOfRooms":5,"NoOfBathrooms":2,"SqFeet":5358,"Address1":"08862 4th Alley","Address2":"15th Floor","City":"Newport Beach","State":"CA","Zip":"92662","Description":null,"SalesValue":"$4900857.79"},
{"NoOfRooms":3,"NoOfBathrooms":3,"SqFeet":974,"Address1":"61 Esker Trail","Address2":"Suite 3","City":"Fresno","State":"CA","Zip":"93773","Description":null,"SalesValue":"$3011146.03"},
{"NoOfRooms":1,"NoOfBathrooms":3,"SqFeet":6442,"Address1":"22 Aberg Plaza","Address2":"12th Floor","City":"Los Angeles","State":"CA","Zip":"90087","Description":null,"SalesValue":"$1195899.03"},
{"NoOfRooms":2,"NoOfBathrooms":2,"SqFeet":1483,"Address1":"726 Anniversary Lane","Address2":"14th Floor","City":"Glendale","State":"CA","Zip":"91205","Description":null,"SalesValue":"$1021355.54"},
{"NoOfRooms":2,"NoOfBathrooms":3,"SqFeet":5224,"Address1":"33 Fulton Terrace","Address2":"Suite 13","City":"Burbank","State":"CA","Zip":"91520","Description":null,"SalesValue":"$8403964.08"},
{"NoOfRooms":2,"NoOfBathrooms":3,"SqFeet":8305,"Address1":"97 Rieder Way","Address2":"Suite 33","City":"Newport Beach","State":"CA","Zip":"92662","Description":null,"SalesValue":"$484827.94"},
{"NoOfRooms":1,"NoOfBathrooms":3,"SqFeet":1234,"Address1":"51020 Bashford Pass","Address2":"Room 1217","City":"San Diego","State":"CA","Zip":"92160","Description":null,"SalesValue":"$9472411.93"},
{"NoOfRooms":1,"NoOfBathrooms":2,"SqFeet":8988,"Address1":"6 Vera Junction","Address2":"Room 1511","City":"Sacramento","State":"CA","Zip":"94263","Description":null,"SalesValue":"$4350687.57"},
{"NoOfRooms":1,"NoOfBathrooms":2,"SqFeet":4454,"Address1":"669 Huxley Pass","Address2":"Room 896","City":"San Mateo","State":"CA","Zip":"94405","Description":null,"SalesValue":"$1572695.36"},
{"NoOfRooms":1,"NoOfBathrooms":2,"SqFeet":8030,"Address1":"3649 Mallory Trail","Address2":"Room 1955","City":"San Francisco","State":"CA","Zip":"94116","Description":null,"SalesValue":"$6250950.52"},
{"NoOfRooms":2,"NoOfBathrooms":3,"SqFeet":8140,"Address1":"1 Pawling Avenue","Address2":"3rd Floor","City":"Los Angeles","State":"CA","Zip":"90060","Description":null,"SalesValue":"$2939978.73"},
{"NoOfRooms":1,"NoOfBathrooms":3,"SqFeet":8930,"Address1":"6 Gina Circle","Address2":"Room 272","City":"San Jose","State":"CA","Zip":"95194","Description":null,"SalesValue":"$3511610.67"},
{"NoOfRooms":5,"NoOfBathrooms":3,"SqFeet":6353,"Address1":"2 Hayes Circle","Address2":"Apt 1952","City":"Santa Ana","State":"CA","Zip":"92725","Description":null,"SalesValue":"$5331887.98"},
{"NoOfRooms":3,"NoOfBathrooms":1,"SqFeet":8910,"Address1":"6 Drewry Circle","Address2":"Suite 73","City":"Northridge","State":"CA","Zip":"91328","Description":null,"SalesValue":"$5918277.49"},
{"NoOfRooms":5,"NoOfBathrooms":3,"SqFeet":3856,"Address1":"1578 Northland Way","Address2":"Apt 343","City":"San Francisco","State":"CA","Zip":"94110","Description":null,"SalesValue":"$6167481.57"},
{"NoOfRooms":1,"NoOfBathrooms":3,"SqFeet":2262,"Address1":"46 Moland Place","Address2":"Room 1092","City":"Los Angeles","State":"CA","Zip":"90005","Description":null,"SalesValue":"$490026.47"},
{"NoOfRooms":4,"NoOfBathrooms":2,"SqFeet":4835,"Address1":"116 Kensington Junction","Address2":"PO Box 23560","City":"Bakersfield","State":"CA","Zip":"93386","Description":null,"SalesValue":"$7209259.44"},
{"NoOfRooms":1,"NoOfBathrooms":1,"SqFeet":9012,"Address1":"8 Spenser Road","Address2":"PO Box 67488","City":"San Jose","State":"CA","Zip":"95150","Description":null,"SalesValue":"$9698156.79"},
{"NoOfRooms":4,"NoOfBathrooms":2,"SqFeet":9800,"Address1":"3799 Washington Road","Address2":"PO Box 96969","City":"Los Angeles","State":"CA","Zip":"90094","Description":null,"SalesValue":"$6963744.34"},
{"NoOfRooms":4,"NoOfBathrooms":2,"SqFeet":9017,"Address1":"52631 Algoma Lane","Address2":"PO Box 43024","City":"Sacramento","State":"CA","Zip":"94291","Description":null,"SalesValue":"$2832300.26"},
{"NoOfRooms":4,"NoOfBathrooms":3,"SqFeet":8607,"Address1":"75922 Hansons Junction","Address2":"6th Floor","City":"San Diego","State":"CA","Zip":"92145","Description":null,"SalesValue":"$4993549.88"},
{"NoOfRooms":3,"NoOfBathrooms":1,"SqFeet":892,"Address1":"51166 Westport Center","Address2":"Room 181","City":"Los Angeles","State":"CA","Zip":"90050","Description":null,"SalesValue":"$5340697.48"},
{"NoOfRooms":4,"NoOfBathrooms":1,"SqFeet":8748,"Address1":"47965 Anderson Place","Address2":"Room 1101","City":"Sacramento","State":"CA","Zip":"95833","Description":null,"SalesValue":"$9009909.55"},
{"NoOfRooms":3,"NoOfBathrooms":3,"SqFeet":190,"Address1":"29349 Westend Alley","Address2":"PO Box 40575","City":"San Francisco","State":"CA","Zip":"94159","Description":null,"SalesValue":"$5210135.96"},
{"NoOfRooms":4,"NoOfBathrooms":2,"SqFeet":3665,"Address1":"73126 Harbort Street","Address2":"PO Box 58894","City":"San Bernardino","State":"CA","Zip":"92405","Description":null,"SalesValue":"$5211117.90"},
{"NoOfRooms":2,"NoOfBathrooms":2,"SqFeet":7640,"Address1":"3278 Petterle Point","Address2":"6th Floor","City":"Newport Beach","State":"CA","Zip":"92662","Description":null,"SalesValue":"$2689235.52"},
{"NoOfRooms":5,"NoOfBathrooms":2,"SqFeet":7805,"Address1":"31441 Hoard Street","Address2":"Suite 94","City":"Orange","State":"CA","Zip":"92668","Description":null,"SalesValue":"$6518247.21"},
{"NoOfRooms":2,"NoOfBathrooms":2,"SqFeet":5725,"Address1":"6 Blackbird Drive","Address2":"11th Floor","City":"Corona","State":"CA","Zip":"92883","Description":null,"SalesValue":"$9351570.20"},
{"NoOfRooms":4,"NoOfBathrooms":1,"SqFeet":9731,"Address1":"6937 Thackeray Trail","Address2":"PO Box 46188","City":"Palmdale","State":"CA","Zip":"93591","Description":null,"SalesValue":"$4094797.97"},
{"NoOfRooms":4,"NoOfBathrooms":2,"SqFeet":1539,"Address1":"44785 Ridgeview Parkway","Address2":"Suite 12","City":"San Diego","State":"CA","Zip":"92121","Description":null,"SalesValue":"$3931855.92"},
{"NoOfRooms":1,"NoOfBathrooms":1,"SqFeet":7243,"Address1":"40105 Melrose Plaza","Address2":"7th Floor","City":"Fresno","State":"CA","Zip":"93750","Description":null,"SalesValue":"$5393096.13"},
{"NoOfRooms":1,"NoOfBathrooms":1,"SqFeet":9603,"Address1":"7985 Shelley Drive","Address2":"Apt 1953","City":"Santa Ana","State":"CA","Zip":"92705","Description":null,"SalesValue":"$8267873.83"},
{"NoOfRooms":5,"NoOfBathrooms":1,"SqFeet":174,"Address1":"3 Lakewood Drive","Address2":"Apt 73","City":"Stockton","State":"CA","Zip":"95298","Description":null,"SalesValue":"$9643897.84"},
{"NoOfRooms":2,"NoOfBathrooms":1,"SqFeet":7898,"Address1":"84 Buell Hill","Address2":"8th Floor","City":"South Lake Tahoe","State":"CA","Zip":"96154","Description":null,"SalesValue":"$1582914.84"},
{"NoOfRooms":1,"NoOfBathrooms":1,"SqFeet":2834,"Address1":"520 Novick Point","Address2":"Apt 151","City":"San Jose","State":"CA","Zip":"95160","Description":null,"SalesValue":"$7552428.84"},
{"NoOfRooms":2,"NoOfBathrooms":1,"SqFeet":9033,"Address1":"5756 Petterle Circle","Address2":"7th Floor","City":"Sacramento","State":"CA","Zip":"94237","Description":null,"SalesValue":"$8749727.14"},
{"NoOfRooms":1,"NoOfBathrooms":3,"SqFeet":9180,"Address1":"752 Northfield Place","Address2":"Room 1355","City":"Bakersfield","State":"CA","Zip":"93386","Description":null,"SalesValue":"$2145885.31"},
{"NoOfRooms":1,"NoOfBathrooms":1,"SqFeet":8119,"Address1":"524 Oakridge Pass","Address2":"13th Floor","City":"Bakersfield","State":"CA","Zip":"93311","Description":null,"SalesValue":"$9430629.76"},
{"NoOfRooms":3,"NoOfBathrooms":2,"SqFeet":7048,"Address1":"37 Barby Junction","Address2":"Suite 5","City":"Santa Ana","State":"CA","Zip":"92725","Description":null,"SalesValue":"$7579277.00"},
{"NoOfRooms":2,"NoOfBathrooms":3,"SqFeet":7684,"Address1":"9 Prairieview Point","Address2":"PO Box 79748","City":"Garden Grove","State":"CA","Zip":"92645","Description":null,"SalesValue":"$2946711.34"},
{"NoOfRooms":1,"NoOfBathrooms":2,"SqFeet":8687,"Address1":"74972 Knutson Terrace","Address2":"Apt 1603","City":"Sacramento","State":"CA","Zip":"94291","Description":null,"SalesValue":"$5944872.08"},
{"NoOfRooms":4,"NoOfBathrooms":3,"SqFeet":7761,"Address1":"4 Blackbird Road","Address2":"PO Box 2185","City":"San Diego","State":"CA","Zip":"92160","Description":null,"SalesValue":"$953635.68"},
{"NoOfRooms":5,"NoOfBathrooms":1,"SqFeet":1749,"Address1":"61 Hermina Court","Address2":"Suite 63","City":"Bakersfield","State":"CA","Zip":"93305","Description":null,"SalesValue":"$9190405.27"},
{"NoOfRooms":4,"NoOfBathrooms":1,"SqFeet":1536,"Address1":"2 Namekagon Pass","Address2":"Suite 90","City":"Stockton","State":"CA","Zip":"95210","Description":null,"SalesValue":"$736761.98"},
{"NoOfRooms":5,"NoOfBathrooms":3,"SqFeet":1554,"Address1":"6920 Knutson Plaza","Address2":"Room 1498","City":"Oakland","State":"CA","Zip":"94616","Description":null,"SalesValue":"$7135015.66"},
{"NoOfRooms":3,"NoOfBathrooms":2,"SqFeet":4907,"Address1":"02 Pawling Lane","Address2":"PO Box 13221","City":"Pasadena","State":"CA","Zip":"91199","Description":null,"SalesValue":"$9162870.66"},
{"NoOfRooms":1,"NoOfBathrooms":2,"SqFeet":3119,"Address1":"94368 Meadow Vale Avenue","Address2":"Apt 52","City":"Stockton","State":"CA","Zip":"95210","Description":null,"SalesValue":"$6185630.63"},
{"NoOfRooms":1,"NoOfBathrooms":2,"SqFeet":2337,"Address1":"4 Dixon Way","Address2":"Room 684","City":"San Francisco","State":"CA","Zip":"94177","Description":null,"SalesValue":"$6649046.25"},
{"NoOfRooms":1,"NoOfBathrooms":2,"SqFeet":687,"Address1":"55960 Barby Point","Address2":"Room 1003","City":"Los Angeles","State":"CA","Zip":"90060","Description":null,"SalesValue":"$7094087.69"},
{"NoOfRooms":2,"NoOfBathrooms":1,"SqFeet":5254,"Address1":"501 Lindbergh Junction","Address2":"PO Box 88655","City":"Fresno","State":"CA","Zip":"93786","Description":null,"SalesValue":"$7076272.59"},
{"NoOfRooms":2,"NoOfBathrooms":2,"SqFeet":2067,"Address1":"989 Shelley Circle","Address2":"Room 1129","City":"Hayward","State":"CA","Zip":"94544","Description":null,"SalesValue":"$1291632.42"},
{"NoOfRooms":4,"NoOfBathrooms":3,"SqFeet":4308,"Address1":"60225 Kim Circle","Address2":"Suite 33","City":"Pasadena","State":"CA","Zip":"91125","Description":null,"SalesValue":"$9773931.22"},
{"NoOfRooms":5,"NoOfBathrooms":3,"SqFeet":754,"Address1":"35444 Dwight Drive","Address2":"Room 56","City":"Los Angeles","State":"CA","Zip":"90087","Description":null,"SalesValue":"$6887804.20"},
{"NoOfRooms":2,"NoOfBathrooms":2,"SqFeet":1842,"Address1":"71 East Center","Address2":"Apt 20","City":"Sacramento","State":"CA","Zip":"94280","Description":null,"SalesValue":"$451712.65"},
{"NoOfRooms":5,"NoOfBathrooms":3,"SqFeet":504,"Address1":"3117 Huxley Park","Address2":"Apt 1026","City":"Fresno","State":"CA","Zip":"93709","Description":null,"SalesValue":"$8936464.71"},
{"NoOfRooms":1,"NoOfBathrooms":1,"SqFeet":7362,"Address1":"8 Bunting Avenue","Address2":"14th Floor","City":"Pasadena","State":"CA","Zip":"91186","Description":null,"SalesValue":"$5578350.84"},
{"NoOfRooms":4,"NoOfBathrooms":1,"SqFeet":3368,"Address1":"993 Eastwood Center","Address2":"PO Box 94242","City":"Whittier","State":"CA","Zip":"90610","Description":null,"SalesValue":"$3676351.66"},
{"NoOfRooms":5,"NoOfBathrooms":1,"SqFeet":3838,"Address1":"839 Crowley Place","Address2":"PO Box 24918","City":"San Diego","State":"CA","Zip":"92137","Description":null,"SalesValue":"$1113449.51"},
{"NoOfRooms":4,"NoOfBathrooms":1,"SqFeet":2892,"Address1":"77 Hallows Court","Address2":"PO Box 47453","City":"San Jose","State":"CA","Zip":"95173","Description":null,"SalesValue":"$9354463.83"},
{"NoOfRooms":5,"NoOfBathrooms":3,"SqFeet":6196,"Address1":"60 Marquette Drive","Address2":"13th Floor","City":"Carlsbad","State":"CA","Zip":"92013","Description":null,"SalesValue":"$9500000.53"},
{"NoOfRooms":2,"NoOfBathrooms":3,"SqFeet":813,"Address1":"09498 Pawling Center","Address2":"PO Box 69323","City":"San Jose","State":"CA","Zip":"95173","Description":null,"SalesValue":"$5476874.74"},
{"NoOfRooms":4,"NoOfBathrooms":2,"SqFeet":3406,"Address1":"29683 Morningstar Court","Address2":"PO Box 48990","City":"Fresno","State":"CA","Zip":"93709","Description":null,"SalesValue":"$7163261.09"},
{"NoOfRooms":2,"NoOfBathrooms":3,"SqFeet":2396,"Address1":"9 Loeprich Terrace","Address2":"18th Floor","City":"Mountain View","State":"CA","Zip":"94042","Description":null,"SalesValue":"$3367213.24"},
{"NoOfRooms":1,"NoOfBathrooms":1,"SqFeet":2507,"Address1":"462 Prentice Way","Address2":"Suite 55","City":"San Mateo","State":"CA","Zip":"94405","Description":null,"SalesValue":"$1788347.37"},
{"NoOfRooms":5,"NoOfBathrooms":1,"SqFeet":3321,"Address1":"80 Pennsylvania Street","Address2":"2nd Floor","City":"Modesto","State":"CA","Zip":"95397","Description":null,"SalesValue":"$5702552.13"},
{"NoOfRooms":4,"NoOfBathrooms":2,"SqFeet":4646,"Address1":"487 Mandrake Drive","Address2":"Apt 1379","City":"Sacramento","State":"CA","Zip":"95818","Description":null,"SalesValue":"$3231101.57"},
{"NoOfRooms":2,"NoOfBathrooms":1,"SqFeet":8695,"Address1":"4749 8th Park","Address2":"PO Box 55083","City":"Bakersfield","State":"CA","Zip":"93305","Description":null,"SalesValue":"$3338714.22"},
{"NoOfRooms":4,"NoOfBathrooms":1,"SqFeet":8802,"Address1":"02183 Nobel Road","Address2":"Suite 61","City":"Garden Grove","State":"CA","Zip":"92844","Description":null,"SalesValue":"$3372396.34"},
{"NoOfRooms":5,"NoOfBathrooms":1,"SqFeet":727,"Address1":"129 Petterle Court","Address2":"19th Floor","City":"Sacramento","State":"CA","Zip":"94280","Description":null,"SalesValue":"$945660.77"},
{"NoOfRooms":2,"NoOfBathrooms":2,"SqFeet":8496,"Address1":"495 Kinsman Trail","Address2":"PO Box 68712","City":"Anaheim","State":"CA","Zip":"92805","Description":null,"SalesValue":"$6884194.06"},
{"NoOfRooms":3,"NoOfBathrooms":2,"SqFeet":8409,"Address1":"253 Springs Pass","Address2":"4th Floor","City":"Van Nuys","State":"CA","Zip":"91499","Description":null,"SalesValue":"$2410555.05"},
{"NoOfRooms":2,"NoOfBathrooms":2,"SqFeet":2788,"Address1":"4 4th Trail","Address2":"Suite 4","City":"Los Angeles","State":"CA","Zip":"90035","Description":null,"SalesValue":"$3869152.29"},
{"NoOfRooms":1,"NoOfBathrooms":1,"SqFeet":1730,"Address1":"227 Village Road","Address2":"Apt 1448","City":"Whittier","State":"CA","Zip":"90610","Description":null,"SalesValue":"$8443767.89"},
{"NoOfRooms":5,"NoOfBathrooms":3,"SqFeet":1969,"Address1":"814 Browning Center","Address2":"PO Box 40897","City":"Palmdale","State":"CA","Zip":"93591","Description":null,"SalesValue":"$7948172.63"},
{"NoOfRooms":5,"NoOfBathrooms":3,"SqFeet":1806,"Address1":"1 Talmadge Terrace","Address2":"15th Floor","City":"Bakersfield","State":"CA","Zip":"93386","Description":null,"SalesValue":"$714005.48"},
{"NoOfRooms":4,"NoOfBathrooms":2,"SqFeet":7806,"Address1":"95492 North Avenue","Address2":"Apt 1828","City":"Fullerton","State":"CA","Zip":"92835","Description":null,"SalesValue":"$5802175.90"},
{"NoOfRooms":1,"NoOfBathrooms":3,"SqFeet":8413,"Address1":"282 Debs Circle","Address2":"9th Floor","City":"Los Angeles","State":"CA","Zip":"90060","Description":null,"SalesValue":"$8669441.47"},
{"NoOfRooms":5,"NoOfBathrooms":1,"SqFeet":3322,"Address1":"934 Pennsylvania Circle","Address2":"14th Floor","City":"Whittier","State":"CA","Zip":"90610","Description":null,"SalesValue":"$4558560.97"},
{"NoOfRooms":3,"NoOfBathrooms":3,"SqFeet":866,"Address1":"68 Knutson Way","Address2":"Apt 1543","City":"San Diego","State":"CA","Zip":"92196","Description":null,"SalesValue":"$979273.43"},
{"NoOfRooms":1,"NoOfBathrooms":2,"SqFeet":6725,"Address1":"95149 Victoria Court","Address2":"Room 999","City":"San Diego","State":"CA","Zip":"92153","Description":null,"SalesValue":"$973445.10"},
{"NoOfRooms":5,"NoOfBathrooms":1,"SqFeet":7419,"Address1":"5605 Lien Court","Address2":"Apt 477","City":"Los Angeles","State":"CA","Zip":"90025","Description":null,"SalesValue":"$3442196.25"},
{"NoOfRooms":4,"NoOfBathrooms":2,"SqFeet":4212,"Address1":"35828 Melvin Court","Address2":"17th Floor","City":"Ventura","State":"CA","Zip":"93005","Description":null,"SalesValue":"$3194191.62"},
{"NoOfRooms":1,"NoOfBathrooms":2,"SqFeet":3859,"Address1":"5 Grim Trail","Address2":"Room 584","City":"Fullerton","State":"CA","Zip":"92835","Description":null,"SalesValue":"$9859940.42"},
{"NoOfRooms":5,"NoOfBathrooms":1,"SqFeet":7558,"Address1":"29144 Nevada Plaza","Address2":"Apt 1446","City":"Los Angeles","State":"CA","Zip":"90094","Description":null,"SalesValue":"$1345311.86"},
{"NoOfRooms":5,"NoOfBathrooms":1,"SqFeet":2140,"Address1":"6858 Thierer Pass","Address2":"PO Box 91698","City":"Hayward","State":"CA","Zip":"94544","Description":null,"SalesValue":"$520048.63"},
{"NoOfRooms":5,"NoOfBathrooms":2,"SqFeet":6039,"Address1":"6 Graceland Way","Address2":"Apt 170","City":"Corona","State":"CA","Zip":"92883","Description":null,"SalesValue":"$3030716.82"},
{"NoOfRooms":5,"NoOfBathrooms":1,"SqFeet":4456,"Address1":"84 Scott Hill","Address2":"7th Floor","City":"Anaheim","State":"CA","Zip":"92812","Description":null,"SalesValue":"$3537962.46"},
{"NoOfRooms":5,"NoOfBathrooms":2,"SqFeet":5164,"Address1":"35321 Manitowish Hill","Address2":"Suite 27","City":"San Jose","State":"CA","Zip":"95160","Description":null,"SalesValue":"$9311956.77"},
{"NoOfRooms":2,"NoOfBathrooms":3,"SqFeet":6227,"Address1":"081 1st Crossing","Address2":"PO Box 33327","City":"Long Beach","State":"CA","Zip":"90831","Description":null,"SalesValue":"$7809827.10"},
{"NoOfRooms":5,"NoOfBathrooms":3,"SqFeet":6231,"Address1":"85052 Shopko Hill","Address2":"Apt 1278","City":"Oakland","State":"CA","Zip":"94660","Description":null,"SalesValue":"$8920803.07"},
{"NoOfRooms":4,"NoOfBathrooms":1,"SqFeet":9726,"Address1":"63 Waywood Street","Address2":"Room 1995","City":"Fullerton","State":"CA","Zip":"92640","Description":null,"SalesValue":"$5799975.56"},
{"NoOfRooms":1,"NoOfBathrooms":1,"SqFeet":5950,"Address1":"36 6th Trail","Address2":"PO Box 20282","City":"San Bernardino","State":"CA","Zip":"92410","Description":null,"SalesValue":"$5379884.34"},
{"NoOfRooms":2,"NoOfBathrooms":3,"SqFeet":5716,"Address1":"5 Mcbride Lane","Address2":"PO Box 97008","City":"Torrance","State":"CA","Zip":"90505","Description":null,"SalesValue":"$132011.98"},
{"NoOfRooms":1,"NoOfBathrooms":2,"SqFeet":330,"Address1":"5 Duke Road","Address2":"Apt 1365","City":"Sacramento","State":"CA","Zip":"95823","Description":null,"SalesValue":"$2191366.43"},
{"NoOfRooms":4,"NoOfBathrooms":2,"SqFeet":8802,"Address1":"41 Eastwood Junction","Address2":"Room 1839","City":"San Francisco","State":"CA","Zip":"94126","Description":null,"SalesValue":"$2012837.84"},
{"NoOfRooms":3,"NoOfBathrooms":3,"SqFeet":5066,"Address1":"482 Thompson Road","Address2":"Apt 1943","City":"North Hollywood","State":"CA","Zip":"91606","Description":null,"SalesValue":"$6533965.71"},
{"NoOfRooms":2,"NoOfBathrooms":3,"SqFeet":1423,"Address1":"32 Pond Park","Address2":"12th Floor","City":"Bakersfield","State":"CA","Zip":"93399","Description":null,"SalesValue":"$5863443.72"},
{"NoOfRooms":3,"NoOfBathrooms":1,"SqFeet":6379,"Address1":"75955 Elmside Pass","Address2":"Apt 922","City":"Fresno","State":"CA","Zip":"93715","Description":null,"SalesValue":"$3791637.45"},
{"NoOfRooms":4,"NoOfBathrooms":1,"SqFeet":4992,"Address1":"108 Blue Bill Park Crossing","Address2":"Suite 1","City":"Fresno","State":"CA","Zip":"93704","Description":null,"SalesValue":"$1197530.12"},
{"NoOfRooms":1,"NoOfBathrooms":3,"SqFeet":3784,"Address1":"0758 Hooker Alley","Address2":"Suite 33","City":"Inglewood","State":"CA","Zip":"90398","Description":null,"SalesValue":"$934299.80"},
{"NoOfRooms":4,"NoOfBathrooms":3,"SqFeet":5092,"Address1":"297 American Ash Court","Address2":"Room 712","City":"Long Beach","State":"CA","Zip":"90840","Description":null,"SalesValue":"$2857139.72"},
{"NoOfRooms":5,"NoOfBathrooms":2,"SqFeet":7679,"Address1":"355 Carioca Terrace","Address2":"Apt 1909","City":"Long Beach","State":"CA","Zip":"90840","Description":null,"SalesValue":"$8532296.44"},
{"NoOfRooms":5,"NoOfBathrooms":2,"SqFeet":6438,"Address1":"0096 Mallard Street","Address2":"Suite 36","City":"Long Beach","State":"CA","Zip":"90831","Description":null,"SalesValue":"$5538749.99"},
{"NoOfRooms":4,"NoOfBathrooms":3,"SqFeet":5597,"Address1":"461 Summerview Drive","Address2":"Apt 931","City":"Sacramento","State":"CA","Zip":"94297","Description":null,"SalesValue":"$5000916.62"},
{"NoOfRooms":1,"NoOfBathrooms":3,"SqFeet":7429,"Address1":"4 Hintze Alley","Address2":"Apt 775","City":"Oceanside","State":"CA","Zip":"92056","Description":null,"SalesValue":"$4494541.11"},
{"NoOfRooms":2,"NoOfBathrooms":3,"SqFeet":9968,"Address1":"7296 Moulton Plaza","Address2":"Room 410","City":"Long Beach","State":"CA","Zip":"90831","Description":null,"SalesValue":"$1645165.45"},
{"NoOfRooms":5,"NoOfBathrooms":3,"SqFeet":1555,"Address1":"8 Mallard Drive","Address2":"Room 577","City":"Sacramento","State":"CA","Zip":"95865","Description":null,"SalesValue":"$9377212.90"},
{"NoOfRooms":5,"NoOfBathrooms":1,"SqFeet":4774,"Address1":"95 Green Park","Address2":"Apt 207","City":"Long Beach","State":"CA","Zip":"90810","Description":null,"SalesValue":"$1409394.79"},
{"NoOfRooms":1,"NoOfBathrooms":3,"SqFeet":4575,"Address1":"17 Lake View Alley","Address2":"PO Box 37155","City":"Sacramento","State":"CA","Zip":"94230","Description":null,"SalesValue":"$111526.65"},
{"NoOfRooms":5,"NoOfBathrooms":3,"SqFeet":2492,"Address1":"3673 International Drive","Address2":"Suite 74","City":"Los Angeles","State":"CA","Zip":"90065","Description":null,"SalesValue":"$216636.15"},
{"NoOfRooms":3,"NoOfBathrooms":3,"SqFeet":5107,"Address1":"7 Pond Circle","Address2":"Apt 315","City":"Bakersfield","State":"CA","Zip":"93399","Description":null,"SalesValue":"$3111495.23"},
{"NoOfRooms":3,"NoOfBathrooms":1,"SqFeet":6922,"Address1":"6655 Melby Center","Address2":"Room 28","City":"San Diego","State":"CA","Zip":"92153","Description":null,"SalesValue":"$3924175.92"},
{"NoOfRooms":4,"NoOfBathrooms":3,"SqFeet":3015,"Address1":"44998 Fairfield Way","Address2":"Room 1816","City":"Sacramento","State":"CA","Zip":"95894","Description":null,"SalesValue":"$3615444.59"},
{"NoOfRooms":2,"NoOfBathrooms":2,"SqFeet":5566,"Address1":"81 Hollow Ridge Road","Address2":"Room 1608","City":"San Jose","State":"CA","Zip":"95113","Description":null,"SalesValue":"$2452118.55"},
{"NoOfRooms":4,"NoOfBathrooms":2,"SqFeet":5485,"Address1":"63 Cherokee Trail","Address2":"Apt 1894","City":"Pasadena","State":"CA","Zip":"91186","Description":null,"SalesValue":"$2828868.29"},
{"NoOfRooms":3,"NoOfBathrooms":3,"SqFeet":840,"Address1":"26 Mayer Drive","Address2":"Room 523","City":"Sacramento","State":"CA","Zip":"94245","Description":null,"SalesValue":"$7175847.95"},
{"NoOfRooms":4,"NoOfBathrooms":3,"SqFeet":4507,"Address1":"56886 Rowland Plaza","Address2":"Room 1","City":"Santa Ana","State":"CA","Zip":"92705","Description":null,"SalesValue":"$4744287.24"},
{"NoOfRooms":5,"NoOfBathrooms":2,"SqFeet":8967,"Address1":"54857 Leroy Junction","Address2":"6th Floor","City":"Fresno","State":"CA","Zip":"93794","Description":null,"SalesValue":"$8585853.31"},
{"NoOfRooms":1,"NoOfBathrooms":3,"SqFeet":9764,"Address1":"4504 Crownhardt Hill","Address2":"Room 731","City":"San Diego","State":"CA","Zip":"92165","Description":null,"SalesValue":"$6052247.23"},
{"NoOfRooms":3,"NoOfBathrooms":1,"SqFeet":3088,"Address1":"1 Ridge Oak Way","Address2":"Room 587","City":"Sacramento","State":"CA","Zip":"95818","Description":null,"SalesValue":"$9928328.22"},
{"NoOfRooms":3,"NoOfBathrooms":1,"SqFeet":6947,"Address1":"7 Laurel Park","Address2":"Suite 49","City":"Fresno","State":"CA","Zip":"93704","Description":null,"SalesValue":"$6271479.10"},
{"NoOfRooms":2,"NoOfBathrooms":1,"SqFeet":2581,"Address1":"5 Shoshone Pass","Address2":"PO Box 88404","City":"San Diego","State":"CA","Zip":"92110","Description":null,"SalesValue":"$9111986.63"},
{"NoOfRooms":1,"NoOfBathrooms":1,"SqFeet":2002,"Address1":"5 4th Drive","Address2":"16th Floor","City":"Santa Ana","State":"CA","Zip":"92705","Description":null,"SalesValue":"$6568464.42"},
{"NoOfRooms":5,"NoOfBathrooms":3,"SqFeet":6475,"Address1":"03 Columbus Crossing","Address2":"Room 1488","City":"Whittier","State":"CA","Zip":"90605","Description":null,"SalesValue":"$5914695.55"},
{"NoOfRooms":2,"NoOfBathrooms":3,"SqFeet":498,"Address1":"5 Amoth Lane","Address2":"Room 296","City":"Los Angeles","State":"CA","Zip":"90076","Description":null,"SalesValue":"$2220036.98"},
{"NoOfRooms":1,"NoOfBathrooms":3,"SqFeet":6557,"Address1":"38 Stone Corner Drive","Address2":"PO Box 5620","City":"Long Beach","State":"CA","Zip":"90805","Description":null,"SalesValue":"$4847557.38"},
{"NoOfRooms":2,"NoOfBathrooms":2,"SqFeet":9408,"Address1":"7078 Anderson Junction","Address2":"Room 1394","City":"San Diego","State":"CA","Zip":"92191","Description":null,"SalesValue":"$5496264.41"},
{"NoOfRooms":3,"NoOfBathrooms":2,"SqFeet":4738,"Address1":"71414 Magdeline Park","Address2":"PO Box 44410","City":"Los Angeles","State":"CA","Zip":"90094","Description":null,"SalesValue":"$6166714.86"},
{"NoOfRooms":1,"NoOfBathrooms":1,"SqFeet":4294,"Address1":"31320 Veith Trail","Address2":"14th Floor","City":"Fullerton","State":"CA","Zip":"92640","Description":null,"SalesValue":"$1403990.99"},
{"NoOfRooms":2,"NoOfBathrooms":2,"SqFeet":8173,"Address1":"2 Loomis Way","Address2":"Suite 96","City":"Fresno","State":"CA","Zip":"93726","Description":null,"SalesValue":"$7323209.75"},
{"NoOfRooms":5,"NoOfBathrooms":2,"SqFeet":8357,"Address1":"463 Monument Parkway","Address2":"Suite 21","City":"San Jose","State":"CA","Zip":"95123","Description":null,"SalesValue":"$1680559.22"},
{"NoOfRooms":4,"NoOfBathrooms":2,"SqFeet":3926,"Address1":"2849 Debs Way","Address2":"18th Floor","City":"San Diego","State":"CA","Zip":"92115","Description":null,"SalesValue":"$6043762.10"},
{"NoOfRooms":2,"NoOfBathrooms":2,"SqFeet":8099,"Address1":"75913 Division Lane","Address2":"PO Box 90368","City":"Sacramento","State":"CA","Zip":"94263","Description":null,"SalesValue":"$8895454.17"},
{"NoOfRooms":5,"NoOfBathrooms":1,"SqFeet":9296,"Address1":"47821 Nova Circle","Address2":"Room 132","City":"San Francisco","State":"CA","Zip":"94154","Description":null,"SalesValue":"$2361260.99"},
{"NoOfRooms":2,"NoOfBathrooms":1,"SqFeet":2237,"Address1":"351 Maywood Lane","Address2":"Apt 1895","City":"Santa Monica","State":"CA","Zip":"90405","Description":null,"SalesValue":"$268808.41"},
{"NoOfRooms":1,"NoOfBathrooms":2,"SqFeet":2388,"Address1":"6 Buhler Lane","Address2":"Suite 55","City":"Stockton","State":"CA","Zip":"95219","Description":null,"SalesValue":"$3031095.65"},
{"NoOfRooms":1,"NoOfBathrooms":3,"SqFeet":9730,"Address1":"6481 Gulseth Point","Address2":"Room 245","City":"Chico","State":"CA","Zip":"95973","Description":null,"SalesValue":"$4157799.41"},
{"NoOfRooms":1,"NoOfBathrooms":2,"SqFeet":1185,"Address1":"661 Sunbrook Circle","Address2":"Apt 1855","City":"Oakland","State":"CA","Zip":"94660","Description":null,"SalesValue":"$2245627.08"},
{"NoOfRooms":2,"NoOfBathrooms":1,"SqFeet":6953,"Address1":"52553 Columbus Court","Address2":"PO Box 32406","City":"Oakland","State":"CA","Zip":"94622","Description":null,"SalesValue":"$9295884.10"},
{"NoOfRooms":3,"NoOfBathrooms":2,"SqFeet":7372,"Address1":"6617 Ronald Regan Alley","Address2":"Apt 96","City":"Visalia","State":"CA","Zip":"93291","Description":null,"SalesValue":"$1353201.08"},
{"NoOfRooms":1,"NoOfBathrooms":3,"SqFeet":1059,"Address1":"3 Susan Trail","Address2":"PO Box 43502","City":"Sacramento","State":"CA","Zip":"95852","Description":null,"SalesValue":"$3729226.23"},
{"NoOfRooms":5,"NoOfBathrooms":2,"SqFeet":5202,"Address1":"50 Hansons Lane","Address2":"13th Floor","City":"San Diego","State":"CA","Zip":"92132","Description":null,"SalesValue":"$6969945.56"},
{"NoOfRooms":2,"NoOfBathrooms":1,"SqFeet":6543,"Address1":"3840 Meadow Vale Circle","Address2":"15th Floor","City":"Inglewood","State":"CA","Zip":"90305","Description":null,"SalesValue":"$5355832.77"},
{"NoOfRooms":4,"NoOfBathrooms":3,"SqFeet":1940,"Address1":"2196 Dovetail Crossing","Address2":"PO Box 94518","City":"Lancaster","State":"CA","Zip":"93584","Description":null,"SalesValue":"$7958493.07"},
{"NoOfRooms":4,"NoOfBathrooms":2,"SqFeet":9584,"Address1":"39 Anzinger Circle","Address2":"Room 1461","City":"Los Angeles","State":"CA","Zip":"90081","Description":null,"SalesValue":"$3020186.18"},
{"NoOfRooms":2,"NoOfBathrooms":1,"SqFeet":8721,"Address1":"9205 Kenwood Way","Address2":"Suite 21","City":"Los Angeles","State":"CA","Zip":"90045","Description":null,"SalesValue":"$1673239.84"},
{"NoOfRooms":3,"NoOfBathrooms":1,"SqFeet":2217,"Address1":"68638 Memorial Park","Address2":"Room 74","City":"San Diego","State":"CA","Zip":"92196","Description":null,"SalesValue":"$8087172.03"},
{"NoOfRooms":3,"NoOfBathrooms":1,"SqFeet":2829,"Address1":"3 Jenna Pass","Address2":"PO Box 50149","City":"Los Angeles","State":"CA","Zip":"90025","Description":null,"SalesValue":"$8183403.37"},
{"NoOfRooms":4,"NoOfBathrooms":1,"SqFeet":3389,"Address1":"12821 West Street","Address2":"1st Floor","City":"Pasadena","State":"CA","Zip":"91109","Description":null,"SalesValue":"$437895.65"},
{"NoOfRooms":1,"NoOfBathrooms":2,"SqFeet":1794,"Address1":"1 Londonderry Crossing","Address2":"Apt 1053","City":"Santa Ana","State":"CA","Zip":"92725","Description":null,"SalesValue":"$9783723.97"},
{"NoOfRooms":1,"NoOfBathrooms":3,"SqFeet":5968,"Address1":"287 Burrows Trail","Address2":"Apt 1195","City":"Santa Ana","State":"CA","Zip":"92725","Description":null,"SalesValue":"$802567.83"},
{"NoOfRooms":1,"NoOfBathrooms":3,"SqFeet":838,"Address1":"07924 Forest Run Park","Address2":"Room 1905","City":"San Jose","State":"CA","Zip":"95123","Description":null,"SalesValue":"$4034283.65"},
{"NoOfRooms":3,"NoOfBathrooms":1,"SqFeet":8919,"Address1":"873 Merrick Plaza","Address2":"Apt 705","City":"San Francisco","State":"CA","Zip":"94159","Description":null,"SalesValue":"$5220607.41"},
{"NoOfRooms":1,"NoOfBathrooms":3,"SqFeet":6565,"Address1":"2129 Melvin Trail","Address2":"Apt 622","City":"Alhambra","State":"CA","Zip":"91841","Description":null,"SalesValue":"$5506470.70"},
{"NoOfRooms":4,"NoOfBathrooms":1,"SqFeet":5854,"Address1":"72 Mccormick Pass","Address2":"Apt 477","City":"Garden Grove","State":"CA","Zip":"92844","Description":null,"SalesValue":"$7896180.37"},
{"NoOfRooms":4,"NoOfBathrooms":2,"SqFeet":957,"Address1":"143 Old Gate Alley","Address2":"Apt 1349","City":"Santa Barbara","State":"CA","Zip":"93111","Description":null,"SalesValue":"$6213307.25"},
{"NoOfRooms":2,"NoOfBathrooms":1,"SqFeet":7809,"Address1":"3973 Jenna Trail","Address2":"3rd Floor","City":"Oxnard","State":"CA","Zip":"93034","Description":null,"SalesValue":"$7689877.18"},
{"NoOfRooms":3,"NoOfBathrooms":3,"SqFeet":9643,"Address1":"575 Welch Lane","Address2":"Apt 1231","City":"Stockton","State":"CA","Zip":"95219","Description":null,"SalesValue":"$5774330.02"},
{"NoOfRooms":2,"NoOfBathrooms":2,"SqFeet":5021,"Address1":"29503 Crowley Way","Address2":"Room 1107","City":"San Jose","State":"CA","Zip":"95138","Description":null,"SalesValue":"$1803357.05"},
{"NoOfRooms":5,"NoOfBathrooms":2,"SqFeet":8047,"Address1":"53 Eliot Court","Address2":"Suite 80","City":"Riverside","State":"CA","Zip":"92519","Description":null,"SalesValue":"$6463694.68"},
{"NoOfRooms":4,"NoOfBathrooms":3,"SqFeet":8773,"Address1":"56733 Norway Maple Drive","Address2":"Apt 164","City":"Fresno","State":"CA","Zip":"93794","Description":null,"SalesValue":"$7743671.46"},
{"NoOfRooms":4,"NoOfBathrooms":2,"SqFeet":261,"Address1":"06 Pleasure Terrace","Address2":"13th Floor","City":"Sacramento","State":"CA","Zip":"95894","Description":null,"SalesValue":"$884793.02"},
{"NoOfRooms":1,"NoOfBathrooms":1,"SqFeet":7837,"Address1":"457 Hoepker Avenue","Address2":"Room 1911","City":"Long Beach","State":"CA","Zip":"90805","Description":null,"SalesValue":"$2467648.68"},
{"NoOfRooms":2,"NoOfBathrooms":1,"SqFeet":2347,"Address1":"108 Artisan Center","Address2":"Room 829","City":"Pasadena","State":"CA","Zip":"91131","Description":null,"SalesValue":"$6682952.82"},
{"NoOfRooms":2,"NoOfBathrooms":1,"SqFeet":7148,"Address1":"293 Scofield Center","Address2":"PO Box 99440","City":"Stockton","State":"CA","Zip":"95205","Description":null,"SalesValue":"$9900492.40"},
{"NoOfRooms":2,"NoOfBathrooms":1,"SqFeet":2112,"Address1":"7 Nevada Park","Address2":"Apt 1625","City":"Bakersfield","State":"CA","Zip":"93381","Description":null,"SalesValue":"$9600895.19"},
{"NoOfRooms":5,"NoOfBathrooms":3,"SqFeet":4719,"Address1":"26 Anthes Center","Address2":"PO Box 70344","City":"Sacramento","State":"CA","Zip":"94297","Description":null,"SalesValue":"$3411977.95"},
{"NoOfRooms":1,"NoOfBathrooms":2,"SqFeet":856,"Address1":"1 Fuller Pass","Address2":"PO Box 7483","City":"Stockton","State":"CA","Zip":"95219","Description":null,"SalesValue":"$3584802.81"},
{"NoOfRooms":3,"NoOfBathrooms":3,"SqFeet":9948,"Address1":"39279 Monterey Avenue","Address2":"PO Box 54784","City":"Los Angeles","State":"CA","Zip":"90076","Description":null,"SalesValue":"$5561722.83"},
{"NoOfRooms":2,"NoOfBathrooms":1,"SqFeet":8705,"Address1":"9 Fieldstone Alley","Address2":"Apt 1874","City":"South Lake Tahoe","State":"CA","Zip":"96154","Description":null,"SalesValue":"$7742179.18"},
{"NoOfRooms":3,"NoOfBathrooms":1,"SqFeet":746,"Address1":"2889 Walton Hill","Address2":"Apt 1640","City":"Sacramento","State":"CA","Zip":"95833","Description":null,"SalesValue":"$4538013.34"},
{"NoOfRooms":1,"NoOfBathrooms":2,"SqFeet":4066,"Address1":"12 Farmco Point","Address2":"Suite 3","City":"Sacramento","State":"CA","Zip":"94280","Description":null,"SalesValue":"$7628196.73"},
{"NoOfRooms":5,"NoOfBathrooms":2,"SqFeet":394,"Address1":"9958 Vernon Hill","Address2":"Room 359","City":"Fresno","State":"CA","Zip":"93794","Description":null,"SalesValue":"$5696355.17"},
{"NoOfRooms":1,"NoOfBathrooms":2,"SqFeet":5690,"Address1":"02 Susan Place","Address2":"Room 1940","City":"Garden Grove","State":"CA","Zip":"92844","Description":null,"SalesValue":"$5820867.69"},
{"NoOfRooms":1,"NoOfBathrooms":3,"SqFeet":2952,"Address1":"3894 Nancy Center","Address2":"Apt 1381","City":"Sunnyvale","State":"CA","Zip":"94089","Description":null,"SalesValue":"$5138377.58"},
{"NoOfRooms":3,"NoOfBathrooms":1,"SqFeet":8488,"Address1":"1604 Mockingbird Plaza","Address2":"PO Box 51784","City":"San Jose","State":"CA","Zip":"95155","Description":null,"SalesValue":"$8963027.70"},
{"NoOfRooms":5,"NoOfBathrooms":3,"SqFeet":6053,"Address1":"22548 Darwin Alley","Address2":"Room 1642","City":"Pomona","State":"CA","Zip":"91797","Description":null,"SalesValue":"$3698621.80"},
{"NoOfRooms":2,"NoOfBathrooms":1,"SqFeet":5786,"Address1":"315 Sheridan Drive","Address2":"14th Floor","City":"Fresno","State":"CA","Zip":"93786","Description":null,"SalesValue":"$8171511.11"},
{"NoOfRooms":4,"NoOfBathrooms":2,"SqFeet":988,"Address1":"63 Prairie Rose Point","Address2":"7th Floor","City":"Ventura","State":"CA","Zip":"93005","Description":null,"SalesValue":"$5423046.39"},
{"NoOfRooms":2,"NoOfBathrooms":3,"SqFeet":3849,"Address1":"50 Carey Point","Address2":"Suite 43","City":"Sacramento","State":"CA","Zip":"95818","Description":null,"SalesValue":"$1643901.66"},
{"NoOfRooms":5,"NoOfBathrooms":1,"SqFeet":9548,"Address1":"3959 Ruskin Road","Address2":"PO Box 68430","City":"Los Angeles","State":"CA","Zip":"90094","Description":null,"SalesValue":"$7712353.80"},
{"NoOfRooms":4,"NoOfBathrooms":1,"SqFeet":3703,"Address1":"93 Basil Court","Address2":"Suite 38","City":"Glendale","State":"CA","Zip":"91205","Description":null,"SalesValue":"$7672496.87"},
{"NoOfRooms":4,"NoOfBathrooms":1,"SqFeet":1193,"Address1":"20 Hallows Court","Address2":"18th Floor","City":"Sacramento","State":"CA","Zip":"94297","Description":null,"SalesValue":"$4121483.18"},
{"NoOfRooms":4,"NoOfBathrooms":1,"SqFeet":2498,"Address1":"068 Swallow Hill","Address2":"Apt 594","City":"Los Angeles","State":"CA","Zip":"90025","Description":null,"SalesValue":"$9109061.64"},
{"NoOfRooms":3,"NoOfBathrooms":3,"SqFeet":7462,"Address1":"0 Mariners Cove Street","Address2":"6th Floor","City":"San Bernardino","State":"CA","Zip":"92415","Description":null,"SalesValue":"$4927962.38"},
{"NoOfRooms":1,"NoOfBathrooms":3,"SqFeet":2190,"Address1":"895 Meadow Valley Center","Address2":"PO Box 16110","City":"Stockton","State":"CA","Zip":"95298","Description":null,"SalesValue":"$9764384.38"},
{"NoOfRooms":4,"NoOfBathrooms":1,"SqFeet":3509,"Address1":"64 Mesta Pass","Address2":"Apt 1354","City":"Fresno","State":"CA","Zip":"93750","Description":null,"SalesValue":"$8885045.58"},
{"NoOfRooms":2,"NoOfBathrooms":2,"SqFeet":2869,"Address1":"9 Briar Crest Way","Address2":"PO Box 13295","City":"Los Angeles","State":"CA","Zip":"90076","Description":null,"SalesValue":"$2448942.94"},
{"NoOfRooms":1,"NoOfBathrooms":1,"SqFeet":8406,"Address1":"9297 Westport Trail","Address2":"Suite 68","City":"Oakland","State":"CA","Zip":"94616","Description":null,"SalesValue":"$9375047.25"},
{"NoOfRooms":1,"NoOfBathrooms":3,"SqFeet":9356,"Address1":"7601 Schlimgen Avenue","Address2":"Room 1660","City":"Oakland","State":"CA","Zip":"94660","Description":null,"SalesValue":"$4924865.69"},
{"NoOfRooms":2,"NoOfBathrooms":1,"SqFeet":1137,"Address1":"2578 Lighthouse Bay Junction","Address2":"Room 1275","City":"San Francisco","State":"CA","Zip":"94137","Description":null,"SalesValue":"$1965794.21"},
{"NoOfRooms":4,"NoOfBathrooms":3,"SqFeet":1388,"Address1":"8886 Alpine Way","Address2":"Apt 706","City":"Anaheim","State":"CA","Zip":"92812","Description":null,"SalesValue":"$7270923.02"},
{"NoOfRooms":4,"NoOfBathrooms":2,"SqFeet":9232,"Address1":"313 Anderson Point","Address2":"Room 471","City":"Sacramento","State":"CA","Zip":"94273","Description":null,"SalesValue":"$3318733.74"},
{"NoOfRooms":2,"NoOfBathrooms":2,"SqFeet":6178,"Address1":"4 Kropf Trail","Address2":"PO Box 96302","City":"Sacramento","State":"CA","Zip":"94230","Description":null,"SalesValue":"$225734.30"},
{"NoOfRooms":5,"NoOfBathrooms":1,"SqFeet":3581,"Address1":"717 Kenwood Court","Address2":"2nd Floor","City":"Anaheim","State":"CA","Zip":"92812","Description":null,"SalesValue":"$5874473.21"},
{"NoOfRooms":1,"NoOfBathrooms":1,"SqFeet":774,"Address1":"79 Hollow Ridge Court","Address2":"Apt 220","City":"Simi Valley","State":"CA","Zip":"93094","Description":null,"SalesValue":"$6513309.41"},
{"NoOfRooms":4,"NoOfBathrooms":3,"SqFeet":6185,"Address1":"664 Coolidge Trail","Address2":"Room 1053","City":"Burbank","State":"CA","Zip":"91520","Description":null,"SalesValue":"$300632.78"},
{"NoOfRooms":5,"NoOfBathrooms":3,"SqFeet":5986,"Address1":"64676 Fulton Trail","Address2":"Suite 13","City":"Corona","State":"CA","Zip":"92878","Description":null,"SalesValue":"$5448185.01"},
{"NoOfRooms":2,"NoOfBathrooms":2,"SqFeet":4123,"Address1":"87 Pearson Street","Address2":"Room 207","City":"San Diego","State":"CA","Zip":"92165","Description":null,"SalesValue":"$3214733.48"},
{"NoOfRooms":2,"NoOfBathrooms":2,"SqFeet":262,"Address1":"1 La Follette Parkway","Address2":"5th Floor","City":"Visalia","State":"CA","Zip":"93291","Description":null,"SalesValue":"$5231767.11"},
{"NoOfRooms":5,"NoOfBathrooms":2,"SqFeet":2768,"Address1":"6 Mayfield Junction","Address2":"Suite 91","City":"Sacramento","State":"CA","Zip":"95818","Description":null,"SalesValue":"$1955179.89"},
{"NoOfRooms":4,"NoOfBathrooms":1,"SqFeet":2626,"Address1":"35 Dahle Drive","Address2":"19th Floor","City":"Burbank","State":"CA","Zip":"91505","Description":null,"SalesValue":"$448380.24"},
{"NoOfRooms":4,"NoOfBathrooms":1,"SqFeet":9628,"Address1":"5 Forest Dale Circle","Address2":"Room 960","City":"San Diego","State":"CA","Zip":"92132","Description":null,"SalesValue":"$4288283.49"},
{"NoOfRooms":3,"NoOfBathrooms":2,"SqFeet":6808,"Address1":"61 Cascade Junction","Address2":"Apt 818","City":"Oakland","State":"CA","Zip":"94611","Description":null,"SalesValue":"$2955056.95"},
{"NoOfRooms":4,"NoOfBathrooms":3,"SqFeet":2633,"Address1":"67 Rusk Street","Address2":"Room 1135","City":"Huntington Beach","State":"CA","Zip":"92648","Description":null,"SalesValue":"$3275643.16"},
{"NoOfRooms":2,"NoOfBathrooms":3,"SqFeet":6297,"Address1":"6970 Kropf Avenue","Address2":"Apt 1437","City":"Orange","State":"CA","Zip":"92862","Description":null,"SalesValue":"$9556335.04"},
{"NoOfRooms":1,"NoOfBathrooms":2,"SqFeet":9517,"Address1":"647 Parkside Road","Address2":"Apt 95","City":"Northridge","State":"CA","Zip":"91328","Description":null,"SalesValue":"$8045311.62"},
{"NoOfRooms":1,"NoOfBathrooms":1,"SqFeet":438,"Address1":"03 Bluejay Plaza","Address2":"Apt 1386","City":"Burbank","State":"CA","Zip":"91505","Description":null,"SalesValue":"$3303365.46"},
{"NoOfRooms":2,"NoOfBathrooms":2,"SqFeet":5009,"Address1":"0654 Muir Place","Address2":"PO Box 66159","City":"Orange","State":"CA","Zip":"92862","Description":null,"SalesValue":"$5237412.44"},
{"NoOfRooms":3,"NoOfBathrooms":3,"SqFeet":4802,"Address1":"33 Vermont Road","Address2":"Room 1513","City":"Los Angeles","State":"CA","Zip":"90050","Description":null,"SalesValue":"$9454660.28"},
{"NoOfRooms":2,"NoOfBathrooms":1,"SqFeet":8504,"Address1":"25259 Bobwhite Park","Address2":"PO Box 32966","City":"Fresno","State":"CA","Zip":"93721","Description":null,"SalesValue":"$8015736.39"},
{"NoOfRooms":5,"NoOfBathrooms":1,"SqFeet":7049,"Address1":"01 Wayridge Hill","Address2":"Suite 97","City":"Redwood City","State":"CA","Zip":"94064","Description":null,"SalesValue":"$8789849.66"},
{"NoOfRooms":2,"NoOfBathrooms":2,"SqFeet":8683,"Address1":"6 Dovetail Plaza","Address2":"Apt 1110","City":"San Mateo","State":"CA","Zip":"94405","Description":null,"SalesValue":"$9505123.28"},
{"NoOfRooms":3,"NoOfBathrooms":2,"SqFeet":3661,"Address1":"75 Dayton Crossing","Address2":"Suite 24","City":"San Diego","State":"CA","Zip":"92170","Description":null,"SalesValue":"$3590682.55"},
{"NoOfRooms":4,"NoOfBathrooms":1,"SqFeet":1738,"Address1":"44 Thompson Crossing","Address2":"Suite 33","City":"Moreno Valley","State":"CA","Zip":"92555","Description":null,"SalesValue":"$9139168.89"},
{"NoOfRooms":2,"NoOfBathrooms":1,"SqFeet":1752,"Address1":"8553 Lunder Park","Address2":"Suite 65","City":"Simi Valley","State":"CA","Zip":"93094","Description":null,"SalesValue":"$615127.16"},
{"NoOfRooms":3,"NoOfBathrooms":1,"SqFeet":6328,"Address1":"60 Oak Valley Circle","Address2":"Suite 75","City":"Irvine","State":"CA","Zip":"92612","Description":null,"SalesValue":"$845721.26"},
{"NoOfRooms":4,"NoOfBathrooms":1,"SqFeet":1320,"Address1":"0392 Loomis Crossing","Address2":"3rd Floor","City":"Van Nuys","State":"CA","Zip":"91406","Description":null,"SalesValue":"$8312963.79"},
{"NoOfRooms":2,"NoOfBathrooms":2,"SqFeet":8366,"Address1":"03394 Express Lane","Address2":"Suite 13","City":"Mountain View","State":"CA","Zip":"94042","Description":null,"SalesValue":"$9018817.69"},
{"NoOfRooms":3,"NoOfBathrooms":1,"SqFeet":8552,"Address1":"6545 Village Green Road","Address2":"PO Box 61368","City":"Sacramento","State":"CA","Zip":"95852","Description":null,"SalesValue":"$1119776.56"},
{"NoOfRooms":1,"NoOfBathrooms":1,"SqFeet":7216,"Address1":"4 Del Mar Alley","Address2":"17th Floor","City":"San Jose","State":"CA","Zip":"95113","Description":null,"SalesValue":"$7705171.06"},
{"NoOfRooms":3,"NoOfBathrooms":2,"SqFeet":4138,"Address1":"159 Gateway Drive","Address2":"13th Floor","City":"Sacramento","State":"CA","Zip":"94286","Description":null,"SalesValue":"$4865508.66"},
{"NoOfRooms":5,"NoOfBathrooms":3,"SqFeet":2108,"Address1":"20 Superior Street","Address2":"13th Floor","City":"South Lake Tahoe","State":"CA","Zip":"96154","Description":null,"SalesValue":"$1005896.74"},
{"NoOfRooms":1,"NoOfBathrooms":2,"SqFeet":8377,"Address1":"20 Prairie Rose Avenue","Address2":"8th Floor","City":"Stockton","State":"CA","Zip":"95219","Description":null,"SalesValue":"$1431010.13"},
{"NoOfRooms":2,"NoOfBathrooms":2,"SqFeet":4024,"Address1":"19 Farwell Place","Address2":"Suite 51","City":"Sacramento","State":"CA","Zip":"95865","Description":null,"SalesValue":"$8808806.85"},
{"NoOfRooms":2,"NoOfBathrooms":1,"SqFeet":9541,"Address1":"504 Tennessee Avenue","Address2":"Room 1627","City":"Oakland","State":"CA","Zip":"94660","Description":null,"SalesValue":"$6389861.16"},
{"NoOfRooms":2,"NoOfBathrooms":2,"SqFeet":4866,"Address1":"9652 Cascade Junction","Address2":"3rd Floor","City":"Van Nuys","State":"CA","Zip":"91499","Description":null,"SalesValue":"$7915498.02"},
{"NoOfRooms":5,"NoOfBathrooms":2,"SqFeet":9494,"Address1":"6 Milwaukee Trail","Address2":"Suite 3","City":"San Francisco","State":"CA","Zip":"94126","Description":null,"SalesValue":"$5389298.24"},
{"NoOfRooms":5,"NoOfBathrooms":2,"SqFeet":3665,"Address1":"2 Nobel Hill","Address2":"Room 1532","City":"Bakersfield","State":"CA","Zip":"93386","Description":null,"SalesValue":"$3189061.19"},
{"NoOfRooms":5,"NoOfBathrooms":2,"SqFeet":7057,"Address1":"303 Shelley Center","Address2":"Suite 58","City":"San Francisco","State":"CA","Zip":"94177","Description":null,"SalesValue":"$9943160.55"},
{"NoOfRooms":3,"NoOfBathrooms":3,"SqFeet":7153,"Address1":"5 Tomscot Terrace","Address2":"Room 1192","City":"Brea","State":"CA","Zip":"92822","Description":null,"SalesValue":"$2603233.12"},
{"NoOfRooms":3,"NoOfBathrooms":1,"SqFeet":8131,"Address1":"63 Corben Drive","Address2":"Apt 1084","City":"San Jose","State":"CA","Zip":"95128","Description":null,"SalesValue":"$7395677.49"},
{"NoOfRooms":1,"NoOfBathrooms":2,"SqFeet":8907,"Address1":"993 Prairieview Avenue","Address2":"PO Box 16096","City":"North Hollywood","State":"CA","Zip":"91616","Description":null,"SalesValue":"$2482844.81"},
{"NoOfRooms":1,"NoOfBathrooms":2,"SqFeet":1586,"Address1":"76716 Hollow Ridge Pass","Address2":"15th Floor","City":"Salinas","State":"CA","Zip":"93907","Description":null,"SalesValue":"$5401448.65"},
{"NoOfRooms":2,"NoOfBathrooms":1,"SqFeet":2559,"Address1":"1 Grasskamp Point","Address2":"Suite 38","City":"Oakland","State":"CA","Zip":"94660","Description":null,"SalesValue":"$8499059.26"},
{"NoOfRooms":3,"NoOfBathrooms":3,"SqFeet":4790,"Address1":"23508 Lukken Lane","Address2":"Suite 79","City":"San Jose","State":"CA","Zip":"95113","Description":null,"SalesValue":"$7471754.94"},
{"NoOfRooms":5,"NoOfBathrooms":2,"SqFeet":6955,"Address1":"53 Eagan Pass","Address2":"Apt 506","City":"San Diego","State":"CA","Zip":"92145","Description":null,"SalesValue":"$5244764.03"},
{"NoOfRooms":1,"NoOfBathrooms":3,"SqFeet":3101,"Address1":"14 Arrowood Place","Address2":"6th Floor","City":"Concord","State":"CA","Zip":"94522","Description":null,"SalesValue":"$5940485.20"},
{"NoOfRooms":1,"NoOfBathrooms":3,"SqFeet":7621,"Address1":"75 Pond Court","Address2":"PO Box 41126","City":"Santa Barbara","State":"CA","Zip":"93106","Description":null,"SalesValue":"$3097780.22"},
{"NoOfRooms":2,"NoOfBathrooms":2,"SqFeet":3289,"Address1":"9 Longview Way","Address2":"Suite 20","City":"Mountain View","State":"CA","Zip":"94042","Description":null,"SalesValue":"$8123366.89"},
{"NoOfRooms":1,"NoOfBathrooms":3,"SqFeet":4207,"Address1":"2273 Talmadge Parkway","Address2":"14th Floor","City":"Oceanside","State":"CA","Zip":"92056","Description":null,"SalesValue":"$6893984.18"},
{"NoOfRooms":3,"NoOfBathrooms":1,"SqFeet":861,"Address1":"958 Nevada Point","Address2":"Room 1821","City":"Santa Barbara","State":"CA","Zip":"93106","Description":null,"SalesValue":"$7119013.77"},
{"NoOfRooms":1,"NoOfBathrooms":2,"SqFeet":8663,"Address1":"4 Packers Circle","Address2":"5th Floor","City":"Oakland","State":"CA","Zip":"94616","Description":null,"SalesValue":"$4315311.85"},
{"NoOfRooms":3,"NoOfBathrooms":2,"SqFeet":6532,"Address1":"1722 Buell Parkway","Address2":"Apt 488","City":"San Diego","State":"CA","Zip":"92191","Description":null,"SalesValue":"$5702780.96"},
{"NoOfRooms":1,"NoOfBathrooms":2,"SqFeet":5650,"Address1":"8 Maple Terrace","Address2":"Apt 552","City":"Bakersfield","State":"CA","Zip":"93381","Description":null,"SalesValue":"$9828055.43"},
{"NoOfRooms":1,"NoOfBathrooms":1,"SqFeet":4844,"Address1":"31974 Westridge Pass","Address2":"PO Box 82840","City":"San Francisco","State":"CA","Zip":"94105","Description":null,"SalesValue":"$6049279.49"},
{"NoOfRooms":2,"NoOfBathrooms":2,"SqFeet":2115,"Address1":"521 Hudson Place","Address2":"Apt 1910","City":"Sacramento","State":"CA","Zip":"94257","Description":null,"SalesValue":"$8786323.48"},
{"NoOfRooms":1,"NoOfBathrooms":3,"SqFeet":7146,"Address1":"7907 Corry Junction","Address2":"14th Floor","City":"Fresno","State":"CA","Zip":"93762","Description":null,"SalesValue":"$682996.96"},
{"NoOfRooms":5,"NoOfBathrooms":2,"SqFeet":9484,"Address1":"0 Steensland Terrace","Address2":"2nd Floor","City":"Oakland","State":"CA","Zip":"94616","Description":null,"SalesValue":"$4835552.87"},
{"NoOfRooms":3,"NoOfBathrooms":1,"SqFeet":2978,"Address1":"3240 Derek Alley","Address2":"Apt 170","City":"Orange","State":"CA","Zip":"92867","Description":null,"SalesValue":"$2105945.36"},
{"NoOfRooms":4,"NoOfBathrooms":1,"SqFeet":113,"Address1":"05 Carpenter Plaza","Address2":"Room 724","City":"Stockton","State":"CA","Zip":"95298","Description":null,"SalesValue":"$2656866.11"},
{"NoOfRooms":1,"NoOfBathrooms":1,"SqFeet":7971,"Address1":"95 Jenifer Hill","Address2":"Room 1095","City":"San Diego","State":"CA","Zip":"92186","Description":null,"SalesValue":"$3463648.33"},
{"NoOfRooms":1,"NoOfBathrooms":3,"SqFeet":4720,"Address1":"5 Manufacturers Court","Address2":"Suite 73","City":"North Hollywood","State":"CA","Zip":"91606","Description":null,"SalesValue":"$4941847.97"},
{"NoOfRooms":2,"NoOfBathrooms":2,"SqFeet":2433,"Address1":"9586 Hayes Avenue","Address2":"Room 628","City":"Sacramento","State":"CA","Zip":"95894","Description":null,"SalesValue":"$8703085.66"},
{"NoOfRooms":4,"NoOfBathrooms":3,"SqFeet":9901,"Address1":"10099 Carioca Terrace","Address2":"PO Box 53198","City":"Sacramento","State":"CA","Zip":"95828","Description":null,"SalesValue":"$1458896.26"},
{"NoOfRooms":1,"NoOfBathrooms":1,"SqFeet":4869,"Address1":"3 Randy Pass","Address2":"Apt 1729","City":"San Jose","State":"CA","Zip":"95113","Description":null,"SalesValue":"$3673816.69"},
{"NoOfRooms":1,"NoOfBathrooms":2,"SqFeet":1212,"Address1":"4 Becker Drive","Address2":"PO Box 52456","City":"Bakersfield","State":"CA","Zip":"93305","Description":null,"SalesValue":"$3064431.91"},
{"NoOfRooms":2,"NoOfBathrooms":2,"SqFeet":5627,"Address1":"3 Dahle Street","Address2":"Suite 78","City":"San Francisco","State":"CA","Zip":"94116","Description":null,"SalesValue":"$7539063.53"},
{"NoOfRooms":1,"NoOfBathrooms":2,"SqFeet":8885,"Address1":"691 Moulton Place","Address2":"Suite 7","City":"Chico","State":"CA","Zip":"95973","Description":null,"SalesValue":"$6611168.96"},
{"NoOfRooms":1,"NoOfBathrooms":1,"SqFeet":6224,"Address1":"6 Lukken Park","Address2":"6th Floor","City":"Sacramento","State":"CA","Zip":"94286","Description":null,"SalesValue":"$4540577.61"},
{"NoOfRooms":4,"NoOfBathrooms":1,"SqFeet":5624,"Address1":"20570 Thompson Place","Address2":"PO Box 38796","City":"Concord","State":"CA","Zip":"94522","Description":null,"SalesValue":"$9692488.73"},
{"NoOfRooms":2,"NoOfBathrooms":3,"SqFeet":8046,"Address1":"585 Jenna Court","Address2":"Apt 1506","City":"Sacramento","State":"CA","Zip":"94245","Description":null,"SalesValue":"$6074882.77"},
{"NoOfRooms":1,"NoOfBathrooms":1,"SqFeet":8352,"Address1":"723 Grim Drive","Address2":"Suite 37","City":"Pasadena","State":"CA","Zip":"91131","Description":null,"SalesValue":"$5008692.01"},
{"NoOfRooms":1,"NoOfBathrooms":2,"SqFeet":9677,"Address1":"7 Clove Alley","Address2":"2nd Floor","City":"Bakersfield","State":"CA","Zip":"93311","Description":null,"SalesValue":"$2487788.97"},
{"NoOfRooms":5,"NoOfBathrooms":2,"SqFeet":1470,"Address1":"3385 Carey Point","Address2":"Suite 25","City":"Long Beach","State":"CA","Zip":"90810","Description":null,"SalesValue":"$7066005.41"},
{"NoOfRooms":4,"NoOfBathrooms":1,"SqFeet":9305,"Address1":"562 Arizona Avenue","Address2":"Room 1189","City":"Los Angeles","State":"CA","Zip":"90010","Description":null,"SalesValue":"$9515231.27"},
{"NoOfRooms":4,"NoOfBathrooms":1,"SqFeet":3730,"Address1":"9 Lawn Crossing","Address2":"PO Box 81649","City":"San Diego","State":"CA","Zip":"92176","Description":null,"SalesValue":"$1827759.64"},
{"NoOfRooms":3,"NoOfBathrooms":3,"SqFeet":6560,"Address1":"9 Sugar Crossing","Address2":"4th Floor","City":"Carlsbad","State":"CA","Zip":"92013","Description":null,"SalesValue":"$8060308.07"},
{"NoOfRooms":2,"NoOfBathrooms":2,"SqFeet":8010,"Address1":"7 Clemons Terrace","Address2":"Suite 77","City":"Mountain View","State":"CA","Zip":"94042","Description":null,"SalesValue":"$3600080.15"},
{"NoOfRooms":2,"NoOfBathrooms":2,"SqFeet":9982,"Address1":"46041 Eastlawn Junction","Address2":"Apt 538","City":"Visalia","State":"CA","Zip":"93291","Description":null,"SalesValue":"$1153034.52"},
{"NoOfRooms":5,"NoOfBathrooms":1,"SqFeet":4617,"Address1":"37 Rigney Place","Address2":"Suite 6","City":"San Bernardino","State":"CA","Zip":"92410","Description":null,"SalesValue":"$1264049.14"},
{"NoOfRooms":2,"NoOfBathrooms":3,"SqFeet":4356,"Address1":"9 Vahlen Way","Address2":"Suite 24","City":"Fresno","State":"CA","Zip":"93778","Description":null,"SalesValue":"$8959382.87"},
{"NoOfRooms":5,"NoOfBathrooms":3,"SqFeet":2837,"Address1":"644 Clyde Gallagher Hill","Address2":"Room 1930","City":"San Francisco","State":"CA","Zip":"94142","Description":null,"SalesValue":"$1698072.95"},
{"NoOfRooms":4,"NoOfBathrooms":1,"SqFeet":1094,"Address1":"35 Elmside Way","Address2":"Suite 42","City":"Oceanside","State":"CA","Zip":"92056","Description":null,"SalesValue":"$9558946.42"},
{"NoOfRooms":3,"NoOfBathrooms":1,"SqFeet":5178,"Address1":"836 Menomonie Lane","Address2":"Apt 1722","City":"Stockton","State":"CA","Zip":"95205","Description":null,"SalesValue":"$7543822.53"},
{"NoOfRooms":1,"NoOfBathrooms":1,"SqFeet":5773,"Address1":"14 Messerschmidt Point","Address2":"Apt 220","City":"Los Angeles","State":"CA","Zip":"90035","Description":null,"SalesValue":"$9377471.54"},
{"NoOfRooms":4,"NoOfBathrooms":3,"SqFeet":2390,"Address1":"6544 Dennis Crossing","Address2":"Suite 30","City":"San Mateo","State":"CA","Zip":"94405","Description":null,"SalesValue":"$722375.76"},
{"NoOfRooms":4,"NoOfBathrooms":3,"SqFeet":5379,"Address1":"21 Thompson Alley","Address2":"Room 1800","City":"Van Nuys","State":"CA","Zip":"91406","Description":null,"SalesValue":"$1100241.84"},
{"NoOfRooms":1,"NoOfBathrooms":1,"SqFeet":1033,"Address1":"8315 Meadow Valley Junction","Address2":"Apt 456","City":"San Francisco","State":"CA","Zip":"94169","Description":null,"SalesValue":"$3279919.80"},
{"NoOfRooms":4,"NoOfBathrooms":1,"SqFeet":6568,"Address1":"7282 Porter Way","Address2":"Apt 553","City":"Los Angeles","State":"CA","Zip":"90076","Description":null,"SalesValue":"$4709894.47"},
{"NoOfRooms":4,"NoOfBathrooms":2,"SqFeet":5291,"Address1":"93112 Hovde Drive","Address2":"Room 866","City":"Los Angeles","State":"CA","Zip":"90094","Description":null,"SalesValue":"$6030537.00"},
{"NoOfRooms":1,"NoOfBathrooms":1,"SqFeet":4408,"Address1":"6433 Rusk Court","Address2":"Room 1564","City":"Garden Grove","State":"CA","Zip":"92645","Description":null,"SalesValue":"$7254281.50"},
{"NoOfRooms":5,"NoOfBathrooms":2,"SqFeet":5170,"Address1":"2 Luster Lane","Address2":"Suite 78","City":"Bakersfield","State":"CA","Zip":"93399","Description":null,"SalesValue":"$243798.38"},
{"NoOfRooms":5,"NoOfBathrooms":2,"SqFeet":3155,"Address1":"18787 Northland Hill","Address2":"Room 1662","City":"San Diego","State":"CA","Zip":"92127","Description":null,"SalesValue":"$134948.45"},
{"NoOfRooms":4,"NoOfBathrooms":3,"SqFeet":9141,"Address1":"1483 Hermina Court","Address2":"Suite 5","City":"Sacramento","State":"CA","Zip":"94273","Description":null,"SalesValue":"$1754504.58"},
{"NoOfRooms":1,"NoOfBathrooms":1,"SqFeet":2972,"Address1":"66609 Hoepker Road","Address2":"Apt 228","City":"Sacramento","State":"CA","Zip":"94297","Description":null,"SalesValue":"$3761935.01"},
{"NoOfRooms":5,"NoOfBathrooms":2,"SqFeet":9819,"Address1":"03 Karstens Avenue","Address2":"Suite 40","City":"San Mateo","State":"CA","Zip":"94405","Description":null,"SalesValue":"$9988422.50"},
{"NoOfRooms":3,"NoOfBathrooms":1,"SqFeet":9896,"Address1":"00163 Chive Parkway","Address2":"Apt 111","City":"Van Nuys","State":"CA","Zip":"91411","Description":null,"SalesValue":"$557297.87"},
{"NoOfRooms":1,"NoOfBathrooms":3,"SqFeet":5464,"Address1":"950 Main Court","Address2":"Room 1495","City":"Sacramento","State":"CA","Zip":"94237","Description":null,"SalesValue":"$2344471.05"},
{"NoOfRooms":5,"NoOfBathrooms":2,"SqFeet":9384,"Address1":"870 Gulseth Hill","Address2":"Suite 39","City":"Torrance","State":"CA","Zip":"90510","Description":null,"SalesValue":"$2624314.14"},
{"NoOfRooms":5,"NoOfBathrooms":2,"SqFeet":7214,"Address1":"30 Farragut Way","Address2":"Room 605","City":"San Jose","State":"CA","Zip":"95138","Description":null,"SalesValue":"$5377959.36"},
{"NoOfRooms":2,"NoOfBathrooms":3,"SqFeet":1993,"Address1":"60 Loftsgordon Pass","Address2":"4th Floor","City":"Burbank","State":"CA","Zip":"91520","Description":null,"SalesValue":"$4131794.26"},
{"NoOfRooms":5,"NoOfBathrooms":2,"SqFeet":7826,"Address1":"2 Banding Pass","Address2":"Suite 28","City":"Los Angeles","State":"CA","Zip":"90189","Description":null,"SalesValue":"$8436419.33"},
{"NoOfRooms":2,"NoOfBathrooms":3,"SqFeet":1762,"Address1":"4 Packers Alley","Address2":"Suite 97","City":"Berkeley","State":"CA","Zip":"94705","Description":null,"SalesValue":"$4266318.17"},
{"NoOfRooms":1,"NoOfBathrooms":1,"SqFeet":5984,"Address1":"9725 Old Gate Street","Address2":"Room 1154","City":"San Bernardino","State":"CA","Zip":"92424","Description":null,"SalesValue":"$3119175.69"},
{"NoOfRooms":1,"NoOfBathrooms":3,"SqFeet":8488,"Address1":"5 Gulseth Drive","Address2":"Room 1260","City":"North Hollywood","State":"CA","Zip":"91616","Description":null,"SalesValue":"$8839083.44"},
{"NoOfRooms":3,"NoOfBathrooms":1,"SqFeet":4513,"Address1":"5573 Summit Place","Address2":"13th Floor","City":"Pasadena","State":"CA","Zip":"91109","Description":null,"SalesValue":"$2309326.90"},
{"NoOfRooms":2,"NoOfBathrooms":1,"SqFeet":8455,"Address1":"73 Eggendart Parkway","Address2":"Suite 40","City":"Santa Monica","State":"CA","Zip":"90405","Description":null,"SalesValue":"$2893299.86"},
{"NoOfRooms":5,"NoOfBathrooms":3,"SqFeet":2815,"Address1":"490 Bartelt Way","Address2":"PO Box 71038","City":"Sacramento","State":"CA","Zip":"94280","Description":null,"SalesValue":"$5388408.51"},
{"NoOfRooms":3,"NoOfBathrooms":1,"SqFeet":8653,"Address1":"31 Schurz Hill","Address2":"Apt 1483","City":"Los Angeles","State":"CA","Zip":"90030","Description":null,"SalesValue":"$6753004.40"},
{"NoOfRooms":1,"NoOfBathrooms":1,"SqFeet":8257,"Address1":"1476 Prairieview Center","Address2":"20th Floor","City":"San Diego","State":"CA","Zip":"92137","Description":null,"SalesValue":"$2671624.21"},
{"NoOfRooms":5,"NoOfBathrooms":1,"SqFeet":4390,"Address1":"179 Barby Trail","Address2":"Apt 721","City":"San Francisco","State":"CA","Zip":"94159","Description":null,"SalesValue":"$3652439.92"},
{"NoOfRooms":2,"NoOfBathrooms":3,"SqFeet":4762,"Address1":"8141 Judy Terrace","Address2":"Apt 536","City":"Whittier","State":"CA","Zip":"90605","Description":null,"SalesValue":"$1829514.73"},
{"NoOfRooms":1,"NoOfBathrooms":2,"SqFeet":7965,"Address1":"15111 Schurz Court","Address2":"Apt 1246","City":"Bakersfield","State":"CA","Zip":"93311","Description":null,"SalesValue":"$8328256.79"},
{"NoOfRooms":4,"NoOfBathrooms":3,"SqFeet":2097,"Address1":"82 Orin Avenue","Address2":"PO Box 34507","City":"Sacramento","State":"CA","Zip":"94286","Description":null,"SalesValue":"$4770431.83"},
{"NoOfRooms":4,"NoOfBathrooms":3,"SqFeet":9038,"Address1":"109 Bobwhite Center","Address2":"Suite 91","City":"San Jose","State":"CA","Zip":"95118","Description":null,"SalesValue":"$2551401.26"},
{"NoOfRooms":3,"NoOfBathrooms":1,"SqFeet":8889,"Address1":"1808 Golf Course Park","Address2":"PO Box 4668","City":"San Francisco","State":"CA","Zip":"94142","Description":null,"SalesValue":"$6879328.56"},
{"NoOfRooms":1,"NoOfBathrooms":2,"SqFeet":1140,"Address1":"80526 Utah Way","Address2":"Suite 83","City":"Burbank","State":"CA","Zip":"91505","Description":null,"SalesValue":"$9681147.60"},
{"NoOfRooms":5,"NoOfBathrooms":1,"SqFeet":5713,"Address1":"5337 Pleasure Circle","Address2":"Suite 16","City":"South Lake Tahoe","State":"CA","Zip":"96154","Description":null,"SalesValue":"$2765846.98"},
{"NoOfRooms":4,"NoOfBathrooms":2,"SqFeet":5300,"Address1":"58314 Victoria Street","Address2":"16th Floor","City":"Santa Barbara","State":"CA","Zip":"93150","Description":null,"SalesValue":"$9717341.96"},
{"NoOfRooms":5,"NoOfBathrooms":1,"SqFeet":8444,"Address1":"6 Redwing Road","Address2":"PO Box 34792","City":"San Diego","State":"CA","Zip":"92110","Description":null,"SalesValue":"$485007.57"},
{"NoOfRooms":5,"NoOfBathrooms":1,"SqFeet":264,"Address1":"76 Mccormick Center","Address2":"Apt 1239","City":"San Francisco","State":"CA","Zip":"94126","Description":null,"SalesValue":"$9784380.23"},
{"NoOfRooms":5,"NoOfBathrooms":3,"SqFeet":4588,"Address1":"4 Mayer Way","Address2":"Apt 346","City":"San Jose","State":"CA","Zip":"95194","Description":null,"SalesValue":"$9543418.81"},
{"NoOfRooms":4,"NoOfBathrooms":2,"SqFeet":4214,"Address1":"8 Leroy Court","Address2":"Room 1675","City":"San Bernardino","State":"CA","Zip":"92405","Description":null,"SalesValue":"$1359475.60"},
{"NoOfRooms":4,"NoOfBathrooms":1,"SqFeet":4778,"Address1":"15 Clove Avenue","Address2":"Suite 76","City":"Simi Valley","State":"CA","Zip":"93094","Description":null,"SalesValue":"$7476601.88"},
{"NoOfRooms":5,"NoOfBathrooms":1,"SqFeet":4763,"Address1":"61815 Merry Park","Address2":"Suite 55","City":"Sacramento","State":"CA","Zip":"94245","Description":null,"SalesValue":"$8415109.21"},
{"NoOfRooms":2,"NoOfBathrooms":3,"SqFeet":6879,"Address1":"27110 Texas Court","Address2":"Suite 22","City":"Los Angeles","State":"CA","Zip":"90101","Description":null,"SalesValue":"$9061298.36"},
{"NoOfRooms":1,"NoOfBathrooms":2,"SqFeet":8873,"Address1":"79 Granby Circle","Address2":"Room 61","City":"Bakersfield","State":"CA","Zip":"93386","Description":null,"SalesValue":"$5730041.94"},
{"NoOfRooms":5,"NoOfBathrooms":3,"SqFeet":2692,"Address1":"5 Mcguire Alley","Address2":"Suite 31","City":"San Francisco","State":"CA","Zip":"94126","Description":null,"SalesValue":"$5958462.43"},
{"NoOfRooms":4,"NoOfBathrooms":1,"SqFeet":7970,"Address1":"782 Emmet Center","Address2":"Suite 32","City":"Van Nuys","State":"CA","Zip":"91406","Description":null,"SalesValue":"$4162442.99"},
{"NoOfRooms":5,"NoOfBathrooms":3,"SqFeet":2595,"Address1":"6 Orin Point","Address2":"Room 763","City":"Long Beach","State":"CA","Zip":"90805","Description":null,"SalesValue":"$8590303.63"},
{"NoOfRooms":2,"NoOfBathrooms":2,"SqFeet":255,"Address1":"159 Hoffman Crossing","Address2":"PO Box 39090","City":"Sacramento","State":"CA","Zip":"94245","Description":null,"SalesValue":"$9525842.21"},
{"NoOfRooms":5,"NoOfBathrooms":1,"SqFeet":2831,"Address1":"8 Truax Point","Address2":"Apt 1338","City":"Bakersfield","State":"CA","Zip":"93399","Description":null,"SalesValue":"$4465232.38"},
{"NoOfRooms":5,"NoOfBathrooms":3,"SqFeet":547,"Address1":"6 Burrows Trail","Address2":"Suite 13","City":"Visalia","State":"CA","Zip":"93291","Description":null,"SalesValue":"$6390011.07"},
{"NoOfRooms":3,"NoOfBathrooms":1,"SqFeet":9949,"Address1":"52 Independence Point","Address2":"Apt 1693","City":"San Luis Obispo","State":"CA","Zip":"93407","Description":null,"SalesValue":"$9308411.27"},
{"NoOfRooms":5,"NoOfBathrooms":2,"SqFeet":5517,"Address1":"0152 Sunfield Parkway","Address2":"PO Box 52739","City":"San Jose","State":"CA","Zip":"95128","Description":null,"SalesValue":"$8288693.64"},
{"NoOfRooms":5,"NoOfBathrooms":2,"SqFeet":741,"Address1":"09130 Clove Park","Address2":"Suite 12","City":"San Jose","State":"CA","Zip":"95155","Description":null,"SalesValue":"$3503463.34"},
{"NoOfRooms":1,"NoOfBathrooms":3,"SqFeet":9321,"Address1":"59 Di Loreto Pass","Address2":"Room 1912","City":"Anaheim","State":"CA","Zip":"92825","Description":null,"SalesValue":"$7084108.64"},
{"NoOfRooms":5,"NoOfBathrooms":1,"SqFeet":4841,"Address1":"5 Coleman Parkway","Address2":"10th Floor","City":"San Francisco","State":"CA","Zip":"94164","Description":null,"SalesValue":"$2349108.79"},
{"NoOfRooms":3,"NoOfBathrooms":3,"SqFeet":8826,"Address1":"3 Namekagon Point","Address2":"Room 562","City":"Los Angeles","State":"CA","Zip":"90025","Description":null,"SalesValue":"$9355600.69"},
{"NoOfRooms":5,"NoOfBathrooms":2,"SqFeet":5023,"Address1":"7580 Mesta Point","Address2":"PO Box 15586","City":"Inglewood","State":"CA","Zip":"90310","Description":null,"SalesValue":"$7311285.47"},
{"NoOfRooms":5,"NoOfBathrooms":3,"SqFeet":2472,"Address1":"959 Blackbird Way","Address2":"16th Floor","City":"Oakland","State":"CA","Zip":"94622","Description":null,"SalesValue":"$7910817.30"},
{"NoOfRooms":1,"NoOfBathrooms":2,"SqFeet":9680,"Address1":"7378 Northland Pass","Address2":"Apt 677","City":"Oxnard","State":"CA","Zip":"93034","Description":null,"SalesValue":"$7719443.30"},
{"NoOfRooms":5,"NoOfBathrooms":3,"SqFeet":5803,"Address1":"6291 Kings Lane","Address2":"PO Box 65610","City":"San Jose","State":"CA","Zip":"95118","Description":null,"SalesValue":"$8420600.11"},
{"NoOfRooms":5,"NoOfBathrooms":1,"SqFeet":2193,"Address1":"36 Carpenter Avenue","Address2":"Room 111","City":"San Jose","State":"CA","Zip":"95123","Description":null,"SalesValue":"$9643827.04"},
{"NoOfRooms":3,"NoOfBathrooms":3,"SqFeet":7851,"Address1":"5858 Pine View Park","Address2":"Apt 312","City":"Escondido","State":"CA","Zip":"92030","Description":null,"SalesValue":"$9022102.07"},
{"NoOfRooms":4,"NoOfBathrooms":1,"SqFeet":3623,"Address1":"6524 Larry Place","Address2":"Apt 886","City":"Los Angeles","State":"CA","Zip":"90015","Description":null,"SalesValue":"$8580813.32"},
{"NoOfRooms":3,"NoOfBathrooms":3,"SqFeet":8861,"Address1":"25289 Blaine Place","Address2":"Suite 94","City":"San Jose","State":"CA","Zip":"95155","Description":null,"SalesValue":"$6733338.14"},
{"NoOfRooms":4,"NoOfBathrooms":3,"SqFeet":6409,"Address1":"43 Waywood Parkway","Address2":"Apt 229","City":"Sacramento","State":"CA","Zip":"95833","Description":null,"SalesValue":"$7100225.09"},
{"NoOfRooms":2,"NoOfBathrooms":3,"SqFeet":285,"Address1":"38 Redwing Crossing","Address2":"1st Floor","City":"San Jose","State":"CA","Zip":"95138","Description":null,"SalesValue":"$2179454.59"},
{"NoOfRooms":3,"NoOfBathrooms":2,"SqFeet":4427,"Address1":"3 Calypso Terrace","Address2":"PO Box 81471","City":"Fresno","State":"CA","Zip":"93778","Description":null,"SalesValue":"$2902854.22"},
{"NoOfRooms":3,"NoOfBathrooms":1,"SqFeet":9018,"Address1":"92882 Esker Lane","Address2":"Apt 471","City":"Stockton","State":"CA","Zip":"95205","Description":null,"SalesValue":"$6660706.40"},
{"NoOfRooms":3,"NoOfBathrooms":1,"SqFeet":4736,"Address1":"6348 Magdeline Trail","Address2":"9th Floor","City":"San Diego","State":"CA","Zip":"92145","Description":null,"SalesValue":"$6242074.49"},
{"NoOfRooms":1,"NoOfBathrooms":2,"SqFeet":1479,"Address1":"137 Randy Crossing","Address2":"Apt 937","City":"Glendale","State":"CA","Zip":"91205","Description":null,"SalesValue":"$7023463.85"},
{"NoOfRooms":2,"NoOfBathrooms":2,"SqFeet":9102,"Address1":"1 Laurel Plaza","Address2":"Suite 22","City":"Sacramento","State":"CA","Zip":"95833","Description":null,"SalesValue":"$7357708.60"},
{"NoOfRooms":5,"NoOfBathrooms":2,"SqFeet":7077,"Address1":"541 Miller Center","Address2":"Suite 4","City":"Sacramento","State":"CA","Zip":"94257","Description":null,"SalesValue":"$8237846.63"},
{"NoOfRooms":5,"NoOfBathrooms":2,"SqFeet":1655,"Address1":"157 Brickson Park Point","Address2":"Apt 903","City":"Sacramento","State":"CA","Zip":"94263","Description":null,"SalesValue":"$789314.74"},
{"NoOfRooms":3,"NoOfBathrooms":3,"SqFeet":1568,"Address1":"39090 Continental Parkway","Address2":"17th Floor","City":"San Francisco","State":"CA","Zip":"94159","Description":null,"SalesValue":"$4022113.74"},
{"NoOfRooms":4,"NoOfBathrooms":3,"SqFeet":1328,"Address1":"897 Trailsway Road","Address2":"Apt 73","City":"San Francisco","State":"CA","Zip":"94132","Description":null,"SalesValue":"$9675638.31"},
{"NoOfRooms":2,"NoOfBathrooms":1,"SqFeet":2643,"Address1":"18 3rd Hill","Address2":"PO Box 76329","City":"San Jose","State":"CA","Zip":"95108","Description":null,"SalesValue":"$1657743.95"},
{"NoOfRooms":3,"NoOfBathrooms":2,"SqFeet":1664,"Address1":"7816 Westport Junction","Address2":"6th Floor","City":"Mountain View","State":"CA","Zip":"94042","Description":null,"SalesValue":"$7781607.00"},
{"NoOfRooms":3,"NoOfBathrooms":1,"SqFeet":3204,"Address1":"51974 Autumn Leaf Trail","Address2":"PO Box 70084","City":"Pomona","State":"CA","Zip":"91797","Description":null,"SalesValue":"$2095682.03"},
{"NoOfRooms":4,"NoOfBathrooms":1,"SqFeet":4590,"Address1":"6349 Knutson Plaza","Address2":"Room 772","City":"Los Angeles","State":"CA","Zip":"90005","Description":null,"SalesValue":"$9428846.02"},
{"NoOfRooms":4,"NoOfBathrooms":1,"SqFeet":4914,"Address1":"519 Dryden Hill","Address2":"PO Box 8287","City":"Oakland","State":"CA","Zip":"94622","Description":null,"SalesValue":"$4114819.98"},
{"NoOfRooms":2,"NoOfBathrooms":2,"SqFeet":4796,"Address1":"777 Dixon Point","Address2":"Room 1296","City":"Santa Clara","State":"CA","Zip":"95054","Description":null,"SalesValue":"$3173323.85"},
{"NoOfRooms":3,"NoOfBathrooms":3,"SqFeet":2580,"Address1":"967 Packers Trail","Address2":"10th Floor","City":"Santa Rosa","State":"CA","Zip":"95405","Description":null,"SalesValue":"$6627408.07"},
{"NoOfRooms":5,"NoOfBathrooms":1,"SqFeet":5692,"Address1":"731 Talmadge Plaza","Address2":"Suite 65","City":"Irvine","State":"CA","Zip":"92717","Description":null,"SalesValue":"$5876904.41"},
{"NoOfRooms":1,"NoOfBathrooms":2,"SqFeet":8402,"Address1":"9626 Sachs Lane","Address2":"Suite 1","City":"Fresno","State":"CA","Zip":"93740","Description":null,"SalesValue":"$7885384.07"},
{"NoOfRooms":4,"NoOfBathrooms":2,"SqFeet":2425,"Address1":"6367 Little Fleur Way","Address2":"14th Floor","City":"Palmdale","State":"CA","Zip":"93591","Description":null,"SalesValue":"$8690164.52"},
{"NoOfRooms":5,"NoOfBathrooms":2,"SqFeet":339,"Address1":"616 Mayfield Lane","Address2":"Room 1078","City":"Ventura","State":"CA","Zip":"93005","Description":null,"SalesValue":"$2871477.72"},
{"NoOfRooms":1,"NoOfBathrooms":2,"SqFeet":551,"Address1":"0329 5th Avenue","Address2":"Apt 1658","City":"Oakland","State":"CA","Zip":"94605","Description":null,"SalesValue":"$2397072.93"},
{"NoOfRooms":5,"NoOfBathrooms":1,"SqFeet":8993,"Address1":"78144 Cascade Point","Address2":"PO Box 70319","City":"Chico","State":"CA","Zip":"95973","Description":null,"SalesValue":"$2434403.97"},
{"NoOfRooms":1,"NoOfBathrooms":3,"SqFeet":3742,"Address1":"39889 Huxley Court","Address2":"PO Box 69076","City":"Lancaster","State":"CA","Zip":"93584","Description":null,"SalesValue":"$9249282.87"},
{"NoOfRooms":4,"NoOfBathrooms":2,"SqFeet":2117,"Address1":"3078 Ronald Regan Pass","Address2":"Room 1334","City":"Santa Ana","State":"CA","Zip":"92705","Description":null,"SalesValue":"$5779175.66"},
{"NoOfRooms":1,"NoOfBathrooms":2,"SqFeet":8278,"Address1":"137 Iowa Drive","Address2":"Apt 1616","City":"Los Angeles","State":"CA","Zip":"90076","Description":null,"SalesValue":"$940821.90"},
{"NoOfRooms":1,"NoOfBathrooms":1,"SqFeet":8546,"Address1":"0337 Oriole Center","Address2":"PO Box 15760","City":"Sacramento","State":"CA","Zip":"95813","Description":null,"SalesValue":"$4719582.35"},
{"NoOfRooms":3,"NoOfBathrooms":2,"SqFeet":6326,"Address1":"6 Knutson Parkway","Address2":"Apt 47","City":"Concord","State":"CA","Zip":"94522","Description":null,"SalesValue":"$9643966.83"},
{"NoOfRooms":2,"NoOfBathrooms":2,"SqFeet":2845,"Address1":"168 Westerfield Plaza","Address2":"PO Box 14731","City":"San Jose","State":"CA","Zip":"95108","Description":null,"SalesValue":"$8132955.37"},
{"NoOfRooms":1,"NoOfBathrooms":2,"SqFeet":2216,"Address1":"81 Elmside Street","Address2":"Room 564","City":"San Francisco","State":"CA","Zip":"94105","Description":null,"SalesValue":"$6746027.07"},
{"NoOfRooms":3,"NoOfBathrooms":3,"SqFeet":9840,"Address1":"46466 5th Junction","Address2":"Room 1561","City":"San Jose","State":"CA","Zip":"95108","Description":null,"SalesValue":"$2766806.76"},
{"NoOfRooms":4,"NoOfBathrooms":1,"SqFeet":7059,"Address1":"420 Comanche Avenue","Address2":"PO Box 19313","City":"Petaluma","State":"CA","Zip":"94975","Description":null,"SalesValue":"$3936747.76"},
{"NoOfRooms":2,"NoOfBathrooms":3,"SqFeet":8175,"Address1":"56646 Lotheville Pass","Address2":"Room 196","City":"Fresno","State":"CA","Zip":"93750","Description":null,"SalesValue":"$4488188.75"},
{"NoOfRooms":5,"NoOfBathrooms":1,"SqFeet":3983,"Address1":"7 Colorado Pass","Address2":"PO Box 96092","City":"Irvine","State":"CA","Zip":"92710","Description":null,"SalesValue":"$8873049.51"},
{"NoOfRooms":4,"NoOfBathrooms":1,"SqFeet":3777,"Address1":"08 Shoshone Road","Address2":"Room 1044","City":"Los Angeles","State":"CA","Zip":"90065","Description":null,"SalesValue":"$323359.55"},
{"NoOfRooms":2,"NoOfBathrooms":2,"SqFeet":9130,"Address1":"184 Shasta Place","Address2":"Apt 1575","City":"Fresno","State":"CA","Zip":"93715","Description":null,"SalesValue":"$7640479.24"},
{"NoOfRooms":5,"NoOfBathrooms":3,"SqFeet":5451,"Address1":"7 Pennsylvania Way","Address2":"Apt 1418","City":"Petaluma","State":"CA","Zip":"94975","Description":null,"SalesValue":"$1801315.73"},
{"NoOfRooms":3,"NoOfBathrooms":3,"SqFeet":4884,"Address1":"907 Bultman Junction","Address2":"PO Box 40013","City":"Stockton","State":"CA","Zip":"95210","Description":null,"SalesValue":"$4709840.87"},
{"NoOfRooms":4,"NoOfBathrooms":3,"SqFeet":3375,"Address1":"323 Hagan Crossing","Address2":"Suite 51","City":"Orange","State":"CA","Zip":"92862","Description":null,"SalesValue":"$802764.98"},
{"NoOfRooms":2,"NoOfBathrooms":2,"SqFeet":7557,"Address1":"47210 American Ash Street","Address2":"Room 722","City":"Sacramento","State":"CA","Zip":"94297","Description":null,"SalesValue":"$7700498.39"},
{"NoOfRooms":4,"NoOfBathrooms":3,"SqFeet":8309,"Address1":"17935 Fulton Point","Address2":"16th Floor","City":"Oceanside","State":"CA","Zip":"92056","Description":null,"SalesValue":"$5815761.91"},
{"NoOfRooms":4,"NoOfBathrooms":1,"SqFeet":9114,"Address1":"554 Bultman Street","Address2":"Suite 4","City":"Hayward","State":"CA","Zip":"94544","Description":null,"SalesValue":"$2623368.75"},
{"NoOfRooms":5,"NoOfBathrooms":3,"SqFeet":2955,"Address1":"3 Kim Circle","Address2":"Suite 61","City":"Los Angeles","State":"CA","Zip":"90040","Description":null,"SalesValue":"$4172504.82"},
{"NoOfRooms":5,"NoOfBathrooms":2,"SqFeet":826,"Address1":"533 Shopko Parkway","Address2":"PO Box 99252","City":"Mountain View","State":"CA","Zip":"94042","Description":null,"SalesValue":"$7785295.15"},
{"NoOfRooms":4,"NoOfBathrooms":1,"SqFeet":8480,"Address1":"46 South Drive","Address2":"Apt 894","City":"Sacramento","State":"CA","Zip":"94291","Description":null,"SalesValue":"$7571507.23"},
{"NoOfRooms":5,"NoOfBathrooms":3,"SqFeet":3165,"Address1":"7093 Debra Court","Address2":"12th Floor","City":"Mountain View","State":"CA","Zip":"94042","Description":null,"SalesValue":"$7289767.21"},
{"NoOfRooms":2,"NoOfBathrooms":1,"SqFeet":1614,"Address1":"30879 Waxwing Point","Address2":"14th Floor","City":"Fresno","State":"CA","Zip":"93750","Description":null,"SalesValue":"$3716873.11"},
{"NoOfRooms":4,"NoOfBathrooms":1,"SqFeet":2119,"Address1":"29636 Kingsford Plaza","Address2":"Suite 90","City":"Santa Rosa","State":"CA","Zip":"95405","Description":null,"SalesValue":"$192119.62"},
{"NoOfRooms":3,"NoOfBathrooms":3,"SqFeet":7960,"Address1":"5 Summerview Parkway","Address2":"PO Box 20031","City":"San Jose","State":"CA","Zip":"95113","Description":null,"SalesValue":"$174389.41"},
{"NoOfRooms":5,"NoOfBathrooms":2,"SqFeet":8656,"Address1":"1619 Melby Street","Address2":"Suite 80","City":"Sacramento","State":"CA","Zip":"94207","Description":null,"SalesValue":"$6602649.41"},
{"NoOfRooms":5,"NoOfBathrooms":2,"SqFeet":6758,"Address1":"3207 4th Pass","Address2":"Suite 18","City":"San Diego","State":"CA","Zip":"92105","Description":null,"SalesValue":"$1391503.42"},
{"NoOfRooms":2,"NoOfBathrooms":2,"SqFeet":8716,"Address1":"80 Londonderry Road","Address2":"Apt 1880","City":"Berkeley","State":"CA","Zip":"94712","Description":null,"SalesValue":"$4632339.50"},
{"NoOfRooms":3,"NoOfBathrooms":2,"SqFeet":9205,"Address1":"16 Rigney Crossing","Address2":"Suite 81","City":"Inglewood","State":"CA","Zip":"90310","Description":null,"SalesValue":"$2785255.85"},
{"NoOfRooms":4,"NoOfBathrooms":2,"SqFeet":4371,"Address1":"676 Everett Lane","Address2":"Suite 53","City":"Chico","State":"CA","Zip":"95973","Description":null,"SalesValue":"$6652362.23"},
{"NoOfRooms":2,"NoOfBathrooms":3,"SqFeet":6269,"Address1":"1 Gina Way","Address2":"20th Floor","City":"Oakland","State":"CA","Zip":"94622","Description":null,"SalesValue":"$5309988.74"},
{"NoOfRooms":1,"NoOfBathrooms":2,"SqFeet":9016,"Address1":"3 Milwaukee Crossing","Address2":"Suite 66","City":"Los Angeles","State":"CA","Zip":"90081","Description":null,"SalesValue":"$371878.07"},
{"NoOfRooms":1,"NoOfBathrooms":2,"SqFeet":7392,"Address1":"35 Hoard Junction","Address2":"Suite 100","City":"Pasadena","State":"CA","Zip":"91131","Description":null,"SalesValue":"$6009513.02"},
{"NoOfRooms":5,"NoOfBathrooms":2,"SqFeet":1529,"Address1":"2 Golf View Pass","Address2":"Apt 1295","City":"Garden Grove","State":"CA","Zip":"92645","Description":null,"SalesValue":"$3592819.07"},
{"NoOfRooms":5,"NoOfBathrooms":2,"SqFeet":9413,"Address1":"1 Browning Park","Address2":"5th Floor","City":"Pasadena","State":"CA","Zip":"91186","Description":null,"SalesValue":"$2266513.11"},
{"NoOfRooms":5,"NoOfBathrooms":3,"SqFeet":3104,"Address1":"1 Ronald Regan Pass","Address2":"PO Box 80391","City":"Oakland","State":"CA","Zip":"94622","Description":null,"SalesValue":"$594088.88"},
{"NoOfRooms":3,"NoOfBathrooms":1,"SqFeet":7660,"Address1":"42968 Dottie Park","Address2":"Apt 1749","City":"Santa Monica","State":"CA","Zip":"90405","Description":null,"SalesValue":"$8650869.88"},
{"NoOfRooms":5,"NoOfBathrooms":3,"SqFeet":603,"Address1":"01875 Fordem Plaza","Address2":"Room 928","City":"San Francisco","State":"CA","Zip":"94142","Description":null,"SalesValue":"$8075398.77"},
{"NoOfRooms":4,"NoOfBathrooms":2,"SqFeet":1166,"Address1":"532 Haas Lane","Address2":"Apt 1866","City":"Santa Monica","State":"CA","Zip":"90410","Description":null,"SalesValue":"$8137340.39"},
{"NoOfRooms":1,"NoOfBathrooms":1,"SqFeet":6459,"Address1":"21 La Follette Terrace","Address2":"Suite 37","City":"San Diego","State":"CA","Zip":"92145","Description":null,"SalesValue":"$8529936.34"},
{"NoOfRooms":3,"NoOfBathrooms":3,"SqFeet":6470,"Address1":"26596 Shoshone Avenue","Address2":"Suite 70","City":"Fullerton","State":"CA","Zip":"92835","Description":null,"SalesValue":"$716536.10"},
{"NoOfRooms":2,"NoOfBathrooms":1,"SqFeet":1282,"Address1":"6416 Erie Parkway","Address2":"PO Box 27283","City":"San Jose","State":"CA","Zip":"95128","Description":null,"SalesValue":"$2453548.68"},
{"NoOfRooms":2,"NoOfBathrooms":2,"SqFeet":9881,"Address1":"807 Northport Avenue","Address2":"3rd Floor","City":"Sacramento","State":"CA","Zip":"94273","Description":null,"SalesValue":"$2806241.88"},
{"NoOfRooms":1,"NoOfBathrooms":1,"SqFeet":4628,"Address1":"150 Ohio Alley","Address2":"Suite 7","City":"San Francisco","State":"CA","Zip":"94147","Description":null,"SalesValue":"$1046576.22"},
{"NoOfRooms":2,"NoOfBathrooms":1,"SqFeet":3023,"Address1":"83 Nelson Point","Address2":"8th Floor","City":"Oakland","State":"CA","Zip":"94616","Description":null,"SalesValue":"$1484104.55"},
{"NoOfRooms":5,"NoOfBathrooms":1,"SqFeet":1582,"Address1":"92718 Maple Point","Address2":"20th Floor","City":"Corona","State":"CA","Zip":"92878","Description":null,"SalesValue":"$4200853.74"},
{"NoOfRooms":4,"NoOfBathrooms":3,"SqFeet":7931,"Address1":"078 Steensland Center","Address2":"Room 1974","City":"Long Beach","State":"CA","Zip":"90847","Description":null,"SalesValue":"$5575275.09"},
{"NoOfRooms":4,"NoOfBathrooms":1,"SqFeet":5283,"Address1":"82764 Northland Parkway","Address2":"Room 1032","City":"San Jose","State":"CA","Zip":"95160","Description":null,"SalesValue":"$5073228.71"},
{"NoOfRooms":4,"NoOfBathrooms":2,"SqFeet":3245,"Address1":"4 Oakridge Avenue","Address2":"Room 1950","City":"Carlsbad","State":"CA","Zip":"92013","Description":null,"SalesValue":"$9976895.33"},
{"NoOfRooms":5,"NoOfBathrooms":3,"SqFeet":5016,"Address1":"72274 Chive Circle","Address2":"11th Floor","City":"Santa Cruz","State":"CA","Zip":"95064","Description":null,"SalesValue":"$7317482.18"},
{"NoOfRooms":1,"NoOfBathrooms":1,"SqFeet":1098,"Address1":"8 Jenna Lane","Address2":"Room 656","City":"Bakersfield","State":"CA","Zip":"93311","Description":null,"SalesValue":"$288926.24"},
{"NoOfRooms":4,"NoOfBathrooms":3,"SqFeet":6783,"Address1":"232 Oak Valley Court","Address2":"Suite 66","City":"Oakland","State":"CA","Zip":"94627","Description":null,"SalesValue":"$3715590.40"},
{"NoOfRooms":5,"NoOfBathrooms":3,"SqFeet":6865,"Address1":"117 Toban Hill","Address2":"Apt 1120","City":"Santa Monica","State":"CA","Zip":"90410","Description":null,"SalesValue":"$6810425.64"},
{"NoOfRooms":3,"NoOfBathrooms":1,"SqFeet":8040,"Address1":"77828 Clemons Pass","Address2":"Apt 483","City":"San Bernardino","State":"CA","Zip":"92410","Description":null,"SalesValue":"$2754653.07"},
{"NoOfRooms":5,"NoOfBathrooms":3,"SqFeet":4008,"Address1":"8912 Little Fleur Pass","Address2":"Room 244","City":"Mountain View","State":"CA","Zip":"94042","Description":null,"SalesValue":"$9727853.06"},
{"NoOfRooms":3,"NoOfBathrooms":3,"SqFeet":7376,"Address1":"8583 Main Trail","Address2":"Suite 49","City":"Burbank","State":"CA","Zip":"91505","Description":null,"SalesValue":"$8180030.37"},
{"NoOfRooms":4,"NoOfBathrooms":3,"SqFeet":3354,"Address1":"3841 Quincy Circle","Address2":"Room 228","City":"Sacramento","State":"CA","Zip":"94280","Description":null,"SalesValue":"$906246.84"},
{"NoOfRooms":2,"NoOfBathrooms":2,"SqFeet":4710,"Address1":"4300 Erie Place","Address2":"Suite 67","City":"San Jose","State":"CA","Zip":"95194","Description":null,"SalesValue":"$3515976.85"},
{"NoOfRooms":5,"NoOfBathrooms":3,"SqFeet":1004,"Address1":"80224 Service Street","Address2":"Suite 82","City":"Sacramento","State":"CA","Zip":"95838","Description":null,"SalesValue":"$3687350.65"},
{"NoOfRooms":3,"NoOfBathrooms":1,"SqFeet":5871,"Address1":"9 Sauthoff Point","Address2":"Suite 58","City":"Los Angeles","State":"CA","Zip":"90189","Description":null,"SalesValue":"$8187780.02"},
{"NoOfRooms":1,"NoOfBathrooms":1,"SqFeet":1701,"Address1":"396 Pierstorff Circle","Address2":"Apt 154","City":"San Jose","State":"CA","Zip":"95138","Description":null,"SalesValue":"$3932093.34"},
{"NoOfRooms":5,"NoOfBathrooms":3,"SqFeet":5670,"Address1":"79 Kipling Point","Address2":"13th Floor","City":"Sacramento","State":"CA","Zip":"94286","Description":null,"SalesValue":"$4557433.68"},
{"NoOfRooms":1,"NoOfBathrooms":1,"SqFeet":2834,"Address1":"626 Randy Park","Address2":"1st Floor","City":"Palo Alto","State":"CA","Zip":"94302","Description":null,"SalesValue":"$3136069.92"},
{"NoOfRooms":3,"NoOfBathrooms":3,"SqFeet":4303,"Address1":"523 Elka Road","Address2":"Suite 6","City":"Sacramento","State":"CA","Zip":"94250","Description":null,"SalesValue":"$2786596.40"},
{"NoOfRooms":5,"NoOfBathrooms":3,"SqFeet":5399,"Address1":"85316 Washington Junction","Address2":"Suite 94","City":"San Jose","State":"CA","Zip":"95123","Description":null,"SalesValue":"$1117051.93"},
{"NoOfRooms":4,"NoOfBathrooms":3,"SqFeet":1214,"Address1":"645 Norway Maple Street","Address2":"Apt 65","City":"Sacramento","State":"CA","Zip":"94273","Description":null,"SalesValue":"$9366045.13"},
{"NoOfRooms":5,"NoOfBathrooms":3,"SqFeet":4197,"Address1":"74 Village Green Parkway","Address2":"Room 1974","City":"Van Nuys","State":"CA","Zip":"91411","Description":null,"SalesValue":"$3586944.10"},
{"NoOfRooms":2,"NoOfBathrooms":3,"SqFeet":4603,"Address1":"441 Blaine Plaza","Address2":"PO Box 92646","City":"Salinas","State":"CA","Zip":"93907","Description":null,"SalesValue":"$1872876.96"},
{"NoOfRooms":1,"NoOfBathrooms":2,"SqFeet":1643,"Address1":"57254 Cascade Park","Address2":"13th Floor","City":"Van Nuys","State":"CA","Zip":"91406","Description":null,"SalesValue":"$5725888.02"},
{"NoOfRooms":1,"NoOfBathrooms":2,"SqFeet":8304,"Address1":"8443 Tennessee Junction","Address2":"Suite 27","City":"Sacramento","State":"CA","Zip":"94280","Description":null,"SalesValue":"$7959462.13"},
{"NoOfRooms":4,"NoOfBathrooms":3,"SqFeet":8815,"Address1":"50 Tennyson Court","Address2":"Suite 54","City":"Pasadena","State":"CA","Zip":"91131","Description":null,"SalesValue":"$7110925.26"},
{"NoOfRooms":4,"NoOfBathrooms":3,"SqFeet":474,"Address1":"77104 Rusk Place","Address2":"3rd Floor","City":"Bakersfield","State":"CA","Zip":"93399","Description":null,"SalesValue":"$8246633.57"},
{"NoOfRooms":4,"NoOfBathrooms":3,"SqFeet":8222,"Address1":"2 Pawling Street","Address2":"Apt 445","City":"Sacramento","State":"CA","Zip":"95823","Description":null,"SalesValue":"$1356029.60"},
{"NoOfRooms":2,"NoOfBathrooms":3,"SqFeet":9066,"Address1":"8 South Trail","Address2":"1st Floor","City":"Irvine","State":"CA","Zip":"92619","Description":null,"SalesValue":"$4688296.51"},
{"NoOfRooms":1,"NoOfBathrooms":2,"SqFeet":2837,"Address1":"94108 Mayer Junction","Address2":"10th Floor","City":"San Jose","State":"CA","Zip":"95118","Description":null,"SalesValue":"$1543165.86"},
{"NoOfRooms":2,"NoOfBathrooms":2,"SqFeet":401,"Address1":"91818 Atwood Way","Address2":"6th Floor","City":"San Diego","State":"CA","Zip":"92176","Description":null,"SalesValue":"$6490552.51"},
{"NoOfRooms":4,"NoOfBathrooms":3,"SqFeet":6420,"Address1":"077 Paget Avenue","Address2":"PO Box 52776","City":"Burbank","State":"CA","Zip":"91505","Description":null,"SalesValue":"$5654906.17"},
{"NoOfRooms":4,"NoOfBathrooms":1,"SqFeet":8317,"Address1":"5 Elmside Terrace","Address2":"Room 723","City":"Inglewood","State":"CA","Zip":"90398","Description":null,"SalesValue":"$2924433.61"},
{"NoOfRooms":3,"NoOfBathrooms":3,"SqFeet":9739,"Address1":"80 Ludington Hill","Address2":"Room 1237","City":"Berkeley","State":"CA","Zip":"94705","Description":null,"SalesValue":"$7286195.00"},
{"NoOfRooms":2,"NoOfBathrooms":1,"SqFeet":3759,"Address1":"012 American Alley","Address2":"Suite 52","City":"Riverside","State":"CA","Zip":"92505","Description":null,"SalesValue":"$8046484.00"},
{"NoOfRooms":4,"NoOfBathrooms":2,"SqFeet":2631,"Address1":"57959 Talisman Terrace","Address2":"PO Box 17757","City":"San Diego","State":"CA","Zip":"92196","Description":null,"SalesValue":"$3069581.86"},
{"NoOfRooms":1,"NoOfBathrooms":2,"SqFeet":6244,"Address1":"980 Aberg Junction","Address2":"Suite 3","City":"Los Angeles","State":"CA","Zip":"90025","Description":null,"SalesValue":"$4754907.39"},
{"NoOfRooms":2,"NoOfBathrooms":3,"SqFeet":650,"Address1":"4981 Mitchell Center","Address2":"Suite 54","City":"Sacramento","State":"CA","Zip":"95852","Description":null,"SalesValue":"$5908239.52"},
{"NoOfRooms":3,"NoOfBathrooms":2,"SqFeet":9480,"Address1":"6 Russell Terrace","Address2":"Apt 1664","City":"San Francisco","State":"CA","Zip":"94154","Description":null,"SalesValue":"$4239696.64"},
{"NoOfRooms":1,"NoOfBathrooms":3,"SqFeet":2455,"Address1":"35381 Haas Plaza","Address2":"Apt 1431","City":"Brea","State":"CA","Zip":"92822","Description":null,"SalesValue":"$770317.44"},
{"NoOfRooms":2,"NoOfBathrooms":2,"SqFeet":7521,"Address1":"21 Macpherson Way","Address2":"Suite 93","City":"Santa Ana","State":"CA","Zip":"92705","Description":null,"SalesValue":"$6277338.18"},
{"NoOfRooms":2,"NoOfBathrooms":2,"SqFeet":8140,"Address1":"947 Everett Crossing","Address2":"Apt 767","City":"Sacramento","State":"CA","Zip":"95852","Description":null,"SalesValue":"$5956311.02"},
{"NoOfRooms":2,"NoOfBathrooms":2,"SqFeet":9087,"Address1":"44619 Clyde Gallagher Junction","Address2":"Room 5","City":"San Diego","State":"CA","Zip":"92121","Description":null,"SalesValue":"$7614021.12"},
{"NoOfRooms":4,"NoOfBathrooms":1,"SqFeet":5033,"Address1":"5 Clove Alley","Address2":"19th Floor","City":"Los Angeles","State":"CA","Zip":"90101","Description":null,"SalesValue":"$3281689.82"},
{"NoOfRooms":4,"NoOfBathrooms":2,"SqFeet":8174,"Address1":"6572 Farmco Plaza","Address2":"Suite 1","City":"San Diego","State":"CA","Zip":"92165","Description":null,"SalesValue":"$6312154.08"},
{"NoOfRooms":3,"NoOfBathrooms":1,"SqFeet":3740,"Address1":"946 International Circle","Address2":"Apt 977","City":"Salinas","State":"CA","Zip":"93907","Description":null,"SalesValue":"$6055796.58"},
{"NoOfRooms":1,"NoOfBathrooms":1,"SqFeet":8745,"Address1":"4 Golf Junction","Address2":"Suite 91","City":"Long Beach","State":"CA","Zip":"90805","Description":null,"SalesValue":"$2260664.85"},
{"NoOfRooms":2,"NoOfBathrooms":1,"SqFeet":609,"Address1":"4454 Mosinee Pass","Address2":"1st Floor","City":"Burbank","State":"CA","Zip":"91505","Description":null,"SalesValue":"$8765848.02"},
{"NoOfRooms":2,"NoOfBathrooms":1,"SqFeet":4751,"Address1":"71 Oak Terrace","Address2":"Room 1405","City":"Pasadena","State":"CA","Zip":"91109","Description":null,"SalesValue":"$4729333.63"},
{"NoOfRooms":4,"NoOfBathrooms":1,"SqFeet":2966,"Address1":"008 Sachtjen Hill","Address2":"PO Box 42211","City":"San Francisco","State":"CA","Zip":"94169","Description":null,"SalesValue":"$6338533.96"},
{"NoOfRooms":3,"NoOfBathrooms":2,"SqFeet":6174,"Address1":"8468 Huxley Hill","Address2":"Apt 1011","City":"San Diego","State":"CA","Zip":"92110","Description":null,"SalesValue":"$426760.04"},
{"NoOfRooms":5,"NoOfBathrooms":2,"SqFeet":5550,"Address1":"44469 Straubel Parkway","Address2":"Suite 73","City":"North Hollywood","State":"CA","Zip":"91606","Description":null,"SalesValue":"$7818924.55"},
{"NoOfRooms":4,"NoOfBathrooms":1,"SqFeet":238,"Address1":"3713 Arizona Alley","Address2":"PO Box 36765","City":"Burbank","State":"CA","Zip":"91520","Description":null,"SalesValue":"$7354034.94"},
{"NoOfRooms":4,"NoOfBathrooms":3,"SqFeet":2986,"Address1":"83833 Dixon Parkway","Address2":"Room 1168","City":"Bakersfield","State":"CA","Zip":"93399","Description":null,"SalesValue":"$7203576.37"},
{"NoOfRooms":5,"NoOfBathrooms":3,"SqFeet":466,"Address1":"9635 Kedzie Park","Address2":"PO Box 78511","City":"San Francisco","State":"CA","Zip":"94154","Description":null,"SalesValue":"$9245680.67"},
{"NoOfRooms":5,"NoOfBathrooms":2,"SqFeet":2643,"Address1":"01 Hallows Street","Address2":"Apt 1505","City":"Stockton","State":"CA","Zip":"95210","Description":null,"SalesValue":"$2742772.68"},
{"NoOfRooms":4,"NoOfBathrooms":3,"SqFeet":243,"Address1":"03 Hanover Trail","Address2":"19th Floor","City":"Los Angeles","State":"CA","Zip":"90040","Description":null,"SalesValue":"$2691047.55"},
{"NoOfRooms":4,"NoOfBathrooms":2,"SqFeet":2843,"Address1":"66 Luster Drive","Address2":"PO Box 43825","City":"Corona","State":"CA","Zip":"92883","Description":null,"SalesValue":"$5349116.57"},
{"NoOfRooms":3,"NoOfBathrooms":1,"SqFeet":5783,"Address1":"3 2nd Pass","Address2":"Room 1736","City":"Sunnyvale","State":"CA","Zip":"94089","Description":null,"SalesValue":"$3928224.32"},
{"NoOfRooms":2,"NoOfBathrooms":2,"SqFeet":2808,"Address1":"7 Blue Bill Park Place","Address2":"Room 767","City":"Long Beach","State":"CA","Zip":"90805","Description":null,"SalesValue":"$2322700.77"},
{"NoOfRooms":1,"NoOfBathrooms":2,"SqFeet":5030,"Address1":"2387 Longview Hill","Address2":"16th Floor","City":"Stockton","State":"CA","Zip":"95205","Description":null,"SalesValue":"$1759034.73"},
{"NoOfRooms":2,"NoOfBathrooms":3,"SqFeet":9012,"Address1":"3732 Stone Corner Court","Address2":"Suite 98","City":"Sacramento","State":"CA","Zip":"95852","Description":null,"SalesValue":"$2551289.41"},
{"NoOfRooms":1,"NoOfBathrooms":3,"SqFeet":9900,"Address1":"98877 Kings Parkway","Address2":"Room 1660","City":"Sacramento","State":"CA","Zip":"94245","Description":null,"SalesValue":"$6821657.26"},
{"NoOfRooms":2,"NoOfBathrooms":1,"SqFeet":1537,"Address1":"7 Aberg Parkway","Address2":"Room 1758","City":"Los Angeles","State":"CA","Zip":"90094","Description":null,"SalesValue":"$7791913.21"},
{"NoOfRooms":2,"NoOfBathrooms":1,"SqFeet":4239,"Address1":"7 Basil Way","Address2":"Suite 71","City":"San Diego","State":"CA","Zip":"92160","Description":null,"SalesValue":"$4119013.81"},
{"NoOfRooms":5,"NoOfBathrooms":2,"SqFeet":388,"Address1":"80049 Redwing Hill","Address2":"Room 528","City":"Orange","State":"CA","Zip":"92867","Description":null,"SalesValue":"$7721069.00"},
{"NoOfRooms":3,"NoOfBathrooms":2,"SqFeet":5389,"Address1":"454 Magdeline Avenue","Address2":"4th Floor","City":"San Jose","State":"CA","Zip":"95138","Description":null,"SalesValue":"$3868714.62"},
{"NoOfRooms":4,"NoOfBathrooms":1,"SqFeet":8015,"Address1":"4 Tony Parkway","Address2":"PO Box 62775","City":"San Francisco","State":"CA","Zip":"94137","Description":null,"SalesValue":"$2663135.34"},
{"NoOfRooms":5,"NoOfBathrooms":3,"SqFeet":5921,"Address1":"808 Fremont Circle","Address2":"PO Box 16503","City":"Long Beach","State":"CA","Zip":"90831","Description":null,"SalesValue":"$7845548.20"},
{"NoOfRooms":4,"NoOfBathrooms":2,"SqFeet":485,"Address1":"82391 Iowa Way","Address2":"Room 1073","City":"Sunnyvale","State":"CA","Zip":"94089","Description":null,"SalesValue":"$8739557.51"},
{"NoOfRooms":3,"NoOfBathrooms":2,"SqFeet":1418,"Address1":"0411 Morningstar Court","Address2":"9th Floor","City":"San Diego","State":"CA","Zip":"92186","Description":null,"SalesValue":"$8054030.84"},
{"NoOfRooms":3,"NoOfBathrooms":2,"SqFeet":6777,"Address1":"1676 Corscot Circle","Address2":"PO Box 40049","City":"Torrance","State":"CA","Zip":"90505","Description":null,"SalesValue":"$4429191.66"},
{"NoOfRooms":2,"NoOfBathrooms":2,"SqFeet":1000,"Address1":"0 Blaine Street","Address2":"PO Box 49495","City":"Brea","State":"CA","Zip":"92822","Description":null,"SalesValue":"$6614611.43"},
{"NoOfRooms":1,"NoOfBathrooms":1,"SqFeet":2906,"Address1":"958 Loeprich Road","Address2":"Apt 1687","City":"Modesto","State":"CA","Zip":"95397","Description":null,"SalesValue":"$126324.34"},
{"NoOfRooms":3,"NoOfBathrooms":1,"SqFeet":1526,"Address1":"2229 Badeau Trail","Address2":"Room 1014","City":"Richmond","State":"CA","Zip":"94807","Description":null,"SalesValue":"$196991.70"},
{"NoOfRooms":2,"NoOfBathrooms":2,"SqFeet":5259,"Address1":"09 Roth Avenue","Address2":"6th Floor","City":"Fresno","State":"CA","Zip":"93740","Description":null,"SalesValue":"$5397277.88"},
{"NoOfRooms":3,"NoOfBathrooms":2,"SqFeet":6224,"Address1":"541 School Hill","Address2":"Apt 1688","City":"Oakland","State":"CA","Zip":"94622","Description":null,"SalesValue":"$6478074.81"},
{"NoOfRooms":1,"NoOfBathrooms":3,"SqFeet":8575,"Address1":"35764 Vahlen Way","Address2":"Apt 1087","City":"San Jose","State":"CA","Zip":"95118","Description":null,"SalesValue":"$3839593.52"},
{"NoOfRooms":3,"NoOfBathrooms":3,"SqFeet":404,"Address1":"33168 Old Shore Parkway","Address2":"15th Floor","City":"Long Beach","State":"CA","Zip":"90831","Description":null,"SalesValue":"$4640359.37"},
{"NoOfRooms":1,"NoOfBathrooms":1,"SqFeet":3337,"Address1":"440 Debs Crossing","Address2":"Room 1003","City":"Anaheim","State":"CA","Zip":"92812","Description":null,"SalesValue":"$7427413.67"},
{"NoOfRooms":3,"NoOfBathrooms":1,"SqFeet":5040,"Address1":"46 Anzinger Point","Address2":"Apt 290","City":"Santa Barbara","State":"CA","Zip":"93150","Description":null,"SalesValue":"$7892172.44"},
{"NoOfRooms":1,"NoOfBathrooms":2,"SqFeet":7373,"Address1":"81 Service Circle","Address2":"14th Floor","City":"Fresno","State":"CA","Zip":"93704","Description":null,"SalesValue":"$3614503.36"},
{"NoOfRooms":5,"NoOfBathrooms":3,"SqFeet":4543,"Address1":"795 Nova Way","Address2":"Room 1619","City":"Los Angeles","State":"CA","Zip":"90189","Description":null,"SalesValue":"$5764627.21"},
{"NoOfRooms":4,"NoOfBathrooms":3,"SqFeet":6677,"Address1":"9467 Armistice Hill","Address2":"18th Floor","City":"Los Angeles","State":"CA","Zip":"90030","Description":null,"SalesValue":"$1775617.93"},
{"NoOfRooms":1,"NoOfBathrooms":1,"SqFeet":2561,"Address1":"36 Pennsylvania Court","Address2":"Room 1426","City":"San Francisco","State":"CA","Zip":"94126","Description":null,"SalesValue":"$2711967.19"},
{"NoOfRooms":3,"NoOfBathrooms":2,"SqFeet":6421,"Address1":"88815 Spohn Avenue","Address2":"PO Box 64224","City":"Bakersfield","State":"CA","Zip":"93386","Description":null,"SalesValue":"$5571058.60"},
{"NoOfRooms":4,"NoOfBathrooms":1,"SqFeet":809,"Address1":"588 Stuart Terrace","Address2":"PO Box 62398","City":"Los Angeles","State":"CA","Zip":"90015","Description":null,"SalesValue":"$4150664.66"},
{"NoOfRooms":4,"NoOfBathrooms":2,"SqFeet":4931,"Address1":"8 Hauk Lane","Address2":"Room 1114","City":"San Francisco","State":"CA","Zip":"94169","Description":null,"SalesValue":"$3968407.23"},
{"NoOfRooms":3,"NoOfBathrooms":3,"SqFeet":157,"Address1":"4902 Coolidge Junction","Address2":"PO Box 61436","City":"Los Angeles","State":"CA","Zip":"90050","Description":null,"SalesValue":"$588378.71"},
{"NoOfRooms":3,"NoOfBathrooms":2,"SqFeet":6524,"Address1":"5940 Talmadge Junction","Address2":"Room 1493","City":"San Francisco","State":"CA","Zip":"94169","Description":null,"SalesValue":"$9858402.65"},
{"NoOfRooms":5,"NoOfBathrooms":1,"SqFeet":5117,"Address1":"90134 Oakridge Way","Address2":"Suite 53","City":"San Diego","State":"CA","Zip":"92132","Description":null,"SalesValue":"$2534670.42"},
{"NoOfRooms":4,"NoOfBathrooms":2,"SqFeet":7587,"Address1":"5 Nevada Parkway","Address2":"Apt 762","City":"San Francisco","State":"CA","Zip":"94169","Description":null,"SalesValue":"$1798943.87"},
{"NoOfRooms":2,"NoOfBathrooms":2,"SqFeet":8197,"Address1":"8 Lillian Hill","Address2":"19th Floor","City":"Fresno","State":"CA","Zip":"93709","Description":null,"SalesValue":"$2292787.56"},
{"NoOfRooms":2,"NoOfBathrooms":3,"SqFeet":1951,"Address1":"3 Sunbrook Pass","Address2":"PO Box 83499","City":"Santa Ana","State":"CA","Zip":"92725","Description":null,"SalesValue":"$9559461.65"},
{"NoOfRooms":2,"NoOfBathrooms":3,"SqFeet":320,"Address1":"755 Anthes Lane","Address2":"Apt 1715","City":"Long Beach","State":"CA","Zip":"90840","Description":null,"SalesValue":"$5449025.23"},
{"NoOfRooms":2,"NoOfBathrooms":2,"SqFeet":4323,"Address1":"0 6th Pass","Address2":"Room 254","City":"San Francisco","State":"CA","Zip":"94177","Description":null,"SalesValue":"$1646198.71"},
{"NoOfRooms":5,"NoOfBathrooms":3,"SqFeet":1923,"Address1":"5 Lake View Lane","Address2":"PO Box 8218","City":"Lancaster","State":"CA","Zip":"93584","Description":null,"SalesValue":"$2794437.69"},
{"NoOfRooms":3,"NoOfBathrooms":1,"SqFeet":5614,"Address1":"2 Killdeer Lane","Address2":"Room 1864","City":"Garden Grove","State":"CA","Zip":"92645","Description":null,"SalesValue":"$6665144.43"},
{"NoOfRooms":5,"NoOfBathrooms":2,"SqFeet":6650,"Address1":"7965 Fisk Park","Address2":"17th Floor","City":"Santa Clara","State":"CA","Zip":"95054","Description":null,"SalesValue":"$1993569.46"},
{"NoOfRooms":1,"NoOfBathrooms":1,"SqFeet":7602,"Address1":"658 Canary Court","Address2":"PO Box 42309","City":"Alhambra","State":"CA","Zip":"91841","Description":null,"SalesValue":"$9504024.41"},
{"NoOfRooms":5,"NoOfBathrooms":1,"SqFeet":134,"Address1":"75362 Forster Hill","Address2":"Suite 40","City":"San Diego","State":"CA","Zip":"92137","Description":null,"SalesValue":"$5261121.04"},
{"NoOfRooms":4,"NoOfBathrooms":2,"SqFeet":2852,"Address1":"7601 Prentice Circle","Address2":"Room 386","City":"San Jose","State":"CA","Zip":"95113","Description":null,"SalesValue":"$6413385.73"},
{"NoOfRooms":4,"NoOfBathrooms":3,"SqFeet":2057,"Address1":"29223 Gerald Lane","Address2":"2nd Floor","City":"Oxnard","State":"CA","Zip":"93034","Description":null,"SalesValue":"$419773.56"},
{"NoOfRooms":5,"NoOfBathrooms":3,"SqFeet":1655,"Address1":"99 Arizona Street","Address2":"PO Box 57947","City":"San Francisco","State":"CA","Zip":"94137","Description":null,"SalesValue":"$1413777.48"},
{"NoOfRooms":2,"NoOfBathrooms":3,"SqFeet":4313,"Address1":"594 Farmco Circle","Address2":"19th Floor","City":"San Jose","State":"CA","Zip":"95194","Description":null,"SalesValue":"$7338674.80"},
{"NoOfRooms":2,"NoOfBathrooms":2,"SqFeet":6006,"Address1":"90636 Bultman Street","Address2":"15th Floor","City":"Los Angeles","State":"CA","Zip":"90015","Description":null,"SalesValue":"$8990234.20"},
{"NoOfRooms":1,"NoOfBathrooms":1,"SqFeet":8092,"Address1":"8468 Del Sol Trail","Address2":"Room 670","City":"Ventura","State":"CA","Zip":"93005","Description":null,"SalesValue":"$7365817.17"},
{"NoOfRooms":5,"NoOfBathrooms":2,"SqFeet":6862,"Address1":"04 Trailsway Drive","Address2":"Room 1419","City":"Fresno","State":"CA","Zip":"93794","Description":null,"SalesValue":"$1268038.75"},
{"NoOfRooms":4,"NoOfBathrooms":1,"SqFeet":9683,"Address1":"340 Old Shore Alley","Address2":"Room 1565","City":"Whittier","State":"CA","Zip":"90605","Description":null,"SalesValue":"$5151465.96"},
{"NoOfRooms":1,"NoOfBathrooms":3,"SqFeet":9022,"Address1":"34 Blackbird Pass","Address2":"PO Box 26113","City":"Sacramento","State":"CA","Zip":"95838","Description":null,"SalesValue":"$7837590.62"},
{"NoOfRooms":3,"NoOfBathrooms":3,"SqFeet":108,"Address1":"3 Talisman Place","Address2":"Room 439","City":"Sacramento","State":"CA","Zip":"94263","Description":null,"SalesValue":"$4092261.14"},
{"NoOfRooms":5,"NoOfBathrooms":3,"SqFeet":224,"Address1":"389 Monterey Lane","Address2":"1st Floor","City":"Long Beach","State":"CA","Zip":"90831","Description":null,"SalesValue":"$7924046.48"},
{"NoOfRooms":1,"NoOfBathrooms":1,"SqFeet":4353,"Address1":"82384 Declaration Way","Address2":"PO Box 91296","City":"Oxnard","State":"CA","Zip":"93034","Description":null,"SalesValue":"$7453967.71"},
{"NoOfRooms":1,"NoOfBathrooms":3,"SqFeet":4952,"Address1":"47948 Quincy Road","Address2":"Suite 85","City":"Oceanside","State":"CA","Zip":"92056","Description":null,"SalesValue":"$3853821.27"},
{"NoOfRooms":1,"NoOfBathrooms":3,"SqFeet":3896,"Address1":"75478 Arizona Hill","Address2":"12th Floor","City":"San Francisco","State":"CA","Zip":"94126","Description":null,"SalesValue":"$6202360.16"},
{"NoOfRooms":1,"NoOfBathrooms":1,"SqFeet":6487,"Address1":"65 Mayfield Hill","Address2":"Suite 58","City":"Sacramento","State":"CA","Zip":"94237","Description":null,"SalesValue":"$5162380.64"},
{"NoOfRooms":5,"NoOfBathrooms":2,"SqFeet":4078,"Address1":"725 Old Shore Terrace","Address2":"PO Box 69581","City":"Riverside","State":"CA","Zip":"92513","Description":null,"SalesValue":"$6591761.42"},
{"NoOfRooms":4,"NoOfBathrooms":3,"SqFeet":2716,"Address1":"7 Armistice Court","Address2":"Suite 26","City":"Irvine","State":"CA","Zip":"92710","Description":null,"SalesValue":"$2758531.50"},
{"NoOfRooms":2,"NoOfBathrooms":2,"SqFeet":1442,"Address1":"12 Pierstorff Circle","Address2":"8th Floor","City":"San Jose","State":"CA","Zip":"95173","Description":null,"SalesValue":"$406267.74"},
{"NoOfRooms":4,"NoOfBathrooms":1,"SqFeet":2525,"Address1":"54451 Leroy Hill","Address2":"Suite 26","City":"Santa Barbara","State":"CA","Zip":"93150","Description":null,"SalesValue":"$2259927.96"},
{"NoOfRooms":2,"NoOfBathrooms":2,"SqFeet":8316,"Address1":"2 Meadow Vale Court","Address2":"PO Box 20780","City":"Los Angeles","State":"CA","Zip":"90189","Description":null,"SalesValue":"$764435.68"},
{"NoOfRooms":3,"NoOfBathrooms":2,"SqFeet":2787,"Address1":"49 Service Plaza","Address2":"Suite 93","City":"San Jose","State":"CA","Zip":"95173","Description":null,"SalesValue":"$2959745.28"},
{"NoOfRooms":5,"NoOfBathrooms":2,"SqFeet":4841,"Address1":"56831 Redwing Street","Address2":"Apt 1609","City":"Oakland","State":"CA","Zip":"94611","Description":null,"SalesValue":"$6084902.70"},
{"NoOfRooms":5,"NoOfBathrooms":3,"SqFeet":8848,"Address1":"476 Stone Corner Terrace","Address2":"6th Floor","City":"Concord","State":"CA","Zip":"94522","Description":null,"SalesValue":"$4757171.45"},
{"NoOfRooms":1,"NoOfBathrooms":1,"SqFeet":2988,"Address1":"4124 Gerald Parkway","Address2":"Suite 91","City":"Oceanside","State":"CA","Zip":"92056","Description":null,"SalesValue":"$2921071.93"},
{"NoOfRooms":3,"NoOfBathrooms":1,"SqFeet":3750,"Address1":"9530 Morning Avenue","Address2":"Suite 36","City":"Simi Valley","State":"CA","Zip":"93094","Description":null,"SalesValue":"$5525676.74"},
{"NoOfRooms":1,"NoOfBathrooms":2,"SqFeet":6986,"Address1":"1950 Cordelia Junction","Address2":"PO Box 2582","City":"Visalia","State":"CA","Zip":"93291","Description":null,"SalesValue":"$9588953.57"},
{"NoOfRooms":2,"NoOfBathrooms":2,"SqFeet":2439,"Address1":"28 Sheridan Way","Address2":"Suite 57","City":"Redwood City","State":"CA","Zip":"94064","Description":null,"SalesValue":"$4227334.13"},
{"NoOfRooms":5,"NoOfBathrooms":1,"SqFeet":2314,"Address1":"97 Sutteridge Court","Address2":"14th Floor","City":"San Francisco","State":"CA","Zip":"94142","Description":null,"SalesValue":"$8584086.59"},
{"NoOfRooms":3,"NoOfBathrooms":3,"SqFeet":2624,"Address1":"9072 Fallview Point","Address2":"Suite 85","City":"Fresno","State":"CA","Zip":"93750","Description":null,"SalesValue":"$997774.44"},
{"NoOfRooms":4,"NoOfBathrooms":1,"SqFeet":3083,"Address1":"29 Valley Edge Pass","Address2":"Apt 1939","City":"San Francisco","State":"CA","Zip":"94105","Description":null,"SalesValue":"$8293478.82"},
{"NoOfRooms":2,"NoOfBathrooms":1,"SqFeet":6826,"Address1":"11825 Corscot Plaza","Address2":"Apt 1362","City":"Fresno","State":"CA","Zip":"93794","Description":null,"SalesValue":"$9631884.15"},
{"NoOfRooms":2,"NoOfBathrooms":1,"SqFeet":9067,"Address1":"3796 Cordelia Court","Address2":"Suite 79","City":"Santa Ana","State":"CA","Zip":"92705","Description":null,"SalesValue":"$5948505.07"},
{"NoOfRooms":1,"NoOfBathrooms":2,"SqFeet":7257,"Address1":"4507 Sachs Hill","Address2":"Suite 11","City":"North Hollywood","State":"CA","Zip":"91616","Description":null,"SalesValue":"$2309006.68"},
{"NoOfRooms":5,"NoOfBathrooms":1,"SqFeet":3753,"Address1":"41255 Arizona Road","Address2":"Suite 98","City":"Anaheim","State":"CA","Zip":"92805","Description":null,"SalesValue":"$8087615.22"},
{"NoOfRooms":2,"NoOfBathrooms":2,"SqFeet":3436,"Address1":"60 Northfield Court","Address2":"8th Floor","City":"San Jose","State":"CA","Zip":"95113","Description":null,"SalesValue":"$8370177.29"},
{"NoOfRooms":1,"NoOfBathrooms":3,"SqFeet":4576,"Address1":"662 Butterfield Way","Address2":"Suite 69","City":"Berkeley","State":"CA","Zip":"94705","Description":null,"SalesValue":"$3689595.98"},
{"NoOfRooms":3,"NoOfBathrooms":3,"SqFeet":9867,"Address1":"4 Milwaukee Road","Address2":"9th Floor","City":"Fullerton","State":"CA","Zip":"92835","Description":null,"SalesValue":"$5198935.45"},
{"NoOfRooms":3,"NoOfBathrooms":3,"SqFeet":1160,"Address1":"49 Pearson Alley","Address2":"3rd Floor","City":"Pasadena","State":"CA","Zip":"91103","Description":null,"SalesValue":"$5153914.40"},
{"NoOfRooms":1,"NoOfBathrooms":2,"SqFeet":1042,"Address1":"6 Fairfield Park","Address2":"Suite 87","City":"Fresno","State":"CA","Zip":"93794","Description":null,"SalesValue":"$8058916.24"},
{"NoOfRooms":2,"NoOfBathrooms":3,"SqFeet":3389,"Address1":"6975 Waubesa Hill","Address2":"Room 1932","City":"Los Angeles","State":"CA","Zip":"90025","Description":null,"SalesValue":"$149962.19"},
{"NoOfRooms":4,"NoOfBathrooms":1,"SqFeet":7844,"Address1":"7541 Dunning Circle","Address2":"PO Box 54886","City":"San Jose","State":"CA","Zip":"95123","Description":null,"SalesValue":"$1012447.78"},
{"NoOfRooms":2,"NoOfBathrooms":3,"SqFeet":4582,"Address1":"93 Linden Plaza","Address2":"Apt 351","City":"San Francisco","State":"CA","Zip":"94105","Description":null,"SalesValue":"$2723741.96"},
{"NoOfRooms":2,"NoOfBathrooms":3,"SqFeet":827,"Address1":"2607 Hintze Parkway","Address2":"PO Box 87073","City":"Bakersfield","State":"CA","Zip":"93311","Description":null,"SalesValue":"$9071094.29"},
{"NoOfRooms":2,"NoOfBathrooms":2,"SqFeet":7072,"Address1":"02394 3rd Lane","Address2":"6th Floor","City":"Sacramento","State":"CA","Zip":"94245","Description":null,"SalesValue":"$7595336.19"},
{"NoOfRooms":3,"NoOfBathrooms":2,"SqFeet":1981,"Address1":"4479 Hauk Crossing","Address2":"Room 1854","City":"San Diego","State":"CA","Zip":"92186","Description":null,"SalesValue":"$100189.99"},
{"NoOfRooms":1,"NoOfBathrooms":2,"SqFeet":1629,"Address1":"37 Arapahoe Circle","Address2":"Room 1314","City":"Simi Valley","State":"CA","Zip":"93094","Description":null,"SalesValue":"$412455.81"},
{"NoOfRooms":4,"NoOfBathrooms":1,"SqFeet":335,"Address1":"188 Golden Leaf Drive","Address2":"15th Floor","City":"North Hollywood","State":"CA","Zip":"91616","Description":null,"SalesValue":"$6039306.67"},
{"NoOfRooms":3,"NoOfBathrooms":3,"SqFeet":3850,"Address1":"57725 Westport Road","Address2":"Suite 7","City":"Long Beach","State":"CA","Zip":"90831","Description":null,"SalesValue":"$8916187.24"},
{"NoOfRooms":4,"NoOfBathrooms":3,"SqFeet":6691,"Address1":"6 Anzinger Parkway","Address2":"Suite 44","City":"Sacramento","State":"CA","Zip":"94207","Description":null,"SalesValue":"$7407362.50"},
{"NoOfRooms":3,"NoOfBathrooms":2,"SqFeet":1293,"Address1":"09 7th Park","Address2":"Apt 584","City":"Oakland","State":"CA","Zip":"94627","Description":null,"SalesValue":"$6993731.00"},
{"NoOfRooms":4,"NoOfBathrooms":3,"SqFeet":5064,"Address1":"3 Stuart Drive","Address2":"Suite 22","City":"Pomona","State":"CA","Zip":"91797","Description":null,"SalesValue":"$786640.18"},
{"NoOfRooms":4,"NoOfBathrooms":2,"SqFeet":1437,"Address1":"3823 Maple Point","Address2":"Suite 77","City":"Fresno","State":"CA","Zip":"93786","Description":null,"SalesValue":"$9391264.61"},
{"NoOfRooms":5,"NoOfBathrooms":3,"SqFeet":6118,"Address1":"402 Mccormick Way","Address2":"PO Box 30319","City":"Garden Grove","State":"CA","Zip":"92844","Description":null,"SalesValue":"$5569673.62"},
{"NoOfRooms":1,"NoOfBathrooms":2,"SqFeet":6371,"Address1":"379 Burning Wood Hill","Address2":"Suite 58","City":"San Rafael","State":"CA","Zip":"94913","Description":null,"SalesValue":"$2970513.61"},
{"NoOfRooms":1,"NoOfBathrooms":3,"SqFeet":9410,"Address1":"187 Sloan Plaza","Address2":"PO Box 25270","City":"San Jose","State":"CA","Zip":"95113","Description":null,"SalesValue":"$6158229.75"},
{"NoOfRooms":1,"NoOfBathrooms":2,"SqFeet":4321,"Address1":"2 Mandrake Hill","Address2":"PO Box 44782","City":"Mountain View","State":"CA","Zip":"94042","Description":null,"SalesValue":"$5741353.12"},
{"NoOfRooms":2,"NoOfBathrooms":3,"SqFeet":6772,"Address1":"97243 Blue Bill Park Road","Address2":"Suite 85","City":"Los Angeles","State":"CA","Zip":"90076","Description":null,"SalesValue":"$4553987.45"},
{"NoOfRooms":4,"NoOfBathrooms":1,"SqFeet":6658,"Address1":"46 Warner Way","Address2":"PO Box 92517","City":"San Francisco","State":"CA","Zip":"94169","Description":null,"SalesValue":"$5101616.53"},
{"NoOfRooms":5,"NoOfBathrooms":2,"SqFeet":3836,"Address1":"20 Atwood Trail","Address2":"PO Box 10603","City":"Salinas","State":"CA","Zip":"93907","Description":null,"SalesValue":"$3118803.06"},
{"NoOfRooms":5,"NoOfBathrooms":1,"SqFeet":9012,"Address1":"3328 Schiller Pass","Address2":"Room 1600","City":"Sacramento","State":"CA","Zip":"94286","Description":null,"SalesValue":"$4516682.19"},
{"NoOfRooms":3,"NoOfBathrooms":2,"SqFeet":8686,"Address1":"6008 Dapin Way","Address2":"Apt 699","City":"Garden Grove","State":"CA","Zip":"92645","Description":null,"SalesValue":"$8160282.06"},
{"NoOfRooms":5,"NoOfBathrooms":2,"SqFeet":2747,"Address1":"83 Birchwood Alley","Address2":"Apt 1590","City":"Irvine","State":"CA","Zip":"92717","Description":null,"SalesValue":"$3109894.09"},
{"NoOfRooms":5,"NoOfBathrooms":2,"SqFeet":8148,"Address1":"33 Rigney Way","Address2":"PO Box 33632","City":"San Francisco","State":"CA","Zip":"94132","Description":null,"SalesValue":"$6116287.34"},
{"NoOfRooms":5,"NoOfBathrooms":2,"SqFeet":4679,"Address1":"8121 Westridge Hill","Address2":"Suite 57","City":"Oakland","State":"CA","Zip":"94605","Description":null,"SalesValue":"$9756782.99"},
{"NoOfRooms":4,"NoOfBathrooms":3,"SqFeet":284,"Address1":"21 Scott Street","Address2":"Suite 77","City":"San Jose","State":"CA","Zip":"95194","Description":null,"SalesValue":"$2285363.28"},
{"NoOfRooms":5,"NoOfBathrooms":2,"SqFeet":1453,"Address1":"3 Evergreen Crossing","Address2":"Apt 475","City":"Fresno","State":"CA","Zip":"93726","Description":null,"SalesValue":"$4196218.97"},
{"NoOfRooms":5,"NoOfBathrooms":1,"SqFeet":6996,"Address1":"6485 Kings Terrace","Address2":"Apt 387","City":"Fresno","State":"CA","Zip":"93794","Description":null,"SalesValue":"$7590181.38"},
{"NoOfRooms":2,"NoOfBathrooms":2,"SqFeet":1800,"Address1":"6 Garrison Court","Address2":"PO Box 64849","City":"San Rafael","State":"CA","Zip":"94913","Description":null,"SalesValue":"$4086429.72"},
{"NoOfRooms":2,"NoOfBathrooms":3,"SqFeet":9030,"Address1":"066 Carey Plaza","Address2":"Suite 27","City":"Pasadena","State":"CA","Zip":"91109","Description":null,"SalesValue":"$4605923.69"},
{"NoOfRooms":2,"NoOfBathrooms":2,"SqFeet":5771,"Address1":"177 Parkside Drive","Address2":"Suite 93","City":"Glendale","State":"CA","Zip":"91205","Description":null,"SalesValue":"$9381809.47"},
{"NoOfRooms":1,"NoOfBathrooms":1,"SqFeet":4012,"Address1":"302 Village Place","Address2":"Suite 68","City":"Mountain View","State":"CA","Zip":"94042","Description":null,"SalesValue":"$4939602.36"},
{"NoOfRooms":3,"NoOfBathrooms":1,"SqFeet":6064,"Address1":"18629 Golf Course Drive","Address2":"PO Box 79362","City":"Los Angeles","State":"CA","Zip":"90050","Description":null,"SalesValue":"$1638410.77"},
{"NoOfRooms":1,"NoOfBathrooms":3,"SqFeet":9512,"Address1":"471 Sheridan Plaza","Address2":"PO Box 64951","City":"Pasadena","State":"CA","Zip":"91186","Description":null,"SalesValue":"$4581248.35"},
{"NoOfRooms":5,"NoOfBathrooms":1,"SqFeet":8098,"Address1":"950 Hintze Park","Address2":"Suite 79","City":"Los Angeles","State":"CA","Zip":"90094","Description":null,"SalesValue":"$7802758.98"},
{"NoOfRooms":1,"NoOfBathrooms":2,"SqFeet":214,"Address1":"5892 Clove Plaza","Address2":"Room 1627","City":"San Diego","State":"CA","Zip":"92196","Description":null,"SalesValue":"$4987455.47"},
{"NoOfRooms":1,"NoOfBathrooms":3,"SqFeet":2348,"Address1":"752 Sauthoff Junction","Address2":"Apt 838","City":"Stockton","State":"CA","Zip":"95298","Description":null,"SalesValue":"$2335016.91"},
{"NoOfRooms":3,"NoOfBathrooms":1,"SqFeet":6442,"Address1":"357 Stang Court","Address2":"20th Floor","City":"Oakland","State":"CA","Zip":"94622","Description":null,"SalesValue":"$1338763.02"},
{"NoOfRooms":5,"NoOfBathrooms":2,"SqFeet":4815,"Address1":"69344 Bultman Lane","Address2":"Room 451","City":"Oakland","State":"CA","Zip":"94622","Description":null,"SalesValue":"$976228.55"},
{"NoOfRooms":2,"NoOfBathrooms":3,"SqFeet":2881,"Address1":"12 Dottie Point","Address2":"Room 1266","City":"Sacramento","State":"CA","Zip":"94245","Description":null,"SalesValue":"$4112339.60"},
{"NoOfRooms":2,"NoOfBathrooms":3,"SqFeet":4733,"Address1":"0191 Fremont Road","Address2":"20th Floor","City":"San Jose","State":"CA","Zip":"95113","Description":null,"SalesValue":"$9259958.71"},
{"NoOfRooms":4,"NoOfBathrooms":3,"SqFeet":4982,"Address1":"7523 Forster Lane","Address2":"PO Box 66192","City":"San Diego","State":"CA","Zip":"92110","Description":null,"SalesValue":"$1970659.91"},
{"NoOfRooms":5,"NoOfBathrooms":2,"SqFeet":3093,"Address1":"01 Heath Plaza","Address2":"10th Floor","City":"Torrance","State":"CA","Zip":"90505","Description":null,"SalesValue":"$5963255.86"},
{"NoOfRooms":5,"NoOfBathrooms":2,"SqFeet":6710,"Address1":"354 Hoard Drive","Address2":"Suite 62","City":"San Diego","State":"CA","Zip":"92153","Description":null,"SalesValue":"$3429542.22"},
{"NoOfRooms":3,"NoOfBathrooms":3,"SqFeet":7927,"Address1":"4817 Clarendon Terrace","Address2":"Room 1900","City":"San Jose","State":"CA","Zip":"95123","Description":null,"SalesValue":"$3227926.97"},
{"NoOfRooms":3,"NoOfBathrooms":3,"SqFeet":7721,"Address1":"61 Brentwood Trail","Address2":"Room 1114","City":"Mountain View","State":"CA","Zip":"94042","Description":null,"SalesValue":"$5901927.61"},
{"NoOfRooms":4,"NoOfBathrooms":3,"SqFeet":3183,"Address1":"3631 Truax Hill","Address2":"20th Floor","City":"Santa Ana","State":"CA","Zip":"92725","Description":null,"SalesValue":"$3760358.20"},
{"NoOfRooms":4,"NoOfBathrooms":3,"SqFeet":4283,"Address1":"5 John Wall Place","Address2":"Suite 24","City":"San Jose","State":"CA","Zip":"95194","Description":null,"SalesValue":"$3147507.93"},
{"NoOfRooms":4,"NoOfBathrooms":2,"SqFeet":8356,"Address1":"18 Eastwood Terrace","Address2":"Room 579","City":"Sacramento","State":"CA","Zip":"94250","Description":null,"SalesValue":"$2601810.07"},
{"NoOfRooms":5,"NoOfBathrooms":2,"SqFeet":1796,"Address1":"5 Quincy Pass","Address2":"14th Floor","City":"Sacramento","State":"CA","Zip":"94245","Description":null,"SalesValue":"$9068534.00"},
{"NoOfRooms":2,"NoOfBathrooms":3,"SqFeet":1436,"Address1":"88 Londonderry Parkway","Address2":"Apt 121","City":"Santa Monica","State":"CA","Zip":"90410","Description":null,"SalesValue":"$3467623.45"},
{"NoOfRooms":3,"NoOfBathrooms":3,"SqFeet":3649,"Address1":"42 Carberry Trail","Address2":"PO Box 87598","City":"Pasadena","State":"CA","Zip":"91117","Description":null,"SalesValue":"$1423142.37"},
{"NoOfRooms":4,"NoOfBathrooms":1,"SqFeet":3741,"Address1":"817 Pearson Trail","Address2":"Room 1334","City":"Long Beach","State":"CA","Zip":"90810","Description":null,"SalesValue":"$6553721.51"},
{"NoOfRooms":5,"NoOfBathrooms":3,"SqFeet":5857,"Address1":"2 Anderson Court","Address2":"Suite 92","City":"Oakland","State":"CA","Zip":"94627","Description":null,"SalesValue":"$3160816.03"},
{"NoOfRooms":1,"NoOfBathrooms":1,"SqFeet":2620,"Address1":"6 Ronald Regan Pass","Address2":"2nd Floor","City":"San Francisco","State":"CA","Zip":"94169","Description":null,"SalesValue":"$569983.73"},
{"NoOfRooms":4,"NoOfBathrooms":3,"SqFeet":9683,"Address1":"485 Welch Road","Address2":"Room 730","City":"Pomona","State":"CA","Zip":"91797","Description":null,"SalesValue":"$2418154.48"},
{"NoOfRooms":3,"NoOfBathrooms":1,"SqFeet":9226,"Address1":"17704 Amoth Plaza","Address2":"PO Box 29911","City":"San Francisco","State":"CA","Zip":"94142","Description":null,"SalesValue":"$8746505.42"},
{"NoOfRooms":5,"NoOfBathrooms":3,"SqFeet":2194,"Address1":"6905 Monica Plaza","Address2":"Apt 684","City":"San Jose","State":"CA","Zip":"95113","Description":null,"SalesValue":"$1955006.77"},
{"NoOfRooms":5,"NoOfBathrooms":2,"SqFeet":5802,"Address1":"5622 Waxwing Street","Address2":"PO Box 54689","City":"Santa Rosa","State":"CA","Zip":"95405","Description":null,"SalesValue":"$5070559.16"},
{"NoOfRooms":3,"NoOfBathrooms":2,"SqFeet":7566,"Address1":"1 Dawn Avenue","Address2":"Apt 1229","City":"Los Angeles","State":"CA","Zip":"90030","Description":null,"SalesValue":"$9774311.11"},
{"NoOfRooms":1,"NoOfBathrooms":1,"SqFeet":5027,"Address1":"690 Kim Road","Address2":"Apt 216","City":"Orange","State":"CA","Zip":"92862","Description":null,"SalesValue":"$3852736.98"},
{"NoOfRooms":5,"NoOfBathrooms":3,"SqFeet":4540,"Address1":"50318 Duke Terrace","Address2":"11th Floor","City":"San Diego","State":"CA","Zip":"92121","Description":null,"SalesValue":"$9229711.99"},
{"NoOfRooms":5,"NoOfBathrooms":3,"SqFeet":6668,"Address1":"13 Sage Trail","Address2":"PO Box 1058","City":"San Diego","State":"CA","Zip":"92132","Description":null,"SalesValue":"$5765173.92"},
{"NoOfRooms":2,"NoOfBathrooms":3,"SqFeet":721,"Address1":"0130 Dottie Plaza","Address2":"PO Box 39869","City":"San Jose","State":"CA","Zip":"95150","Description":null,"SalesValue":"$2807000.16"},
{"NoOfRooms":1,"NoOfBathrooms":2,"SqFeet":8301,"Address1":"532 West Terrace","Address2":"Room 678","City":"Sacramento","State":"CA","Zip":"94257","Description":null,"SalesValue":"$9142167.95"},
{"NoOfRooms":1,"NoOfBathrooms":3,"SqFeet":5789,"Address1":"20900 Corry Trail","Address2":"Suite 65","City":"San Jose","State":"CA","Zip":"95150","Description":null,"SalesValue":"$796798.51"},
{"NoOfRooms":5,"NoOfBathrooms":2,"SqFeet":5110,"Address1":"35 Trailsway Trail","Address2":"Room 1825","City":"Richmond","State":"CA","Zip":"94807","Description":null,"SalesValue":"$2513720.37"},
{"NoOfRooms":4,"NoOfBathrooms":3,"SqFeet":1972,"Address1":"53 Troy Circle","Address2":"5th Floor","City":"Sacramento","State":"CA","Zip":"95833","Description":null,"SalesValue":"$454711.62"},
{"NoOfRooms":3,"NoOfBathrooms":1,"SqFeet":2867,"Address1":"39653 Northwestern Pass","Address2":"Room 1923","City":"Los Angeles","State":"CA","Zip":"90035","Description":null,"SalesValue":"$1530086.39"},
{"NoOfRooms":2,"NoOfBathrooms":1,"SqFeet":9831,"Address1":"4 Clove Court","Address2":"PO Box 65967","City":"San Jose","State":"CA","Zip":"95138","Description":null,"SalesValue":"$3691582.58"},
{"NoOfRooms":4,"NoOfBathrooms":1,"SqFeet":2816,"Address1":"3 Glendale Drive","Address2":"16th Floor","City":"Orange","State":"CA","Zip":"92668","Description":null,"SalesValue":"$1775327.49"},
{"NoOfRooms":1,"NoOfBathrooms":2,"SqFeet":9278,"Address1":"1382 Arrowood Point","Address2":"Apt 701","City":"Sacramento","State":"CA","Zip":"95865","Description":null,"SalesValue":"$3630251.59"},
{"NoOfRooms":3,"NoOfBathrooms":1,"SqFeet":3038,"Address1":"15337 Farragut Place","Address2":"Apt 738","City":"Stockton","State":"CA","Zip":"95298","Description":null,"SalesValue":"$457195.02"},
{"NoOfRooms":1,"NoOfBathrooms":3,"SqFeet":1802,"Address1":"1508 Green Way","Address2":"Room 1894","City":"Berkeley","State":"CA","Zip":"94712","Description":null,"SalesValue":"$8440056.62"},
{"NoOfRooms":5,"NoOfBathrooms":3,"SqFeet":8033,"Address1":"14 Crownhardt Crossing","Address2":"PO Box 93874","City":"Moreno Valley","State":"CA","Zip":"92555","Description":null,"SalesValue":"$6287087.68"},
{"NoOfRooms":2,"NoOfBathrooms":3,"SqFeet":3636,"Address1":"19312 Hollow Ridge Alley","Address2":"Suite 25","City":"San Francisco","State":"CA","Zip":"94169","Description":null,"SalesValue":"$3486973.99"},
{"NoOfRooms":3,"NoOfBathrooms":3,"SqFeet":4595,"Address1":"75027 Southridge Park","Address2":"PO Box 45430","City":"Oakland","State":"CA","Zip":"94611","Description":null,"SalesValue":"$1307640.16"},
{"NoOfRooms":3,"NoOfBathrooms":3,"SqFeet":3575,"Address1":"4856 Porter Center","Address2":"PO Box 91090","City":"Van Nuys","State":"CA","Zip":"91406","Description":null,"SalesValue":"$8533843.95"},
{"NoOfRooms":3,"NoOfBathrooms":1,"SqFeet":5832,"Address1":"3 Mesta Terrace","Address2":"PO Box 20045","City":"Salinas","State":"CA","Zip":"93907","Description":null,"SalesValue":"$8572542.01"},
{"NoOfRooms":5,"NoOfBathrooms":3,"SqFeet":8065,"Address1":"092 Darwin Circle","Address2":"PO Box 35888","City":"Los Angeles","State":"CA","Zip":"90050","Description":null,"SalesValue":"$8261190.44"},
{"NoOfRooms":2,"NoOfBathrooms":2,"SqFeet":5597,"Address1":"2007 Bellgrove Street","Address2":"14th Floor","City":"Anaheim","State":"CA","Zip":"92805","Description":null,"SalesValue":"$7674764.33"},
{"NoOfRooms":5,"NoOfBathrooms":2,"SqFeet":5716,"Address1":"460 Twin Pines Park","Address2":"Room 455","City":"San Jose","State":"CA","Zip":"95138","Description":null,"SalesValue":"$4276323.32"},
{"NoOfRooms":1,"NoOfBathrooms":1,"SqFeet":4558,"Address1":"36 Buell Trail","Address2":"Apt 997","City":"Sacramento","State":"CA","Zip":"94245","Description":null,"SalesValue":"$343588.79"},
{"NoOfRooms":5,"NoOfBathrooms":3,"SqFeet":7816,"Address1":"04022 Hovde Junction","Address2":"PO Box 34051","City":"Sacramento","State":"CA","Zip":"94230","Description":null,"SalesValue":"$7140645.59"},
{"NoOfRooms":4,"NoOfBathrooms":3,"SqFeet":6543,"Address1":"90823 Annamark Court","Address2":"PO Box 90016","City":"Sacramento","State":"CA","Zip":"94291","Description":null,"SalesValue":"$2213109.03"},
{"NoOfRooms":1,"NoOfBathrooms":2,"SqFeet":7473,"Address1":"903 Ryan Plaza","Address2":"Room 694","City":"Orange","State":"CA","Zip":"92862","Description":null,"SalesValue":"$1822840.80"},
{"NoOfRooms":3,"NoOfBathrooms":1,"SqFeet":4465,"Address1":"0572 Hazelcrest Pass","Address2":"PO Box 38609","City":"Sacramento","State":"CA","Zip":"94291","Description":null,"SalesValue":"$6699136.71"},
{"NoOfRooms":3,"NoOfBathrooms":2,"SqFeet":460,"Address1":"7 Valley Edge Plaza","Address2":"PO Box 41979","City":"Orange","State":"CA","Zip":"92668","Description":null,"SalesValue":"$289062.48"},
{"NoOfRooms":4,"NoOfBathrooms":3,"SqFeet":3769,"Address1":"4849 Barby Alley","Address2":"Room 629","City":"Santa Ana","State":"CA","Zip":"92725","Description":null,"SalesValue":"$7891403.20"},
{"NoOfRooms":2,"NoOfBathrooms":1,"SqFeet":1563,"Address1":"111 Hanson Parkway","Address2":"Apt 1694","City":"Los Angeles","State":"CA","Zip":"90094","Description":null,"SalesValue":"$4910179.84"},
{"NoOfRooms":4,"NoOfBathrooms":1,"SqFeet":881,"Address1":"7737 Kedzie Lane","Address2":"PO Box 51530","City":"San Jose","State":"CA","Zip":"95155","Description":null,"SalesValue":"$1256421.86"},
{"NoOfRooms":3,"NoOfBathrooms":3,"SqFeet":5342,"Address1":"1729 Tennessee Court","Address2":"PO Box 71561","City":"Pasadena","State":"CA","Zip":"91131","Description":null,"SalesValue":"$1957111.71"},
{"NoOfRooms":4,"NoOfBathrooms":2,"SqFeet":4809,"Address1":"2 Sage Drive","Address2":"4th Floor","City":"San Bernardino","State":"CA","Zip":"92405","Description":null,"SalesValue":"$1861960.56"},
{"NoOfRooms":2,"NoOfBathrooms":3,"SqFeet":7822,"Address1":"84 Redwing Lane","Address2":"1st Floor","City":"Modesto","State":"CA","Zip":"95354","Description":null,"SalesValue":"$1564011.52"},
{"NoOfRooms":1,"NoOfBathrooms":1,"SqFeet":2617,"Address1":"57 Vidon Terrace","Address2":"Suite 58","City":"Lancaster","State":"CA","Zip":"93584","Description":null,"SalesValue":"$7726602.44"},
{"NoOfRooms":2,"NoOfBathrooms":3,"SqFeet":1495,"Address1":"1 Sutteridge Center","Address2":"PO Box 53856","City":"Ventura","State":"CA","Zip":"93005","Description":null,"SalesValue":"$7547389.42"},
{"NoOfRooms":1,"NoOfBathrooms":1,"SqFeet":3998,"Address1":"437 Union Place","Address2":"8th Floor","City":"San Diego","State":"CA","Zip":"92170","Description":null,"SalesValue":"$3794999.16"},
{"NoOfRooms":1,"NoOfBathrooms":2,"SqFeet":4204,"Address1":"1244 Golf View Center","Address2":"Apt 475","City":"Fresno","State":"CA","Zip":"93750","Description":null,"SalesValue":"$1996708.82"},
{"NoOfRooms":4,"NoOfBathrooms":2,"SqFeet":4655,"Address1":"5447 Talmadge Court","Address2":"Suite 72","City":"San Diego","State":"CA","Zip":"92132","Description":null,"SalesValue":"$2553176.65"},
{"NoOfRooms":3,"NoOfBathrooms":1,"SqFeet":2831,"Address1":"45122 Kennedy Park","Address2":"Room 715","City":"Los Angeles","State":"CA","Zip":"90055","Description":null,"SalesValue":"$3706650.39"},
{"NoOfRooms":2,"NoOfBathrooms":2,"SqFeet":4102,"Address1":"624 Waxwing Center","Address2":"Apt 1611","City":"Los Angeles","State":"CA","Zip":"90071","Description":null,"SalesValue":"$2725967.28"},
{"NoOfRooms":2,"NoOfBathrooms":2,"SqFeet":4640,"Address1":"568 Nelson Park","Address2":"Apt 1288","City":"Garden Grove","State":"CA","Zip":"92844","Description":null,"SalesValue":"$5792095.73"},
{"NoOfRooms":1,"NoOfBathrooms":1,"SqFeet":4697,"Address1":"0723 Ridgeview Court","Address2":"9th Floor","City":"San Francisco","State":"CA","Zip":"94105","Description":null,"SalesValue":"$7242907.02"},
{"NoOfRooms":3,"NoOfBathrooms":1,"SqFeet":8284,"Address1":"82 Village Green Trail","Address2":"Room 1848","City":"Los Angeles","State":"CA","Zip":"90055","Description":null,"SalesValue":"$4809054.00"},
{"NoOfRooms":1,"NoOfBathrooms":1,"SqFeet":900,"Address1":"572 Manufacturers Street","Address2":"9th Floor","City":"San Bernardino","State":"CA","Zip":"92424","Description":null,"SalesValue":"$9099684.03"},
{"NoOfRooms":5,"NoOfBathrooms":3,"SqFeet":7809,"Address1":"7883 Montana Road","Address2":"Room 1128","City":"Oakland","State":"CA","Zip":"94660","Description":null,"SalesValue":"$2722800.39"},
{"NoOfRooms":3,"NoOfBathrooms":1,"SqFeet":5192,"Address1":"98995 Mockingbird Crossing","Address2":"5th Floor","City":"Fresno","State":"CA","Zip":"93740","Description":null,"SalesValue":"$3940344.95"},
{"NoOfRooms":1,"NoOfBathrooms":3,"SqFeet":7696,"Address1":"75 Hanover Trail","Address2":"19th Floor","City":"Oakland","State":"CA","Zip":"94611","Description":null,"SalesValue":"$854919.99"},
{"NoOfRooms":4,"NoOfBathrooms":3,"SqFeet":6099,"Address1":"75 Heffernan Alley","Address2":"6th Floor","City":"Long Beach","State":"CA","Zip":"90847","Description":null,"SalesValue":"$6708984.39"},
{"NoOfRooms":4,"NoOfBathrooms":1,"SqFeet":3232,"Address1":"84 Sunfield Circle","Address2":"15th Floor","City":"San Jose","State":"CA","Zip":"95150","Description":null,"SalesValue":"$1700756.38"},
{"NoOfRooms":3,"NoOfBathrooms":1,"SqFeet":4785,"Address1":"55267 Buhler Court","Address2":"Suite 6","City":"Redwood City","State":"CA","Zip":"94064","Description":null,"SalesValue":"$3426049.20"},
{"NoOfRooms":4,"NoOfBathrooms":1,"SqFeet":4932,"Address1":"4 Hauk Court","Address2":"Room 809","City":"San Diego","State":"CA","Zip":"92105","Description":null,"SalesValue":"$789540.24"},
{"NoOfRooms":3,"NoOfBathrooms":3,"SqFeet":6835,"Address1":"923 Logan Parkway","Address2":"3rd Floor","City":"Northridge","State":"CA","Zip":"91328","Description":null,"SalesValue":"$4366537.70"},
{"NoOfRooms":3,"NoOfBathrooms":3,"SqFeet":4693,"Address1":"11 Marquette Pass","Address2":"6th Floor","City":"Anaheim","State":"CA","Zip":"92805","Description":null,"SalesValue":"$4818625.45"},
{"NoOfRooms":5,"NoOfBathrooms":1,"SqFeet":1690,"Address1":"8 Autumn Leaf Circle","Address2":"Room 497","City":"North Hollywood","State":"CA","Zip":"91616","Description":null,"SalesValue":"$3910665.39"},
{"NoOfRooms":4,"NoOfBathrooms":1,"SqFeet":5427,"Address1":"20284 Golf View Circle","Address2":"PO Box 69223","City":"Long Beach","State":"CA","Zip":"90810","Description":null,"SalesValue":"$8791056.87"},
{"NoOfRooms":4,"NoOfBathrooms":2,"SqFeet":9373,"Address1":"10030 Lyons Court","Address2":"Room 264","City":"San Jose","State":"CA","Zip":"95150","Description":null,"SalesValue":"$1889027.11"},
{"NoOfRooms":3,"NoOfBathrooms":3,"SqFeet":3590,"Address1":"3 Pawling Alley","Address2":"Room 689","City":"Modesto","State":"CA","Zip":"95354","Description":null,"SalesValue":"$8750772.48"},
{"NoOfRooms":3,"NoOfBathrooms":2,"SqFeet":498,"Address1":"950 Hoffman Drive","Address2":"Room 584","City":"Stockton","State":"CA","Zip":"95205","Description":null,"SalesValue":"$2154205.95"},
{"NoOfRooms":5,"NoOfBathrooms":3,"SqFeet":9278,"Address1":"090 Hagan Trail","Address2":"9th Floor","City":"Oceanside","State":"CA","Zip":"92056","Description":null,"SalesValue":"$9505040.05"},
{"NoOfRooms":2,"NoOfBathrooms":1,"SqFeet":8877,"Address1":"25809 5th Crossing","Address2":"8th Floor","City":"Glendale","State":"CA","Zip":"91205","Description":null,"SalesValue":"$6220794.41"},
{"NoOfRooms":2,"NoOfBathrooms":2,"SqFeet":1856,"Address1":"36545 Elmside Center","Address2":"Suite 15","City":"Pasadena","State":"CA","Zip":"91117","Description":null,"SalesValue":"$1154228.18"},
{"NoOfRooms":4,"NoOfBathrooms":3,"SqFeet":2385,"Address1":"5757 Center Drive","Address2":"PO Box 14278","City":"San Diego","State":"CA","Zip":"92132","Description":null,"SalesValue":"$3223518.06"},
{"NoOfRooms":1,"NoOfBathrooms":1,"SqFeet":4762,"Address1":"0 Fair Oaks Junction","Address2":"Apt 1819","City":"San Diego","State":"CA","Zip":"92132","Description":null,"SalesValue":"$5533133.95"},
{"NoOfRooms":5,"NoOfBathrooms":1,"SqFeet":6111,"Address1":"19762 Sauthoff Drive","Address2":"Room 59","City":"Glendale","State":"CA","Zip":"91205","Description":null,"SalesValue":"$7241629.90"},
{"NoOfRooms":4,"NoOfBathrooms":3,"SqFeet":916,"Address1":"417 Mallard Alley","Address2":"Suite 44","City":"Fresno","State":"CA","Zip":"93726","Description":null,"SalesValue":"$1681487.92"},
{"NoOfRooms":1,"NoOfBathrooms":2,"SqFeet":6175,"Address1":"61 Clarendon Lane","Address2":"5th Floor","City":"Glendale","State":"CA","Zip":"91210","Description":null,"SalesValue":"$6559068.55"},
{"NoOfRooms":3,"NoOfBathrooms":3,"SqFeet":972,"Address1":"290 Elka Park","Address2":"20th Floor","City":"Sacramento","State":"CA","Zip":"94230","Description":null,"SalesValue":"$1930758.64"},
{"NoOfRooms":3,"NoOfBathrooms":1,"SqFeet":553,"Address1":"1770 Bashford Drive","Address2":"Room 1925","City":"San Rafael","State":"CA","Zip":"94913","Description":null,"SalesValue":"$8612385.07"},
{"NoOfRooms":1,"NoOfBathrooms":1,"SqFeet":8114,"Address1":"11 Loeprich Hill","Address2":"PO Box 13721","City":"Fresno","State":"CA","Zip":"93794","Description":null,"SalesValue":"$6766002.55"},
{"NoOfRooms":4,"NoOfBathrooms":1,"SqFeet":375,"Address1":"7 David Way","Address2":"Suite 98","City":"Los Angeles","State":"CA","Zip":"90005","Description":null,"SalesValue":"$3071880.56"},
{"NoOfRooms":5,"NoOfBathrooms":3,"SqFeet":964,"Address1":"6 Melvin Terrace","Address2":"10th Floor","City":"Brea","State":"CA","Zip":"92822","Description":null,"SalesValue":"$4680502.24"},
{"NoOfRooms":2,"NoOfBathrooms":1,"SqFeet":510,"Address1":"4248 Buhler Way","Address2":"Suite 95","City":"Sacramento","State":"CA","Zip":"95894","Description":null,"SalesValue":"$7829352.47"},
{"NoOfRooms":2,"NoOfBathrooms":2,"SqFeet":3579,"Address1":"183 Twin Pines Place","Address2":"Room 46","City":"San Jose","State":"CA","Zip":"95123","Description":null,"SalesValue":"$1427911.04"},
{"NoOfRooms":2,"NoOfBathrooms":3,"SqFeet":732,"Address1":"2068 Clove Pass","Address2":"PO Box 41373","City":"Bakersfield","State":"CA","Zip":"93399","Description":null,"SalesValue":"$121925.51"},
{"NoOfRooms":5,"NoOfBathrooms":2,"SqFeet":9240,"Address1":"575 Beilfuss Junction","Address2":"Suite 99","City":"Sacramento","State":"CA","Zip":"94263","Description":null,"SalesValue":"$2153410.03"},
{"NoOfRooms":3,"NoOfBathrooms":2,"SqFeet":9583,"Address1":"445 Shelley Court","Address2":"Room 1562","City":"Glendale","State":"CA","Zip":"91210","Description":null,"SalesValue":"$1048135.54"},
{"NoOfRooms":3,"NoOfBathrooms":3,"SqFeet":7651,"Address1":"24488 Rusk Road","Address2":"PO Box 67000","City":"Pasadena","State":"CA","Zip":"91117","Description":null,"SalesValue":"$8943339.42"},
{"NoOfRooms":3,"NoOfBathrooms":1,"SqFeet":5151,"Address1":"30 Gulseth Crossing","Address2":"20th Floor","City":"Sacramento","State":"CA","Zip":"94291","Description":null,"SalesValue":"$1857732.65"},
{"NoOfRooms":3,"NoOfBathrooms":3,"SqFeet":3649,"Address1":"9073 Dakota Trail","Address2":"PO Box 67674","City":"Berkeley","State":"CA","Zip":"94712","Description":null,"SalesValue":"$1270122.54"},
{"NoOfRooms":2,"NoOfBathrooms":2,"SqFeet":1459,"Address1":"37262 Vermont Road","Address2":"20th Floor","City":"Santa Cruz","State":"CA","Zip":"95064","Description":null,"SalesValue":"$2087503.82"},
{"NoOfRooms":3,"NoOfBathrooms":2,"SqFeet":5660,"Address1":"75 Bunting Road","Address2":"PO Box 81220","City":"San Francisco","State":"CA","Zip":"94142","Description":null,"SalesValue":"$1434548.88"},
{"NoOfRooms":2,"NoOfBathrooms":3,"SqFeet":7483,"Address1":"02 Loeprich Avenue","Address2":"PO Box 25136","City":"Escondido","State":"CA","Zip":"92030","Description":null,"SalesValue":"$8763438.60"},
{"NoOfRooms":5,"NoOfBathrooms":2,"SqFeet":1771,"Address1":"7452 Esch Parkway","Address2":"Room 1068","City":"Anaheim","State":"CA","Zip":"92805","Description":null,"SalesValue":"$5994900.29"},
{"NoOfRooms":3,"NoOfBathrooms":1,"SqFeet":6126,"Address1":"86686 Packers Trail","Address2":"Room 1029","City":"San Francisco","State":"CA","Zip":"94164","Description":null,"SalesValue":"$978481.70"},
{"NoOfRooms":5,"NoOfBathrooms":2,"SqFeet":5617,"Address1":"7 Independence Trail","Address2":"PO Box 96533","City":"San Francisco","State":"CA","Zip":"94132","Description":null,"SalesValue":"$4331014.44"},
{"NoOfRooms":5,"NoOfBathrooms":1,"SqFeet":2451,"Address1":"9740 Erie Plaza","Address2":"Apt 537","City":"Redwood City","State":"CA","Zip":"94064","Description":null,"SalesValue":"$8718174.46"},
{"NoOfRooms":3,"NoOfBathrooms":3,"SqFeet":6020,"Address1":"6360 Sugar Park","Address2":"Suite 55","City":"Long Beach","State":"CA","Zip":"90840","Description":null,"SalesValue":"$3649593.86"},
{"NoOfRooms":1,"NoOfBathrooms":1,"SqFeet":7341,"Address1":"354 Mayer Point","Address2":"Suite 45","City":"Los Angeles","State":"CA","Zip":"90025","Description":null,"SalesValue":"$6610670.85"},
{"NoOfRooms":1,"NoOfBathrooms":2,"SqFeet":8582,"Address1":"897 Hazelcrest Plaza","Address2":"19th Floor","City":"Sacramento","State":"CA","Zip":"95838","Description":null,"SalesValue":"$8760697.05"},
{"NoOfRooms":5,"NoOfBathrooms":1,"SqFeet":5015,"Address1":"624 Graedel Road","Address2":"Apt 1208","City":"Los Angeles","State":"CA","Zip":"90045","Description":null,"SalesValue":"$2180245.67"},
{"NoOfRooms":4,"NoOfBathrooms":1,"SqFeet":1475,"Address1":"74 Gateway Lane","Address2":"Room 1687","City":"Inglewood","State":"CA","Zip":"90310","Description":null,"SalesValue":"$9396635.63"},
{"NoOfRooms":3,"NoOfBathrooms":1,"SqFeet":9906,"Address1":"1313 Raven Parkway","Address2":"Suite 94","City":"Sunnyvale","State":"CA","Zip":"94089","Description":null,"SalesValue":"$3509352.78"},
{"NoOfRooms":1,"NoOfBathrooms":1,"SqFeet":3774,"Address1":"8168 Clarendon Road","Address2":"Apt 1811","City":"Los Angeles","State":"CA","Zip":"90094","Description":null,"SalesValue":"$1155816.61"},
{"NoOfRooms":5,"NoOfBathrooms":1,"SqFeet":1873,"Address1":"9 Maywood Way","Address2":"Room 1790","City":"Garden Grove","State":"CA","Zip":"92645","Description":null,"SalesValue":"$942175.22"},
{"NoOfRooms":5,"NoOfBathrooms":1,"SqFeet":5609,"Address1":"2 Esch Lane","Address2":"Room 257","City":"San Francisco","State":"CA","Zip":"94121","Description":null,"SalesValue":"$9188103.66"},
{"NoOfRooms":5,"NoOfBathrooms":3,"SqFeet":2489,"Address1":"2 Cambridge Point","Address2":"1st Floor","City":"San Francisco","State":"CA","Zip":"94154","Description":null,"SalesValue":"$3453055.88"},
{"NoOfRooms":4,"NoOfBathrooms":1,"SqFeet":2857,"Address1":"08195 Scofield Lane","Address2":"Apt 1883","City":"Brea","State":"CA","Zip":"92822","Description":null,"SalesValue":"$2836682.70"},
{"NoOfRooms":1,"NoOfBathrooms":3,"SqFeet":9587,"Address1":"112 Melvin Court","Address2":"Suite 3","City":"San Francisco","State":"CA","Zip":"94154","Description":null,"SalesValue":"$6260233.43"},
{"NoOfRooms":1,"NoOfBathrooms":3,"SqFeet":6854,"Address1":"7285 Huxley Junction","Address2":"12th Floor","City":"Santa Barbara","State":"CA","Zip":"93111","Description":null,"SalesValue":"$445776.64"},
{"NoOfRooms":5,"NoOfBathrooms":2,"SqFeet":6248,"Address1":"3 Lawn Junction","Address2":"Suite 56","City":"Los Angeles","State":"CA","Zip":"90025","Description":null,"SalesValue":"$2475394.34"},
{"NoOfRooms":5,"NoOfBathrooms":1,"SqFeet":8404,"Address1":"711 Sheridan Center","Address2":"PO Box 49961","City":"Riverside","State":"CA","Zip":"92505","Description":null,"SalesValue":"$3324292.17"},
{"NoOfRooms":2,"NoOfBathrooms":2,"SqFeet":3311,"Address1":"445 Hagan Court","Address2":"10th Floor","City":"Santa Clara","State":"CA","Zip":"95054","Description":null,"SalesValue":"$5065277.15"},
{"NoOfRooms":4,"NoOfBathrooms":3,"SqFeet":3537,"Address1":"75 Anhalt Plaza","Address2":"Room 681","City":"Whittier","State":"CA","Zip":"90610","Description":null,"SalesValue":"$9915781.30"},
{"NoOfRooms":3,"NoOfBathrooms":1,"SqFeet":1658,"Address1":"6049 Mariners Cove Way","Address2":"Suite 96","City":"Riverside","State":"CA","Zip":"92513","Description":null,"SalesValue":"$2389697.72"},
{"NoOfRooms":2,"NoOfBathrooms":3,"SqFeet":2810,"Address1":"633 Westerfield Court","Address2":"4th Floor","City":"Sacramento","State":"CA","Zip":"95894","Description":null,"SalesValue":"$7559000.62"},
{"NoOfRooms":1,"NoOfBathrooms":3,"SqFeet":5836,"Address1":"826 Londonderry Junction","Address2":"Apt 651","City":"San Francisco","State":"CA","Zip":"94159","Description":null,"SalesValue":"$1735421.61"},
{"NoOfRooms":1,"NoOfBathrooms":1,"SqFeet":5260,"Address1":"644 Veith Terrace","Address2":"Apt 1545","City":"Los Angeles","State":"CA","Zip":"90189","Description":null,"SalesValue":"$1480868.22"},
{"NoOfRooms":5,"NoOfBathrooms":3,"SqFeet":6502,"Address1":"7156 Longview Road","Address2":"Room 1777","City":"Sacramento","State":"CA","Zip":"94291","Description":null,"SalesValue":"$9408998.83"},
{"NoOfRooms":4,"NoOfBathrooms":3,"SqFeet":6933,"Address1":"698 Arizona Avenue","Address2":"Room 977","City":"San Jose","State":"CA","Zip":"95194","Description":null,"SalesValue":"$4118153.56"},
{"NoOfRooms":4,"NoOfBathrooms":1,"SqFeet":4321,"Address1":"08 Leroy Point","Address2":"Apt 965","City":"Inglewood","State":"CA","Zip":"90398","Description":null,"SalesValue":"$4980466.01"},
{"NoOfRooms":4,"NoOfBathrooms":2,"SqFeet":6893,"Address1":"34 Schmedeman Court","Address2":"Suite 42","City":"Glendale","State":"CA","Zip":"91205","Description":null,"SalesValue":"$7600188.44"},
{"NoOfRooms":2,"NoOfBathrooms":3,"SqFeet":8969,"Address1":"6225 Northwestern Circle","Address2":"Apt 1796","City":"Fresno","State":"CA","Zip":"93726","Description":null,"SalesValue":"$4534991.65"},
{"NoOfRooms":4,"NoOfBathrooms":2,"SqFeet":1078,"Address1":"986 Ridgeway Center","Address2":"Apt 711","City":"Los Angeles","State":"CA","Zip":"90094","Description":null,"SalesValue":"$4705604.85"},
{"NoOfRooms":4,"NoOfBathrooms":1,"SqFeet":6916,"Address1":"128 Muir Street","Address2":"Room 1758","City":"San Jose","State":"CA","Zip":"95194","Description":null,"SalesValue":"$7081088.39"},
{"NoOfRooms":3,"NoOfBathrooms":1,"SqFeet":5425,"Address1":"9209 Buell Pass","Address2":"Suite 15","City":"Los Angeles","State":"CA","Zip":"90094","Description":null,"SalesValue":"$5017939.81"},
{"NoOfRooms":5,"NoOfBathrooms":2,"SqFeet":3841,"Address1":"3411 Utah Street","Address2":"PO Box 86714","City":"Burbank","State":"CA","Zip":"91520","Description":null,"SalesValue":"$2603393.18"},
{"NoOfRooms":2,"NoOfBathrooms":3,"SqFeet":2955,"Address1":"213 Center Plaza","Address2":"Suite 90","City":"San Jose","State":"CA","Zip":"95113","Description":null,"SalesValue":"$5939843.04"},
{"NoOfRooms":3,"NoOfBathrooms":3,"SqFeet":1629,"Address1":"1159 Loftsgordon Lane","Address2":"Suite 51","City":"San Luis Obispo","State":"CA","Zip":"93407","Description":null,"SalesValue":"$1384534.16"},
{"NoOfRooms":5,"NoOfBathrooms":1,"SqFeet":9157,"Address1":"01 Forest Dale Way","Address2":"PO Box 53370","City":"Sacramento","State":"CA","Zip":"94257","Description":null,"SalesValue":"$6601826.93"},
{"NoOfRooms":2,"NoOfBathrooms":3,"SqFeet":4857,"Address1":"5 Main Alley","Address2":"PO Box 78284","City":"San Diego","State":"CA","Zip":"92115","Description":null,"SalesValue":"$1652419.06"},
{"NoOfRooms":5,"NoOfBathrooms":2,"SqFeet":5401,"Address1":"725 Mcbride Court","Address2":"Suite 53","City":"Stockton","State":"CA","Zip":"95298","Description":null,"SalesValue":"$7045585.71"},
{"NoOfRooms":3,"NoOfBathrooms":2,"SqFeet":1527,"Address1":"08 Ramsey Trail","Address2":"PO Box 31610","City":"Alhambra","State":"CA","Zip":"91841","Description":null,"SalesValue":"$4772795.57"},
{"NoOfRooms":2,"NoOfBathrooms":2,"SqFeet":7748,"Address1":"9 Rowland Hill","Address2":"18th Floor","City":"Inglewood","State":"CA","Zip":"90398","Description":null,"SalesValue":"$8445924.61"},
{"NoOfRooms":3,"NoOfBathrooms":2,"SqFeet":7315,"Address1":"46 6th Terrace","Address2":"Suite 91","City":"Palo Alto","State":"CA","Zip":"94302","Description":null,"SalesValue":"$3267149.27"},
{"NoOfRooms":3,"NoOfBathrooms":1,"SqFeet":1372,"Address1":"1500 Raven Alley","Address2":"4th Floor","City":"Bakersfield","State":"CA","Zip":"93399","Description":null,"SalesValue":"$1585452.50"},
{"NoOfRooms":2,"NoOfBathrooms":1,"SqFeet":7564,"Address1":"9 Stoughton Junction","Address2":"1st Floor","City":"Santa Ana","State":"CA","Zip":"92725","Description":null,"SalesValue":"$8051255.13"},
{"NoOfRooms":4,"NoOfBathrooms":3,"SqFeet":3917,"Address1":"4469 Del Sol Hill","Address2":"10th Floor","City":"Palo Alto","State":"CA","Zip":"94302","Description":null,"SalesValue":"$9320676.35"},
{"NoOfRooms":2,"NoOfBathrooms":2,"SqFeet":8841,"Address1":"9697 Killdeer Way","Address2":"13th Floor","City":"Carlsbad","State":"CA","Zip":"92013","Description":null,"SalesValue":"$2801647.60"},
{"NoOfRooms":4,"NoOfBathrooms":2,"SqFeet":1273,"Address1":"45 Maywood Terrace","Address2":"PO Box 22692","City":"Los Angeles","State":"CA","Zip":"90081","Description":null,"SalesValue":"$2590212.05"},
{"NoOfRooms":1,"NoOfBathrooms":1,"SqFeet":4203,"Address1":"500 East Place","Address2":"Apt 1969","City":"Long Beach","State":"CA","Zip":"90847","Description":null,"SalesValue":"$7862125.84"},
{"NoOfRooms":4,"NoOfBathrooms":3,"SqFeet":6639,"Address1":"89 Monterey Circle","Address2":"3rd Floor","City":"Sacramento","State":"CA","Zip":"95823","Description":null,"SalesValue":"$7111039.10"},
{"NoOfRooms":3,"NoOfBathrooms":3,"SqFeet":4299,"Address1":"67 Summerview Way","Address2":"1st Floor","City":"Anaheim","State":"CA","Zip":"92825","Description":null,"SalesValue":"$1950389.57"},
{"NoOfRooms":2,"NoOfBathrooms":3,"SqFeet":3861,"Address1":"9436 Moose Crossing","Address2":"PO Box 20144","City":"Long Beach","State":"CA","Zip":"90840","Description":null,"SalesValue":"$6581315.57"},
{"NoOfRooms":5,"NoOfBathrooms":3,"SqFeet":8683,"Address1":"3 Rowland Point","Address2":"Apt 200","City":"Whittier","State":"CA","Zip":"90610","Description":null,"SalesValue":"$6128984.70"},
{"NoOfRooms":3,"NoOfBathrooms":1,"SqFeet":8188,"Address1":"02247 Spaight Terrace","Address2":"PO Box 17640","City":"Riverside","State":"CA","Zip":"92505","Description":null,"SalesValue":"$6920368.39"},
{"NoOfRooms":5,"NoOfBathrooms":2,"SqFeet":2596,"Address1":"46508 Westport Drive","Address2":"Apt 1672","City":"Los Angeles","State":"CA","Zip":"90076","Description":null,"SalesValue":"$4382833.14"},
{"NoOfRooms":1,"NoOfBathrooms":1,"SqFeet":5884,"Address1":"28752 Springview Park","Address2":"16th Floor","City":"Santa Ana","State":"CA","Zip":"92725","Description":null,"SalesValue":"$3007939.91"},
{"NoOfRooms":4,"NoOfBathrooms":3,"SqFeet":6815,"Address1":"00 Annamark Terrace","Address2":"Room 1216","City":"Orange","State":"CA","Zip":"92668","Description":null,"SalesValue":"$6973640.56"},
{"NoOfRooms":2,"NoOfBathrooms":2,"SqFeet":6685,"Address1":"99 Hallows Way","Address2":"PO Box 46324","City":"Riverside","State":"CA","Zip":"92505","Description":null,"SalesValue":"$5327645.66"},
{"NoOfRooms":4,"NoOfBathrooms":3,"SqFeet":5316,"Address1":"3332 Independence Avenue","Address2":"PO Box 67068","City":"San Francisco","State":"CA","Zip":"94177","Description":null,"SalesValue":"$9105812.98"},
{"NoOfRooms":5,"NoOfBathrooms":1,"SqFeet":6344,"Address1":"72 Maple Wood Drive","Address2":"Room 940","City":"Ventura","State":"CA","Zip":"93005","Description":null,"SalesValue":"$4098563.32"},
{"NoOfRooms":5,"NoOfBathrooms":2,"SqFeet":1574,"Address1":"47677 Paget Alley","Address2":"Suite 82","City":"Long Beach","State":"CA","Zip":"90847","Description":null,"SalesValue":"$3765666.67"},
{"NoOfRooms":1,"NoOfBathrooms":1,"SqFeet":312,"Address1":"652 Buena Vista Hill","Address2":"PO Box 3790","City":"Sacramento","State":"CA","Zip":"94237","Description":null,"SalesValue":"$7273714.32"},
{"NoOfRooms":4,"NoOfBathrooms":1,"SqFeet":6908,"Address1":"61 Swallow Circle","Address2":"PO Box 13741","City":"Bakersfield","State":"CA","Zip":"93381","Description":null,"SalesValue":"$5557552.96"},
{"NoOfRooms":4,"NoOfBathrooms":2,"SqFeet":8296,"Address1":"6 Buhler Plaza","Address2":"Suite 3","City":"Hayward","State":"CA","Zip":"94544","Description":null,"SalesValue":"$193865.18"},
{"NoOfRooms":4,"NoOfBathrooms":1,"SqFeet":2562,"Address1":"961 Union Circle","Address2":"Room 505","City":"San Francisco","State":"CA","Zip":"94159","Description":null,"SalesValue":"$6601063.31"},
{"NoOfRooms":1,"NoOfBathrooms":3,"SqFeet":9459,"Address1":"015 Ramsey Parkway","Address2":"PO Box 76525","City":"Ventura","State":"CA","Zip":"93005","Description":null,"SalesValue":"$1669591.96"},
{"NoOfRooms":3,"NoOfBathrooms":2,"SqFeet":8784,"Address1":"9 Towne Drive","Address2":"Room 1489","City":"Inglewood","State":"CA","Zip":"90305","Description":null,"SalesValue":"$728892.89"},
{"NoOfRooms":4,"NoOfBathrooms":2,"SqFeet":7681,"Address1":"07355 Crowley Plaza","Address2":"Suite 31","City":"Los Angeles","State":"CA","Zip":"90071","Description":null,"SalesValue":"$5445967.47"},
{"NoOfRooms":3,"NoOfBathrooms":1,"SqFeet":3342,"Address1":"23 Acker Lane","Address2":"PO Box 63186","City":"Fullerton","State":"CA","Zip":"92640","Description":null,"SalesValue":"$4639893.04"},
{"NoOfRooms":5,"NoOfBathrooms":2,"SqFeet":7972,"Address1":"0988 Fuller Street","Address2":"PO Box 15212","City":"Whittier","State":"CA","Zip":"90605","Description":null,"SalesValue":"$6701837.64"},
{"NoOfRooms":1,"NoOfBathrooms":1,"SqFeet":4932,"Address1":"9 Kipling Crossing","Address2":"Apt 1063","City":"Northridge","State":"CA","Zip":"91328","Description":null,"SalesValue":"$6317075.88"},
{"NoOfRooms":3,"NoOfBathrooms":1,"SqFeet":869,"Address1":"61724 Larry Junction","Address2":"10th Floor","City":"Sacramento","State":"CA","Zip":"95852","Description":null,"SalesValue":"$2281158.44"},
{"NoOfRooms":5,"NoOfBathrooms":1,"SqFeet":8726,"Address1":"07 Westend Trail","Address2":"7th Floor","City":"San Francisco","State":"CA","Zip":"94121","Description":null,"SalesValue":"$6992859.19"},
{"NoOfRooms":2,"NoOfBathrooms":2,"SqFeet":6360,"Address1":"5 Graceland Point","Address2":"Apt 1202","City":"San Diego","State":"CA","Zip":"92165","Description":null,"SalesValue":"$4892592.54"},
{"NoOfRooms":2,"NoOfBathrooms":2,"SqFeet":929,"Address1":"63310 Schurz Drive","Address2":"19th Floor","City":"Long Beach","State":"CA","Zip":"90805","Description":null,"SalesValue":"$467885.31"},
{"NoOfRooms":4,"NoOfBathrooms":3,"SqFeet":7554,"Address1":"629 Village Green Parkway","Address2":"Room 2000","City":"San Bernardino","State":"CA","Zip":"92415","Description":null,"SalesValue":"$9757043.51"},
{"NoOfRooms":2,"NoOfBathrooms":3,"SqFeet":9359,"Address1":"1 Claremont Trail","Address2":"Room 292","City":"Bakersfield","State":"CA","Zip":"93305","Description":null,"SalesValue":"$1460263.28"},
{"NoOfRooms":1,"NoOfBathrooms":2,"SqFeet":6841,"Address1":"9155 Algoma Way","Address2":"Suite 5","City":"Fresno","State":"CA","Zip":"93786","Description":null,"SalesValue":"$9026400.81"},
{"NoOfRooms":2,"NoOfBathrooms":1,"SqFeet":5058,"Address1":"3 Tennyson Trail","Address2":"3rd Floor","City":"San Francisco","State":"CA","Zip":"94132","Description":null,"SalesValue":"$5816237.61"},
{"NoOfRooms":2,"NoOfBathrooms":2,"SqFeet":2960,"Address1":"0819 Macpherson Crossing","Address2":"12th Floor","City":"Van Nuys","State":"CA","Zip":"91499","Description":null,"SalesValue":"$8386514.21"},
{"NoOfRooms":2,"NoOfBathrooms":1,"SqFeet":8945,"Address1":"1 Elgar Drive","Address2":"12th Floor","City":"Pasadena","State":"CA","Zip":"91131","Description":null,"SalesValue":"$5344719.67"},
{"NoOfRooms":3,"NoOfBathrooms":2,"SqFeet":5300,"Address1":"73 Spenser Pass","Address2":"10th Floor","City":"San Francisco","State":"CA","Zip":"94110","Description":null,"SalesValue":"$9693244.58"},
{"NoOfRooms":3,"NoOfBathrooms":2,"SqFeet":1027,"Address1":"6 Lake View Center","Address2":"PO Box 94164","City":"San Rafael","State":"CA","Zip":"94913","Description":null,"SalesValue":"$7526840.76"},
{"NoOfRooms":3,"NoOfBathrooms":3,"SqFeet":3228,"Address1":"7399 Ridge Oak Road","Address2":"Room 1577","City":"Long Beach","State":"CA","Zip":"90805","Description":null,"SalesValue":"$5682186.64"},
{"NoOfRooms":1,"NoOfBathrooms":3,"SqFeet":8894,"Address1":"4 West Plaza","Address2":"Suite 7","City":"Los Angeles","State":"CA","Zip":"90094","Description":null,"SalesValue":"$1747268.17"},
{"NoOfRooms":1,"NoOfBathrooms":2,"SqFeet":6026,"Address1":"6088 Ridge Oak Trail","Address2":"Suite 55","City":"Van Nuys","State":"CA","Zip":"91406","Description":null,"SalesValue":"$350747.99"},
{"NoOfRooms":2,"NoOfBathrooms":2,"SqFeet":314,"Address1":"3 Di Loreto Alley","Address2":"Apt 210","City":"San Bernardino","State":"CA","Zip":"92424","Description":null,"SalesValue":"$4446881.48"},
{"NoOfRooms":5,"NoOfBathrooms":3,"SqFeet":6938,"Address1":"9839 Almo Avenue","Address2":"PO Box 40662","City":"San Jose","State":"CA","Zip":"95194","Description":null,"SalesValue":"$2127558.33"},
{"NoOfRooms":3,"NoOfBathrooms":1,"SqFeet":8592,"Address1":"28338 Hallows Avenue","Address2":"Apt 450","City":"Sacramento","State":"CA","Zip":"95833","Description":null,"SalesValue":"$2255598.26"},
{"NoOfRooms":3,"NoOfBathrooms":1,"SqFeet":9816,"Address1":"4155 Green Ridge Road","Address2":"Suite 42","City":"San Diego","State":"CA","Zip":"92115","Description":null,"SalesValue":"$6892692.72"},
{"NoOfRooms":4,"NoOfBathrooms":3,"SqFeet":9285,"Address1":"7 Bartillon Hill","Address2":"Suite 59","City":"Los Angeles","State":"CA","Zip":"90015","Description":null,"SalesValue":"$6491888.89"},
{"NoOfRooms":2,"NoOfBathrooms":3,"SqFeet":205,"Address1":"66321 Parkside Avenue","Address2":"16th Floor","City":"Los Angeles","State":"CA","Zip":"90030","Description":null,"SalesValue":"$2180522.52"},
{"NoOfRooms":5,"NoOfBathrooms":1,"SqFeet":2375,"Address1":"4436 Warrior Avenue","Address2":"Room 530","City":"Newport Beach","State":"CA","Zip":"92662","Description":null,"SalesValue":"$8158784.34"},
{"NoOfRooms":2,"NoOfBathrooms":2,"SqFeet":731,"Address1":"22500 Brown Lane","Address2":"Suite 85","City":"Sacramento","State":"CA","Zip":"95894","Description":null,"SalesValue":"$7529541.57"},
{"NoOfRooms":5,"NoOfBathrooms":2,"SqFeet":2681,"Address1":"1 Fulton Avenue","Address2":"PO Box 49313","City":"Corona","State":"CA","Zip":"92878","Description":null,"SalesValue":"$4847029.35"},
{"NoOfRooms":2,"NoOfBathrooms":2,"SqFeet":2220,"Address1":"1 Hansons Trail","Address2":"Suite 23","City":"Inglewood","State":"CA","Zip":"90398","Description":null,"SalesValue":"$7763931.90"},
{"NoOfRooms":3,"NoOfBathrooms":1,"SqFeet":6320,"Address1":"3349 Summer Ridge Street","Address2":"PO Box 61523","City":"Pasadena","State":"CA","Zip":"91117","Description":null,"SalesValue":"$5030973.32"},
{"NoOfRooms":3,"NoOfBathrooms":1,"SqFeet":3166,"Address1":"6783 Stuart Hill","Address2":"Apt 1443","City":"Sacramento","State":"CA","Zip":"95813","Description":null,"SalesValue":"$641962.16"},
{"NoOfRooms":5,"NoOfBathrooms":1,"SqFeet":4285,"Address1":"43787 Kropf Park","Address2":"Suite 15","City":"Huntington Beach","State":"CA","Zip":"92648","Description":null,"SalesValue":"$2876185.63"},
{"NoOfRooms":5,"NoOfBathrooms":1,"SqFeet":7526,"Address1":"49 Golden Leaf Crossing","Address2":"Room 422","City":"Pasadena","State":"CA","Zip":"91199","Description":null,"SalesValue":"$5181264.84"},
{"NoOfRooms":2,"NoOfBathrooms":2,"SqFeet":6944,"Address1":"23240 Morningstar Alley","Address2":"Room 147","City":"Santa Cruz","State":"CA","Zip":"95064","Description":null,"SalesValue":"$9916750.86"},
{"NoOfRooms":1,"NoOfBathrooms":2,"SqFeet":6317,"Address1":"420 Forest Run Street","Address2":"Room 680","City":"San Bernardino","State":"CA","Zip":"92424","Description":null,"SalesValue":"$3176888.28"},
{"NoOfRooms":1,"NoOfBathrooms":1,"SqFeet":6152,"Address1":"97 Hagan Pass","Address2":"Room 1103","City":"Riverside","State":"CA","Zip":"92505","Description":null,"SalesValue":"$1592487.24"},
{"NoOfRooms":1,"NoOfBathrooms":2,"SqFeet":8956,"Address1":"44 Tennessee Junction","Address2":"Suite 52","City":"Mountain View","State":"CA","Zip":"94042","Description":null,"SalesValue":"$8267978.62"},
{"NoOfRooms":2,"NoOfBathrooms":1,"SqFeet":778,"Address1":"1095 Fuller Trail","Address2":"2nd Floor","City":"San Diego","State":"CA","Zip":"92153","Description":null,"SalesValue":"$4233055.10"},
{"NoOfRooms":5,"NoOfBathrooms":3,"SqFeet":7864,"Address1":"27 Vermont Alley","Address2":"Suite 27","City":"Garden Grove","State":"CA","Zip":"92645","Description":null,"SalesValue":"$6679071.42"},
{"NoOfRooms":3,"NoOfBathrooms":3,"SqFeet":5731,"Address1":"91115 Sauthoff Junction","Address2":"4th Floor","City":"Corona","State":"CA","Zip":"92883","Description":null,"SalesValue":"$1083531.43"},
{"NoOfRooms":2,"NoOfBathrooms":2,"SqFeet":6501,"Address1":"460 Blue Bill Park Way","Address2":"Apt 1988","City":"San Diego","State":"CA","Zip":"92170","Description":null,"SalesValue":"$1611023.53"},
{"NoOfRooms":3,"NoOfBathrooms":3,"SqFeet":4323,"Address1":"80 Springs Circle","Address2":"5th Floor","City":"Bakersfield","State":"CA","Zip":"93399","Description":null,"SalesValue":"$3229099.30"},
{"NoOfRooms":2,"NoOfBathrooms":2,"SqFeet":6925,"Address1":"57 Welch Alley","Address2":"8th Floor","City":"Riverside","State":"CA","Zip":"92505","Description":null,"SalesValue":"$7071102.66"},
{"NoOfRooms":3,"NoOfBathrooms":3,"SqFeet":4911,"Address1":"3 Hooker Trail","Address2":"Room 1899","City":"Oakland","State":"CA","Zip":"94616","Description":null,"SalesValue":"$1512959.48"},
{"NoOfRooms":2,"NoOfBathrooms":1,"SqFeet":1494,"Address1":"3 Holy Cross Drive","Address2":"Room 1890","City":"Pasadena","State":"CA","Zip":"91125","Description":null,"SalesValue":"$1372097.94"},
{"NoOfRooms":1,"NoOfBathrooms":1,"SqFeet":4515,"Address1":"43 Bartelt Parkway","Address2":"Suite 7","City":"San Jose","State":"CA","Zip":"95133","Description":null,"SalesValue":"$2219858.15"},
{"NoOfRooms":2,"NoOfBathrooms":2,"SqFeet":5055,"Address1":"03 Judy Place","Address2":"Apt 233","City":"Garden Grove","State":"CA","Zip":"92844","Description":null,"SalesValue":"$558955.68"},
{"NoOfRooms":3,"NoOfBathrooms":1,"SqFeet":7571,"Address1":"0472 Schlimgen Alley","Address2":"Suite 33","City":"Torrance","State":"CA","Zip":"90510","Description":null,"SalesValue":"$9617066.72"},
{"NoOfRooms":1,"NoOfBathrooms":2,"SqFeet":2651,"Address1":"10107 Anzinger Place","Address2":"Apt 788","City":"San Bernardino","State":"CA","Zip":"92424","Description":null,"SalesValue":"$3986784.12"},
{"NoOfRooms":5,"NoOfBathrooms":1,"SqFeet":5759,"Address1":"6316 Vera Circle","Address2":"Apt 519","City":"Palmdale","State":"CA","Zip":"93591","Description":null,"SalesValue":"$1904739.25"},
{"NoOfRooms":5,"NoOfBathrooms":2,"SqFeet":4264,"Address1":"5617 Butternut Park","Address2":"18th Floor","City":"San Jose","State":"CA","Zip":"95173","Description":null,"SalesValue":"$9334138.41"},
{"NoOfRooms":3,"NoOfBathrooms":2,"SqFeet":8498,"Address1":"24395 Sheridan Circle","Address2":"Room 700","City":"San Francisco","State":"CA","Zip":"94177","Description":null,"SalesValue":"$6488178.14"},
{"NoOfRooms":5,"NoOfBathrooms":2,"SqFeet":6939,"Address1":"23 Holmberg Place","Address2":"20th Floor","City":"Carlsbad","State":"CA","Zip":"92013","Description":null,"SalesValue":"$9116848.91"},
{"NoOfRooms":5,"NoOfBathrooms":3,"SqFeet":7011,"Address1":"74416 Delaware Pass","Address2":"PO Box 4343","City":"Santa Barbara","State":"CA","Zip":"93106","Description":null,"SalesValue":"$4365636.95"},
{"NoOfRooms":5,"NoOfBathrooms":3,"SqFeet":9035,"Address1":"87137 Mayer Park","Address2":"Suite 89","City":"San Diego","State":"CA","Zip":"92153","Description":null,"SalesValue":"$8999440.62"},
{"NoOfRooms":2,"NoOfBathrooms":3,"SqFeet":6668,"Address1":"29 Oriole Lane","Address2":"Suite 22","City":"Fresno","State":"CA","Zip":"93778","Description":null,"SalesValue":"$5382090.30"},
{"NoOfRooms":2,"NoOfBathrooms":3,"SqFeet":4669,"Address1":"5 Parkside Point","Address2":"Suite 4","City":"Los Angeles","State":"CA","Zip":"90005","Description":null,"SalesValue":"$6128938.33"},
{"NoOfRooms":3,"NoOfBathrooms":3,"SqFeet":8637,"Address1":"5821 North Road","Address2":"Room 213","City":"San Diego","State":"CA","Zip":"92105","Description":null,"SalesValue":"$3298226.47"},
{"NoOfRooms":5,"NoOfBathrooms":1,"SqFeet":3031,"Address1":"593 Upham Terrace","Address2":"Apt 1113","City":"Oakland","State":"CA","Zip":"94660","Description":null,"SalesValue":"$8376633.51"},
{"NoOfRooms":4,"NoOfBathrooms":3,"SqFeet":7772,"Address1":"48 Derek Alley","Address2":"Suite 56","City":"San Jose","State":"CA","Zip":"95155","Description":null,"SalesValue":"$844511.49"},
{"NoOfRooms":4,"NoOfBathrooms":2,"SqFeet":6429,"Address1":"81 Lien Alley","Address2":"PO Box 34352","City":"Torrance","State":"CA","Zip":"90505","Description":null,"SalesValue":"$5091786.56"},
{"NoOfRooms":5,"NoOfBathrooms":1,"SqFeet":4736,"Address1":"2598 Sachtjen Street","Address2":"Apt 1306","City":"Fullerton","State":"CA","Zip":"92835","Description":null,"SalesValue":"$3117823.46"},
{"NoOfRooms":2,"NoOfBathrooms":2,"SqFeet":502,"Address1":"07617 Miller Center","Address2":"Suite 76","City":"Sacramento","State":"CA","Zip":"94245","Description":null,"SalesValue":"$3571147.57"},
{"NoOfRooms":3,"NoOfBathrooms":2,"SqFeet":7547,"Address1":"9559 Goodland Street","Address2":"Apt 1943","City":"Sacramento","State":"CA","Zip":"94230","Description":null,"SalesValue":"$7888214.98"},
{"NoOfRooms":1,"NoOfBathrooms":2,"SqFeet":3778,"Address1":"58 La Follette Court","Address2":"Room 1779","City":"Alhambra","State":"CA","Zip":"91841","Description":null,"SalesValue":"$1580040.84"},
{"NoOfRooms":4,"NoOfBathrooms":1,"SqFeet":267,"Address1":"4906 Graceland Street","Address2":"Suite 78","City":"Los Angeles","State":"CA","Zip":"90035","Description":null,"SalesValue":"$1967010.91"},
{"NoOfRooms":1,"NoOfBathrooms":3,"SqFeet":924,"Address1":"2971 Cordelia Center","Address2":"Room 39","City":"Sacramento","State":"CA","Zip":"94250","Description":null,"SalesValue":"$1161843.91"},
{"NoOfRooms":3,"NoOfBathrooms":1,"SqFeet":3605,"Address1":"2891 Onsgard Parkway","Address2":"Suite 29","City":"Moreno Valley","State":"CA","Zip":"92555","Description":null,"SalesValue":"$3292710.38"},
{"NoOfRooms":2,"NoOfBathrooms":2,"SqFeet":5666,"Address1":"96 Katie Hill","Address2":"5th Floor","City":"Fresno","State":"CA","Zip":"93778","Description":null,"SalesValue":"$4082055.72"},
{"NoOfRooms":2,"NoOfBathrooms":3,"SqFeet":7204,"Address1":"85 Towne Plaza","Address2":"Apt 1832","City":"Fresno","State":"CA","Zip":"93721","Description":null,"SalesValue":"$1703995.01"},
{"NoOfRooms":3,"NoOfBathrooms":2,"SqFeet":5996,"Address1":"2 Vidon Crossing","Address2":"Apt 749","City":"Concord","State":"CA","Zip":"94522","Description":null,"SalesValue":"$3393093.84"},
{"NoOfRooms":4,"NoOfBathrooms":3,"SqFeet":1080,"Address1":"3843 Westridge Place","Address2":"Suite 45","City":"Sacramento","State":"CA","Zip":"94291","Description":null,"SalesValue":"$1245690.08"},
{"NoOfRooms":2,"NoOfBathrooms":1,"SqFeet":6727,"Address1":"6 Grasskamp Street","Address2":"3rd Floor","City":"Simi Valley","State":"CA","Zip":"93094","Description":null,"SalesValue":"$9581371.64"},
{"NoOfRooms":5,"NoOfBathrooms":3,"SqFeet":5683,"Address1":"4 Sauthoff Point","Address2":"Suite 17","City":"San Diego","State":"CA","Zip":"92176","Description":null,"SalesValue":"$3856303.84"},
{"NoOfRooms":3,"NoOfBathrooms":2,"SqFeet":8795,"Address1":"6 Lake View Road","Address2":"19th Floor","City":"Orange","State":"CA","Zip":"92867","Description":null,"SalesValue":"$9186428.53"},
{"NoOfRooms":5,"NoOfBathrooms":2,"SqFeet":3828,"Address1":"4 Nevada Court","Address2":"Room 807","City":"Stockton","State":"CA","Zip":"95298","Description":null,"SalesValue":"$3458443.00"},
{"NoOfRooms":1,"NoOfBathrooms":2,"SqFeet":6111,"Address1":"06 Shasta Pass","Address2":"PO Box 18703","City":"San Francisco","State":"CA","Zip":"94116","Description":null,"SalesValue":"$2530716.34"},
{"NoOfRooms":1,"NoOfBathrooms":3,"SqFeet":7316,"Address1":"312 Maywood Parkway","Address2":"Suite 16","City":"Long Beach","State":"CA","Zip":"90805","Description":null,"SalesValue":"$2149863.23"},
{"NoOfRooms":5,"NoOfBathrooms":1,"SqFeet":1587,"Address1":"14 Shasta Park","Address2":"16th Floor","City":"Sunnyvale","State":"CA","Zip":"94089","Description":null,"SalesValue":"$6467829.04"},
{"NoOfRooms":4,"NoOfBathrooms":1,"SqFeet":986,"Address1":"88 Messerschmidt Drive","Address2":"6th Floor","City":"Fresno","State":"CA","Zip":"93740","Description":null,"SalesValue":"$7437091.92"},
{"NoOfRooms":5,"NoOfBathrooms":2,"SqFeet":2801,"Address1":"664 Fair Oaks Way","Address2":"Suite 66","City":"Santa Barbara","State":"CA","Zip":"93111","Description":null,"SalesValue":"$8434023.04"},
{"NoOfRooms":4,"NoOfBathrooms":2,"SqFeet":2218,"Address1":"38335 North Point","Address2":"Room 1783","City":"San Diego","State":"CA","Zip":"92121","Description":null,"SalesValue":"$8369808.21"},
{"NoOfRooms":5,"NoOfBathrooms":2,"SqFeet":6994,"Address1":"922 Fisk Road","Address2":"Apt 1599","City":"Los Angeles","State":"CA","Zip":"90065","Description":null,"SalesValue":"$2070659.05"},
{"NoOfRooms":5,"NoOfBathrooms":3,"SqFeet":1067,"Address1":"9 Hollow Ridge Circle","Address2":"Apt 1404","City":"Sacramento","State":"CA","Zip":"95828","Description":null,"SalesValue":"$7756498.57"},
{"NoOfRooms":5,"NoOfBathrooms":2,"SqFeet":9625,"Address1":"698 Sachs Parkway","Address2":"PO Box 2138","City":"Fresno","State":"CA","Zip":"93709","Description":null,"SalesValue":"$6902108.56"},
{"NoOfRooms":5,"NoOfBathrooms":1,"SqFeet":5255,"Address1":"4069 Lakewood Gardens Terrace","Address2":"PO Box 6775","City":"San Jose","State":"CA","Zip":"95128","Description":null,"SalesValue":"$9139801.84"},
{"NoOfRooms":5,"NoOfBathrooms":1,"SqFeet":7450,"Address1":"2 Waywood Pass","Address2":"PO Box 57652","City":"Santa Barbara","State":"CA","Zip":"93150","Description":null,"SalesValue":"$1223049.30"},
{"NoOfRooms":5,"NoOfBathrooms":2,"SqFeet":4641,"Address1":"745 Maywood Place","Address2":"Suite 76","City":"Burbank","State":"CA","Zip":"91520","Description":null,"SalesValue":"$8333165.70"},
{"NoOfRooms":5,"NoOfBathrooms":3,"SqFeet":1953,"Address1":"508 Magdeline Drive","Address2":"Room 1070","City":"Stockton","State":"CA","Zip":"95205","Description":null,"SalesValue":"$8157217.01"},
{"NoOfRooms":4,"NoOfBathrooms":2,"SqFeet":1400,"Address1":"68905 Brown Way","Address2":"14th Floor","City":"Santa Barbara","State":"CA","Zip":"93106","Description":null,"SalesValue":"$5168732.37"},
{"NoOfRooms":4,"NoOfBathrooms":3,"SqFeet":3056,"Address1":"19189 Grover Court","Address2":"PO Box 94651","City":"Long Beach","State":"CA","Zip":"90805","Description":null,"SalesValue":"$3813989.91"},
{"NoOfRooms":1,"NoOfBathrooms":1,"SqFeet":9540,"Address1":"38188 Waubesa Court","Address2":"9th Floor","City":"Sacramento","State":"CA","Zip":"94286","Description":null,"SalesValue":"$7197383.82"},
{"NoOfRooms":4,"NoOfBathrooms":2,"SqFeet":3848,"Address1":"406 High Crossing Center","Address2":"2nd Floor","City":"Chula Vista","State":"CA","Zip":"91913","Description":null,"SalesValue":"$2633468.52"},
{"NoOfRooms":4,"NoOfBathrooms":3,"SqFeet":7016,"Address1":"527 Rowland Point","Address2":"Apt 701","City":"San Bernardino","State":"CA","Zip":"92405","Description":null,"SalesValue":"$4748344.84"},
{"NoOfRooms":3,"NoOfBathrooms":2,"SqFeet":4546,"Address1":"8 Starling Road","Address2":"Apt 1778","City":"Oakland","State":"CA","Zip":"94605","Description":null,"SalesValue":"$5859765.61"},
{"NoOfRooms":4,"NoOfBathrooms":3,"SqFeet":4731,"Address1":"22 Carioca Road","Address2":"Suite 19","City":"Fullerton","State":"CA","Zip":"92640","Description":null,"SalesValue":"$8271442.37"},
{"NoOfRooms":2,"NoOfBathrooms":2,"SqFeet":4691,"Address1":"223 Mayer Place","Address2":"PO Box 7304","City":"Bakersfield","State":"CA","Zip":"93386","Description":null,"SalesValue":"$4758079.65"},
{"NoOfRooms":1,"NoOfBathrooms":2,"SqFeet":6992,"Address1":"2 Lakewood Place","Address2":"Room 1538","City":"Orange","State":"CA","Zip":"92862","Description":null,"SalesValue":"$1694866.31"},
{"NoOfRooms":1,"NoOfBathrooms":3,"SqFeet":5171,"Address1":"747 Center Lane","Address2":"Suite 7","City":"Bakersfield","State":"CA","Zip":"93386","Description":null,"SalesValue":"$418015.66"},
{"NoOfRooms":1,"NoOfBathrooms":3,"SqFeet":7744,"Address1":"22 Vahlen Way","Address2":"19th Floor","City":"Oakland","State":"CA","Zip":"94616","Description":null,"SalesValue":"$3561671.60"},
{"NoOfRooms":4,"NoOfBathrooms":1,"SqFeet":725,"Address1":"0424 Hanson Crossing","Address2":"PO Box 14980","City":"Sacramento","State":"CA","Zip":"95852","Description":null,"SalesValue":"$5036185.43"},
{"NoOfRooms":5,"NoOfBathrooms":1,"SqFeet":891,"Address1":"14444 Barnett Avenue","Address2":"PO Box 56665","City":"San Diego","State":"CA","Zip":"92186","Description":null,"SalesValue":"$9009773.31"},
{"NoOfRooms":5,"NoOfBathrooms":3,"SqFeet":8454,"Address1":"9 Eastlawn Plaza","Address2":"Apt 1034","City":"Los Angeles","State":"CA","Zip":"90081","Description":null,"SalesValue":"$9951047.95"},
{"NoOfRooms":1,"NoOfBathrooms":2,"SqFeet":6431,"Address1":"947 Bellgrove Place","Address2":"Apt 24","City":"Stockton","State":"CA","Zip":"95205","Description":null,"SalesValue":"$5517573.56"},
{"NoOfRooms":5,"NoOfBathrooms":3,"SqFeet":2344,"Address1":"28820 Sunbrook Alley","Address2":"5th Floor","City":"Bakersfield","State":"CA","Zip":"93381","Description":null,"SalesValue":"$7903372.24"},
{"NoOfRooms":5,"NoOfBathrooms":1,"SqFeet":7246,"Address1":"7 Calypso Circle","Address2":"Apt 838","City":"Mountain View","State":"CA","Zip":"94042","Description":null,"SalesValue":"$2561942.49"},
{"NoOfRooms":4,"NoOfBathrooms":3,"SqFeet":5736,"Address1":"3218 Acker Park","Address2":"Apt 1947","City":"Bakersfield","State":"CA","Zip":"93386","Description":null,"SalesValue":"$625479.63"},
{"NoOfRooms":2,"NoOfBathrooms":3,"SqFeet":9762,"Address1":"26259 Delladonna Point","Address2":"PO Box 44847","City":"Santa Monica","State":"CA","Zip":"90410","Description":null,"SalesValue":"$192266.54"},
{"NoOfRooms":3,"NoOfBathrooms":2,"SqFeet":9271,"Address1":"2 Petterle Crossing","Address2":"Suite 94","City":"San Bernardino","State":"CA","Zip":"92424","Description":null,"SalesValue":"$8992637.56"},
{"NoOfRooms":5,"NoOfBathrooms":2,"SqFeet":1423,"Address1":"50 Kennedy Alley","Address2":"20th Floor","City":"Long Beach","State":"CA","Zip":"90840","Description":null,"SalesValue":"$3708970.50"},
{"NoOfRooms":1,"NoOfBathrooms":3,"SqFeet":3839,"Address1":"92277 Manley Trail","Address2":"Apt 1972","City":"San Diego","State":"CA","Zip":"92110","Description":null,"SalesValue":"$5314034.58"},
{"NoOfRooms":4,"NoOfBathrooms":3,"SqFeet":1388,"Address1":"2780 Sommers Place","Address2":"Room 52","City":"Fullerton","State":"CA","Zip":"92835","Description":null,"SalesValue":"$8013158.17"},
{"NoOfRooms":2,"NoOfBathrooms":3,"SqFeet":5081,"Address1":"9 American Ash Parkway","Address2":"Room 37","City":"San Diego","State":"CA","Zip":"92170","Description":null,"SalesValue":"$1242522.33"},
{"NoOfRooms":3,"NoOfBathrooms":2,"SqFeet":4386,"Address1":"58932 Merchant Circle","Address2":"PO Box 80333","City":"Irvine","State":"CA","Zip":"92612","Description":null,"SalesValue":"$9780719.41"},
{"NoOfRooms":3,"NoOfBathrooms":3,"SqFeet":2868,"Address1":"13879 Schlimgen Point","Address2":"Suite 75","City":"Stockton","State":"CA","Zip":"95298","Description":null,"SalesValue":"$2912196.54"},
{"NoOfRooms":2,"NoOfBathrooms":2,"SqFeet":6775,"Address1":"914 Forest Dale Parkway","Address2":"PO Box 15684","City":"San Francisco","State":"CA","Zip":"94159","Description":null,"SalesValue":"$7452312.88"},
{"NoOfRooms":4,"NoOfBathrooms":1,"SqFeet":3549,"Address1":"32053 Prairieview Street","Address2":"Suite 48","City":"Carlsbad","State":"CA","Zip":"92013","Description":null,"SalesValue":"$5416416.93"},
{"NoOfRooms":5,"NoOfBathrooms":2,"SqFeet":4731,"Address1":"42 Bowman Plaza","Address2":"Apt 558","City":"Fresno","State":"CA","Zip":"93715","Description":null,"SalesValue":"$9487458.65"},
{"NoOfRooms":3,"NoOfBathrooms":3,"SqFeet":5343,"Address1":"75103 Mandrake Circle","Address2":"PO Box 86422","City":"Glendale","State":"CA","Zip":"91205","Description":null,"SalesValue":"$4436167.04"},
{"NoOfRooms":3,"NoOfBathrooms":3,"SqFeet":4817,"Address1":"3929 Brentwood Terrace","Address2":"PO Box 55266","City":"Stockton","State":"CA","Zip":"95205","Description":null,"SalesValue":"$7609611.30"},
{"NoOfRooms":3,"NoOfBathrooms":1,"SqFeet":2412,"Address1":"60034 Loomis Crossing","Address2":"PO Box 19414","City":"Pasadena","State":"CA","Zip":"91131","Description":null,"SalesValue":"$9517435.17"},
{"NoOfRooms":4,"NoOfBathrooms":1,"SqFeet":1585,"Address1":"01 Westend Pass","Address2":"Room 1846","City":"Lancaster","State":"CA","Zip":"93584","Description":null,"SalesValue":"$9648602.99"},
{"NoOfRooms":3,"NoOfBathrooms":1,"SqFeet":1101,"Address1":"9 Hauk Court","Address2":"Apt 567","City":"Riverside","State":"CA","Zip":"92513","Description":null,"SalesValue":"$109347.97"},
{"NoOfRooms":4,"NoOfBathrooms":3,"SqFeet":3217,"Address1":"677 Debra Lane","Address2":"Suite 49","City":"Los Angeles","State":"CA","Zip":"90071","Description":null,"SalesValue":"$2605709.11"},
{"NoOfRooms":1,"NoOfBathrooms":2,"SqFeet":6802,"Address1":"98879 Northland Place","Address2":"Room 1193","City":"Irvine","State":"CA","Zip":"92710","Description":null,"SalesValue":"$640273.69"},
{"NoOfRooms":1,"NoOfBathrooms":1,"SqFeet":5788,"Address1":"399 Talmadge Alley","Address2":"Apt 1909","City":"Fresno","State":"CA","Zip":"93778","Description":null,"SalesValue":"$3851223.67"},
{"NoOfRooms":4,"NoOfBathrooms":3,"SqFeet":2577,"Address1":"5 Declaration Place","Address2":"Room 802","City":"San Francisco","State":"CA","Zip":"94169","Description":null,"SalesValue":"$295926.66"},
{"NoOfRooms":4,"NoOfBathrooms":1,"SqFeet":5718,"Address1":"7336 Glacier Hill Pass","Address2":"Room 695","City":"Sacramento","State":"CA","Zip":"94207","Description":null,"SalesValue":"$8342393.48"},
{"NoOfRooms":4,"NoOfBathrooms":3,"SqFeet":9871,"Address1":"6267 6th Terrace","Address2":"Apt 975","City":"Van Nuys","State":"CA","Zip":"91406","Description":null,"SalesValue":"$7764718.29"},
{"NoOfRooms":3,"NoOfBathrooms":3,"SqFeet":1914,"Address1":"62093 Waubesa Avenue","Address2":"PO Box 76940","City":"Sacramento","State":"CA","Zip":"95818","Description":null,"SalesValue":"$5353307.35"},
{"NoOfRooms":1,"NoOfBathrooms":3,"SqFeet":9594,"Address1":"62 Hauk Street","Address2":"Apt 1096","City":"Burbank","State":"CA","Zip":"91520","Description":null,"SalesValue":"$2196168.20"},
{"NoOfRooms":1,"NoOfBathrooms":2,"SqFeet":5096,"Address1":"9450 Coleman Junction","Address2":"Apt 469","City":"Torrance","State":"CA","Zip":"90510","Description":null,"SalesValue":"$6605414.67"},
{"NoOfRooms":2,"NoOfBathrooms":1,"SqFeet":3110,"Address1":"2 Forest Place","Address2":"PO Box 41971","City":"Irvine","State":"CA","Zip":"92612","Description":null,"SalesValue":"$222076.25"},
{"NoOfRooms":2,"NoOfBathrooms":2,"SqFeet":977,"Address1":"63992 Pankratz Plaza","Address2":"Suite 27","City":"Irvine","State":"CA","Zip":"92710","Description":null,"SalesValue":"$6357178.58"},
{"NoOfRooms":5,"NoOfBathrooms":3,"SqFeet":1679,"Address1":"9261 Northridge Parkway","Address2":"Room 1720","City":"San Jose","State":"CA","Zip":"95160","Description":null,"SalesValue":"$7755942.04"},
{"NoOfRooms":4,"NoOfBathrooms":1,"SqFeet":4231,"Address1":"03 Loftsgordon Plaza","Address2":"PO Box 96399","City":"Oxnard","State":"CA","Zip":"93034","Description":null,"SalesValue":"$5994568.99"},
{"NoOfRooms":1,"NoOfBathrooms":1,"SqFeet":7825,"Address1":"284 Farwell Court","Address2":"Room 790","City":"Los Angeles","State":"CA","Zip":"90071","Description":null,"SalesValue":"$7460641.59"},
{"NoOfRooms":1,"NoOfBathrooms":1,"SqFeet":4833,"Address1":"9276 Muir Pass","Address2":"Suite 23","City":"San Diego","State":"CA","Zip":"92121","Description":null,"SalesValue":"$7960983.19"},
{"NoOfRooms":5,"NoOfBathrooms":3,"SqFeet":5474,"Address1":"774 Texas Terrace","Address2":"Room 1969","City":"Sacramento","State":"CA","Zip":"94245","Description":null,"SalesValue":"$8232553.98"},
{"NoOfRooms":4,"NoOfBathrooms":2,"SqFeet":6883,"Address1":"0 Oxford Park","Address2":"Room 799","City":"Los Angeles","State":"CA","Zip":"90076","Description":null,"SalesValue":"$2992905.65"},
{"NoOfRooms":4,"NoOfBathrooms":3,"SqFeet":7422,"Address1":"5 Colorado Park","Address2":"Room 858","City":"Los Angeles","State":"CA","Zip":"90094","Description":null,"SalesValue":"$5201934.02"},
{"NoOfRooms":5,"NoOfBathrooms":1,"SqFeet":8977,"Address1":"523 Stone Corner Center","Address2":"9th Floor","City":"Pasadena","State":"CA","Zip":"91199","Description":null,"SalesValue":"$6779148.43"},
{"NoOfRooms":3,"NoOfBathrooms":3,"SqFeet":7270,"Address1":"274 West Court","Address2":"3rd Floor","City":"North Hollywood","State":"CA","Zip":"91616","Description":null,"SalesValue":"$4314947.42"},
{"NoOfRooms":2,"NoOfBathrooms":2,"SqFeet":323,"Address1":"8854 Fuller Crossing","Address2":"Room 452","City":"Pasadena","State":"CA","Zip":"91186","Description":null,"SalesValue":"$2837338.62"},
{"NoOfRooms":1,"NoOfBathrooms":3,"SqFeet":4476,"Address1":"04 Rigney Avenue","Address2":"Room 1465","City":"Palo Alto","State":"CA","Zip":"94302","Description":null,"SalesValue":"$9671240.43"},
{"NoOfRooms":4,"NoOfBathrooms":2,"SqFeet":1237,"Address1":"58497 Chinook Lane","Address2":"Suite 47","City":"San Francisco","State":"CA","Zip":"94137","Description":null,"SalesValue":"$2637762.52"},
{"NoOfRooms":1,"NoOfBathrooms":1,"SqFeet":7056,"Address1":"0431 Mosinee Hill","Address2":"Suite 23","City":"Los Angeles","State":"CA","Zip":"90030","Description":null,"SalesValue":"$829745.06"},
{"NoOfRooms":2,"NoOfBathrooms":1,"SqFeet":6524,"Address1":"6 Northridge Avenue","Address2":"Apt 964","City":"Modesto","State":"CA","Zip":"95397","Description":null,"SalesValue":"$8906502.75"},
{"NoOfRooms":4,"NoOfBathrooms":3,"SqFeet":9095,"Address1":"064 1st Hill","Address2":"3rd Floor","City":"Glendale","State":"CA","Zip":"91210","Description":null,"SalesValue":"$8741347.80"},
{"NoOfRooms":1,"NoOfBathrooms":1,"SqFeet":2344,"Address1":"8387 Aberg Terrace","Address2":"Suite 65","City":"Modesto","State":"CA","Zip":"95354","Description":null,"SalesValue":"$5705782.61"},
{"NoOfRooms":1,"NoOfBathrooms":2,"SqFeet":7009,"Address1":"043 Reindahl Trail","Address2":"Suite 94","City":"Anaheim","State":"CA","Zip":"92825","Description":null,"SalesValue":"$6015475.13"},
{"NoOfRooms":1,"NoOfBathrooms":1,"SqFeet":7060,"Address1":"39 Stang Point","Address2":"PO Box 73423","City":"San Diego","State":"CA","Zip":"92121","Description":null,"SalesValue":"$5378135.37"},
{"NoOfRooms":2,"NoOfBathrooms":1,"SqFeet":5208,"Address1":"2230 Steensland Circle","Address2":"Suite 93","City":"Modesto","State":"CA","Zip":"95354","Description":null,"SalesValue":"$3381774.70"},
{"NoOfRooms":2,"NoOfBathrooms":3,"SqFeet":8397,"Address1":"87550 Forest Place","Address2":"Suite 12","City":"San Francisco","State":"CA","Zip":"94154","Description":null,"SalesValue":"$7950157.79"},
{"NoOfRooms":2,"NoOfBathrooms":2,"SqFeet":1372,"Address1":"669 Anhalt Trail","Address2":"PO Box 83301","City":"Palmdale","State":"CA","Zip":"93591","Description":null,"SalesValue":"$5682291.70"},
{"NoOfRooms":5,"NoOfBathrooms":2,"SqFeet":4533,"Address1":"12 Lerdahl Lane","Address2":"Suite 35","City":"Los Angeles","State":"CA","Zip":"90101","Description":null,"SalesValue":"$1073283.07"},
{"NoOfRooms":3,"NoOfBathrooms":3,"SqFeet":7613,"Address1":"3713 Burning Wood Circle","Address2":"20th Floor","City":"Oakland","State":"CA","Zip":"94616","Description":null,"SalesValue":"$5857866.48"},
{"NoOfRooms":1,"NoOfBathrooms":2,"SqFeet":2149,"Address1":"6 Corscot Parkway","Address2":"PO Box 36494","City":"Visalia","State":"CA","Zip":"93291","Description":null,"SalesValue":"$7236258.58"},
{"NoOfRooms":5,"NoOfBathrooms":2,"SqFeet":5492,"Address1":"34127 Corry Crossing","Address2":"Room 1762","City":"San Jose","State":"CA","Zip":"95155","Description":null,"SalesValue":"$4778985.00"},
{"NoOfRooms":2,"NoOfBathrooms":1,"SqFeet":8491,"Address1":"9 John Wall Street","Address2":"Suite 64","City":"Fresno","State":"CA","Zip":"93762","Description":null,"SalesValue":"$4994489.50"},
{"NoOfRooms":4,"NoOfBathrooms":3,"SqFeet":3225,"Address1":"11 Talmadge Point","Address2":"Apt 1882","City":"Inglewood","State":"CA","Zip":"90310","Description":null,"SalesValue":"$4771713.16"},
{"NoOfRooms":5,"NoOfBathrooms":1,"SqFeet":4711,"Address1":"5003 Donald Way","Address2":"6th Floor","City":"Alhambra","State":"CA","Zip":"91841","Description":null,"SalesValue":"$6081107.25"},
{"NoOfRooms":3,"NoOfBathrooms":3,"SqFeet":3125,"Address1":"67815 Riverside Circle","Address2":"PO Box 31262","City":"Bakersfield","State":"CA","Zip":"93305","Description":null,"SalesValue":"$5822080.12"},
{"NoOfRooms":4,"NoOfBathrooms":2,"SqFeet":1568,"Address1":"2037 Division Park","Address2":"Suite 5","City":"Santa Ana","State":"CA","Zip":"92705","Description":null,"SalesValue":"$1699674.30"},
{"NoOfRooms":1,"NoOfBathrooms":1,"SqFeet":764,"Address1":"704 Lawn Hill","Address2":"Room 862","City":"Berkeley","State":"CA","Zip":"94712","Description":null,"SalesValue":"$4204538.18"},
{"NoOfRooms":3,"NoOfBathrooms":2,"SqFeet":1001,"Address1":"4939 Barnett Junction","Address2":"PO Box 38853","City":"Whittier","State":"CA","Zip":"90605","Description":null,"SalesValue":"$3649768.73"}]