[{"NoOfRooms":3,"NoOfBathrooms":2,"SqFeet":9500,"Address1":"94 Logan Plaza","Address2":"Suite 26","City":"Northridge","State":"CA","Zip":"91328","Description":null,"SalesValue":"$1308006.39"},
{"NoOfRooms":4,"NoOfBathrooms":4,"SqFeet":3279,"Address1":"115 Jenifer Avenue","Address2":"18th Floor","City":"Torrance","State":"CA","Zip":"90510","Description":null,"SalesValue":"$7733324.51"},
{"NoOfRooms":3,"NoOfBathrooms":3,"SqFeet":3961,"Address1":"78726 Farragut Center","Address2":"Apt 1776","City":"Fresno","State":"CA","Zip":"93721","Description":null,"SalesValue":"$3950142.21"},
{"NoOfRooms":2,"NoOfBathrooms":2,"SqFeet":7964,"Address1":"1 Manufacturers Alley","Address2":"Apt 1595","City":"San Francisco","State":"CA","Zip":"94126","Description":null,"SalesValue":"$8748882.51"},
{"NoOfRooms":1,"NoOfBathrooms":2,"SqFeet":6342,"Address1":"99700 Continental Center","Address2":"PO Box 29597","City":"Los Angeles","State":"CA","Zip":"90060","Description":null,"SalesValue":"$2576838.86"},
{"NoOfRooms":5,"NoOfBathrooms":5,"SqFeet":5960,"Address1":"3 Rieder Terrace","Address2":"Room 209","City":"San Jose","State":"CA","Zip":"95194","Description":null,"SalesValue":"$7158909.15"},
{"NoOfRooms":2,"NoOfBathrooms":3,"SqFeet":9587,"Address1":"57 Red Cloud Point","Address2":"Apt 362","City":"Sunnyvale","State":"CA","Zip":"94089","Description":null,"SalesValue":"$2858096.48"},
{"NoOfRooms":5,"NoOfBathrooms":3,"SqFeet":8542,"Address1":"16824 Northwestern Road","Address2":"16th Floor","City":"Bakersfield","State":"CA","Zip":"93305","Description":null,"SalesValue":"$2571621.28"},
{"NoOfRooms":1,"NoOfBathrooms":2,"SqFeet":2292,"Address1":"35876 Del Sol Point","Address2":"PO Box 21544","City":"Oakland","State":"CA","Zip":"94616","Description":null,"SalesValue":"$7836425.76"},
{"NoOfRooms":2,"NoOfBathrooms":4,"SqFeet":2727,"Address1":"85 American Ash Drive","Address2":"Suite 59","City":"Sacramento","State":"CA","Zip":"94207","Description":null,"SalesValue":"$3755142.37"},
{"NoOfRooms":5,"NoOfBathrooms":1,"SqFeet":4780,"Address1":"55 Hudson Junction","Address2":"Apt 426","City":"San Rafael","State":"CA","Zip":"94913","Description":null,"SalesValue":"$2479231.78"},
{"NoOfRooms":5,"NoOfBathrooms":4,"SqFeet":4501,"Address1":"8 Main Park","Address2":"Apt 757","City":"Riverside","State":"CA","Zip":"92505","Description":null,"SalesValue":"$4798287.68"},
{"NoOfRooms":3,"NoOfBathrooms":4,"SqFeet":5611,"Address1":"5 Roxbury Trail","Address2":"Room 1320","City":"San Diego","State":"CA","Zip":"92127","Description":null,"SalesValue":"$7404922.41"},
{"NoOfRooms":4,"NoOfBathrooms":2,"SqFeet":1304,"Address1":"4 Holmberg Park","Address2":"Apt 1807","City":"Fresno","State":"CA","Zip":"93721","Description":null,"SalesValue":"$3701435.77"},
{"NoOfRooms":4,"NoOfBathrooms":1,"SqFeet":8612,"Address1":"03706 Summer Ridge Avenue","Address2":"15th Floor","City":"Irvine","State":"CA","Zip":"92612","Description":null,"SalesValue":"$1883596.11"},
{"NoOfRooms":4,"NoOfBathrooms":5,"SqFeet":7859,"Address1":"158 Westridge Parkway","Address2":"18th Floor","City":"San Jose","State":"CA","Zip":"95128","Description":null,"SalesValue":"$575384.57"},
{"NoOfRooms":5,"NoOfBathrooms":4,"SqFeet":2105,"Address1":"788 Troy Alley","Address2":"PO Box 14020","City":"Riverside","State":"CA","Zip":"92513","Description":null,"SalesValue":"$2298983.67"},
{"NoOfRooms":2,"NoOfBathrooms":3,"SqFeet":6101,"Address1":"6 Shasta Junction","Address2":"Room 1274","City":"Sacramento","State":"CA","Zip":"94297","Description":null,"SalesValue":"$6452854.15"},
{"NoOfRooms":5,"NoOfBathrooms":5,"SqFeet":4191,"Address1":"606 Sachs Alley","Address2":"Room 505","City":"Fresno","State":"CA","Zip":"93762","Description":null,"SalesValue":"$1864200.28"},
{"NoOfRooms":5,"NoOfBathrooms":1,"SqFeet":2538,"Address1":"08 Glendale Junction","Address2":"17th Floor","City":"Northridge","State":"CA","Zip":"91328","Description":null,"SalesValue":"$2861683.51"},
{"NoOfRooms":4,"NoOfBathrooms":4,"SqFeet":1711,"Address1":"562 Superior Place","Address2":"PO Box 64931","City":"Modesto","State":"CA","Zip":"95397","Description":null,"SalesValue":"$2350867.21"},
{"NoOfRooms":2,"NoOfBathrooms":4,"SqFeet":6506,"Address1":"7568 3rd Terrace","Address2":"4th Floor","City":"Stockton","State":"CA","Zip":"95205","Description":null,"SalesValue":"$3082581.69"},
{"NoOfRooms":1,"NoOfBathrooms":3,"SqFeet":2012,"Address1":"962 Twin Pines Center","Address2":"20th Floor","City":"Moreno Valley","State":"CA","Zip":"92555","Description":null,"SalesValue":"$9932336.53"},
{"NoOfRooms":5,"NoOfBathrooms":2,"SqFeet":8438,"Address1":"40452 Portage Junction","Address2":"Suite 58","City":"Irvine","State":"CA","Zip":"92612","Description":null,"SalesValue":"$1508215.78"},
{"NoOfRooms":2,"NoOfBathrooms":5,"SqFeet":6676,"Address1":"9296 Union Drive","Address2":"Apt 1373","City":"San Bernardino","State":"CA","Zip":"92424","Description":null,"SalesValue":"$6948435.29"},
{"NoOfRooms":4,"NoOfBathrooms":5,"SqFeet":8919,"Address1":"2 Kedzie Pass","Address2":"Room 295","City":"Los Angeles","State":"CA","Zip":"90020","Description":null,"SalesValue":"$3086661.48"},
{"NoOfRooms":4,"NoOfBathrooms":4,"SqFeet":1634,"Address1":"60178 Scott Hill","Address2":"Suite 59","City":"Ventura","State":"CA","Zip":"93005","Description":null,"SalesValue":"$1592996.35"},
{"NoOfRooms":3,"NoOfBathrooms":2,"SqFeet":4268,"Address1":"8048 Laurel Point","Address2":"Room 450","City":"Santa Cruz","State":"CA","Zip":"95064","Description":null,"SalesValue":"$8568703.54"},
{"NoOfRooms":4,"NoOfBathrooms":1,"SqFeet":6343,"Address1":"212 Kings Road","Address2":"Apt 1806","City":"San Francisco","State":"CA","Zip":"94147","Description":null,"SalesValue":"$4579544.36"},
{"NoOfRooms":2,"NoOfBathrooms":5,"SqFeet":6431,"Address1":"43 Victoria Street","Address2":"1st Floor","City":"Glendale","State":"CA","Zip":"91205","Description":null,"SalesValue":"$2278784.85"},
{"NoOfRooms":5,"NoOfBathrooms":4,"SqFeet":9861,"Address1":"294 Sommers Court","Address2":"Room 554","City":"San Diego","State":"CA","Zip":"92121","Description":null,"SalesValue":"$7891848.50"},
{"NoOfRooms":5,"NoOfBathrooms":2,"SqFeet":8548,"Address1":"39 Erie Parkway","Address2":"PO Box 64982","City":"San Francisco","State":"CA","Zip":"94154","Description":null,"SalesValue":"$8943588.38"},
{"NoOfRooms":5,"NoOfBathrooms":1,"SqFeet":6309,"Address1":"5673 Holy Cross Terrace","Address2":"Suite 31","City":"Sacramento","State":"CA","Zip":"94257","Description":null,"SalesValue":"$7205964.89"},
{"NoOfRooms":5,"NoOfBathrooms":4,"SqFeet":4718,"Address1":"51473 1st Alley","Address2":"Room 318","City":"Sacramento","State":"CA","Zip":"94263","Description":null,"SalesValue":"$4881096.16"},
{"NoOfRooms":5,"NoOfBathrooms":4,"SqFeet":2143,"Address1":"7 Northview Plaza","Address2":"Suite 65","City":"Oakland","State":"CA","Zip":"94627","Description":null,"SalesValue":"$5684716.18"},
{"NoOfRooms":3,"NoOfBathrooms":5,"SqFeet":686,"Address1":"542 Bunker Hill Drive","Address2":"Suite 73","City":"San Bernardino","State":"CA","Zip":"92410","Description":null,"SalesValue":"$3414679.42"},
{"NoOfRooms":3,"NoOfBathrooms":1,"SqFeet":7097,"Address1":"2 Melody Parkway","Address2":"Suite 64","City":"Santa Ana","State":"CA","Zip":"92705","Description":null,"SalesValue":"$6573816.40"},
{"NoOfRooms":4,"NoOfBathrooms":1,"SqFeet":7101,"Address1":"30 Barnett Junction","Address2":"Apt 1424","City":"Oxnard","State":"CA","Zip":"93034","Description":null,"SalesValue":"$6361022.66"},
{"NoOfRooms":2,"NoOfBathrooms":5,"SqFeet":8849,"Address1":"8 Moose Lane","Address2":"3rd Floor","City":"Anaheim","State":"CA","Zip":"92812","Description":null,"SalesValue":"$9421205.16"},
{"NoOfRooms":5,"NoOfBathrooms":4,"SqFeet":6718,"Address1":"58 Sachtjen Street","Address2":"Apt 1873","City":"Los Angeles","State":"CA","Zip":"90055","Description":null,"SalesValue":"$5147794.12"},
{"NoOfRooms":3,"NoOfBathrooms":2,"SqFeet":9596,"Address1":"92462 Comanche Road","Address2":"Suite 77","City":"Sacramento","State":"CA","Zip":"94280","Description":null,"SalesValue":"$9016534.56"},
{"NoOfRooms":3,"NoOfBathrooms":3,"SqFeet":4497,"Address1":"7 Riverside Trail","Address2":"Room 1883","City":"San Francisco","State":"CA","Zip":"94164","Description":null,"SalesValue":"$7717401.87"},
{"NoOfRooms":2,"NoOfBathrooms":1,"SqFeet":1267,"Address1":"7249 Golf Course Lane","Address2":"Room 1768","City":"San Francisco","State":"CA","Zip":"94159","Description":null,"SalesValue":"$3221089.79"},
{"NoOfRooms":1,"NoOfBathrooms":3,"SqFeet":4636,"Address1":"270 Memorial Pass","Address2":"Room 786","City":"Fresno","State":"CA","Zip":"93778","Description":null,"SalesValue":"$6310885.25"},
{"NoOfRooms":5,"NoOfBathrooms":5,"SqFeet":3769,"Address1":"10 Almo Drive","Address2":"Suite 26","City":"Sacramento","State":"CA","Zip":"94230","Description":null,"SalesValue":"$2418221.43"},
{"NoOfRooms":2,"NoOfBathrooms":1,"SqFeet":9918,"Address1":"9602 Sloan Circle","Address2":"PO Box 61913","City":"Los Angeles","State":"CA","Zip":"90030","Description":null,"SalesValue":"$1710608.90"},
{"NoOfRooms":5,"NoOfBathrooms":5,"SqFeet":9592,"Address1":"5 Hazelcrest Court","Address2":"PO Box 63499","City":"Los Angeles","State":"CA","Zip":"90015","Description":null,"SalesValue":"$6688084.03"},
{"NoOfRooms":3,"NoOfBathrooms":5,"SqFeet":8837,"Address1":"478 Spaight Junction","Address2":"19th Floor","City":"San Diego","State":"CA","Zip":"92137","Description":null,"SalesValue":"$7564648.51"},
{"NoOfRooms":1,"NoOfBathrooms":5,"SqFeet":6522,"Address1":"4 Blue Bill Park Point","Address2":"Room 1489","City":"San Diego","State":"CA","Zip":"92186","Description":null,"SalesValue":"$2734428.10"},
{"NoOfRooms":3,"NoOfBathrooms":5,"SqFeet":553,"Address1":"79519 Melody Pass","Address2":"5th Floor","City":"Escondido","State":"CA","Zip":"92030","Description":null,"SalesValue":"$5746858.20"},
{"NoOfRooms":4,"NoOfBathrooms":4,"SqFeet":2715,"Address1":"02271 Waywood Drive","Address2":"Apt 567","City":"Santa Rosa","State":"CA","Zip":"95405","Description":null,"SalesValue":"$3047813.35"},
{"NoOfRooms":5,"NoOfBathrooms":4,"SqFeet":487,"Address1":"376 Summit Way","Address2":"Apt 1570","City":"San Jose","State":"CA","Zip":"95133","Description":null,"SalesValue":"$7015238.89"},
{"NoOfRooms":5,"NoOfBathrooms":1,"SqFeet":8788,"Address1":"7165 Fairview Street","Address2":"Apt 101","City":"Fullerton","State":"CA","Zip":"92640","Description":null,"SalesValue":"$6591003.55"},
{"NoOfRooms":3,"NoOfBathrooms":1,"SqFeet":1099,"Address1":"7674 Bobwhite Junction","Address2":"Room 787","City":"San Francisco","State":"CA","Zip":"94116","Description":null,"SalesValue":"$3227645.67"},
{"NoOfRooms":2,"NoOfBathrooms":4,"SqFeet":5041,"Address1":"466 Kings Street","Address2":"Room 1561","City":"San Luis Obispo","State":"CA","Zip":"93407","Description":null,"SalesValue":"$7990150.63"},
{"NoOfRooms":3,"NoOfBathrooms":3,"SqFeet":7088,"Address1":"9 Steensland Way","Address2":"15th Floor","City":"San Diego","State":"CA","Zip":"92132","Description":null,"SalesValue":"$8070248.04"},
{"NoOfRooms":3,"NoOfBathrooms":2,"SqFeet":5226,"Address1":"53046 Farragut Circle","Address2":"PO Box 97969","City":"Los Angeles","State":"CA","Zip":"90071","Description":null,"SalesValue":"$8362320.51"},
{"NoOfRooms":1,"NoOfBathrooms":3,"SqFeet":4220,"Address1":"8749 Spenser Way","Address2":"Room 407","City":"Pasadena","State":"CA","Zip":"91103","Description":null,"SalesValue":"$5049151.02"},
{"NoOfRooms":2,"NoOfBathrooms":5,"SqFeet":3635,"Address1":"62 Stang Avenue","Address2":"18th Floor","City":"Garden Grove","State":"CA","Zip":"92844","Description":null,"SalesValue":"$3261991.46"},
{"NoOfRooms":5,"NoOfBathrooms":3,"SqFeet":1979,"Address1":"3483 Montana Pass","Address2":"16th Floor","City":"San Jose","State":"CA","Zip":"95133","Description":null,"SalesValue":"$3130160.21"},
{"NoOfRooms":4,"NoOfBathrooms":5,"SqFeet":2506,"Address1":"26084 Towne Pass","Address2":"9th Floor","City":"Corona","State":"CA","Zip":"92883","Description":null,"SalesValue":"$5706151.78"},
{"NoOfRooms":3,"NoOfBathrooms":4,"SqFeet":2905,"Address1":"6859 Corben Terrace","Address2":"PO Box 28458","City":"Fullerton","State":"CA","Zip":"92835","Description":null,"SalesValue":"$8434321.49"},
{"NoOfRooms":4,"NoOfBathrooms":5,"SqFeet":3531,"Address1":"1368 7th Pass","Address2":"Apt 1255","City":"Santa Clara","State":"CA","Zip":"95054","Description":null,"SalesValue":"$1281310.76"},
{"NoOfRooms":3,"NoOfBathrooms":3,"SqFeet":1787,"Address1":"88 Lakeland Avenue","Address2":"11th Floor","City":"San Francisco","State":"CA","Zip":"94105","Description":null,"SalesValue":"$3004231.49"},
{"NoOfRooms":2,"NoOfBathrooms":5,"SqFeet":1192,"Address1":"355 Schiller Parkway","Address2":"PO Box 70537","City":"San Francisco","State":"CA","Zip":"94121","Description":null,"SalesValue":"$9594953.53"},
{"NoOfRooms":1,"NoOfBathrooms":4,"SqFeet":2565,"Address1":"7485 Washington Center","Address2":"Suite 44","City":"Oakland","State":"CA","Zip":"94622","Description":null,"SalesValue":"$9085208.67"},
{"NoOfRooms":2,"NoOfBathrooms":2,"SqFeet":1168,"Address1":"7105 Bluestem Park","Address2":"PO Box 72669","City":"San Jose","State":"CA","Zip":"95150","Description":null,"SalesValue":"$6669133.89"},
{"NoOfRooms":5,"NoOfBathrooms":1,"SqFeet":120,"Address1":"9 Hollow Ridge Alley","Address2":"Apt 1488","City":"San Diego","State":"CA","Zip":"92137","Description":null,"SalesValue":"$2739742.17"},
{"NoOfRooms":2,"NoOfBathrooms":4,"SqFeet":8354,"Address1":"7 Dahle Terrace","Address2":"Apt 825","City":"San Diego","State":"CA","Zip":"92132","Description":null,"SalesValue":"$1721080.67"},
{"NoOfRooms":4,"NoOfBathrooms":1,"SqFeet":9202,"Address1":"0 Arrowood Drive","Address2":"Suite 62","City":"Fresno","State":"CA","Zip":"93721","Description":null,"SalesValue":"$3645128.12"},
{"NoOfRooms":3,"NoOfBathrooms":1,"SqFeet":6097,"Address1":"9 Quincy Alley","Address2":"PO Box 58818","City":"Fresno","State":"CA","Zip":"93726","Description":null,"SalesValue":"$3602480.47"},
{"NoOfRooms":1,"NoOfBathrooms":3,"SqFeet":7750,"Address1":"818 Almo Circle","Address2":"Room 1692","City":"Pasadena","State":"CA","Zip":"91103","Description":null,"SalesValue":"$3844241.63"},
{"NoOfRooms":1,"NoOfBathrooms":3,"SqFeet":478,"Address1":"27509 John Wall Place","Address2":"Apt 577","City":"Sacramento","State":"CA","Zip":"94297","Description":null,"SalesValue":"$4741283.00"},
{"NoOfRooms":3,"NoOfBathrooms":3,"SqFeet":9767,"Address1":"69213 Delladonna Drive","Address2":"4th Floor","City":"Pasadena","State":"CA","Zip":"91125","Description":null,"SalesValue":"$5961427.54"},
{"NoOfRooms":4,"NoOfBathrooms":4,"SqFeet":4081,"Address1":"186 Eggendart Plaza","Address2":"18th Floor","City":"San Diego","State":"CA","Zip":"92132","Description":null,"SalesValue":"$7014357.04"},
{"NoOfRooms":1,"NoOfBathrooms":2,"SqFeet":7719,"Address1":"7 Dunning Drive","Address2":"Suite 9","City":"Torrance","State":"CA","Zip":"90510","Description":null,"SalesValue":"$2843579.48"},
{"NoOfRooms":5,"NoOfBathrooms":2,"SqFeet":426,"Address1":"5062 Susan Avenue","Address2":"Room 765","City":"Los Angeles","State":"CA","Zip":"90081","Description":null,"SalesValue":"$4747871.20"},
{"NoOfRooms":1,"NoOfBathrooms":2,"SqFeet":381,"Address1":"5 Fisk Park","Address2":"Suite 11","City":"Van Nuys","State":"CA","Zip":"91406","Description":null,"SalesValue":"$4618885.83"},
{"NoOfRooms":2,"NoOfBathrooms":3,"SqFeet":6914,"Address1":"6068 Tennyson Parkway","Address2":"15th Floor","City":"Fresno","State":"CA","Zip":"93740","Description":null,"SalesValue":"$5680426.76"},
{"NoOfRooms":2,"NoOfBathrooms":2,"SqFeet":2495,"Address1":"179 Sunbrook Way","Address2":"PO Box 51257","City":"Los Angeles","State":"CA","Zip":"90045","Description":null,"SalesValue":"$1412786.66"},
{"NoOfRooms":5,"NoOfBathrooms":5,"SqFeet":4387,"Address1":"492 Tennyson Terrace","Address2":"Room 72","City":"Fresno","State":"CA","Zip":"93762","Description":null,"SalesValue":"$4447723.61"},
{"NoOfRooms":5,"NoOfBathrooms":4,"SqFeet":6469,"Address1":"1367 Dwight Court","Address2":"19th Floor","City":"Los Angeles","State":"CA","Zip":"90015","Description":null,"SalesValue":"$6660200.79"},
{"NoOfRooms":4,"NoOfBathrooms":3,"SqFeet":3997,"Address1":"69535 Leroy Circle","Address2":"Apt 396","City":"Fresno","State":"CA","Zip":"93773","Description":null,"SalesValue":"$9117221.27"},
{"NoOfRooms":4,"NoOfBathrooms":2,"SqFeet":8762,"Address1":"4 Dunning Alley","Address2":"Suite 61","City":"Torrance","State":"CA","Zip":"90505","Description":null,"SalesValue":"$8538430.98"},
{"NoOfRooms":4,"NoOfBathrooms":1,"SqFeet":5270,"Address1":"705 Ridgeview Road","Address2":"Room 1486","City":"Bakersfield","State":"CA","Zip":"93381","Description":null,"SalesValue":"$9150322.63"},
{"NoOfRooms":3,"NoOfBathrooms":3,"SqFeet":642,"Address1":"2368 Westridge Trail","Address2":"16th Floor","City":"Orange","State":"CA","Zip":"92862","Description":null,"SalesValue":"$7862770.18"},
{"NoOfRooms":4,"NoOfBathrooms":1,"SqFeet":484,"Address1":"3 Nancy Court","Address2":"PO Box 61444","City":"San Diego","State":"CA","Zip":"92115","Description":null,"SalesValue":"$8675582.75"},
{"NoOfRooms":5,"NoOfBathrooms":5,"SqFeet":5246,"Address1":"112 Washington Point","Address2":"12th Floor","City":"Berkeley","State":"CA","Zip":"94705","Description":null,"SalesValue":"$1297013.08"},
{"NoOfRooms":5,"NoOfBathrooms":1,"SqFeet":6173,"Address1":"9 Corry Drive","Address2":"1st Floor","City":"Orange","State":"CA","Zip":"92862","Description":null,"SalesValue":"$6787576.40"},
{"NoOfRooms":1,"NoOfBathrooms":5,"SqFeet":9686,"Address1":"05 Esker Parkway","Address2":"Apt 765","City":"Lancaster","State":"CA","Zip":"93584","Description":null,"SalesValue":"$701041.52"},
{"NoOfRooms":5,"NoOfBathrooms":5,"SqFeet":8707,"Address1":"09 Russell Center","Address2":"Room 1131","City":"San Bernardino","State":"CA","Zip":"92410","Description":null,"SalesValue":"$1072411.45"},
{"NoOfRooms":4,"NoOfBathrooms":2,"SqFeet":1278,"Address1":"88533 Truax Crossing","Address2":"Suite 46","City":"Orange","State":"CA","Zip":"92668","Description":null,"SalesValue":"$2304098.44"},
{"NoOfRooms":1,"NoOfBathrooms":3,"SqFeet":1133,"Address1":"4 Sachtjen Junction","Address2":"Room 392","City":"Riverside","State":"CA","Zip":"92505","Description":null,"SalesValue":"$8735352.45"},
{"NoOfRooms":5,"NoOfBathrooms":2,"SqFeet":3423,"Address1":"78 Killdeer Hill","Address2":"18th Floor","City":"Sacramento","State":"CA","Zip":"95894","Description":null,"SalesValue":"$4314586.16"},
{"NoOfRooms":1,"NoOfBathrooms":2,"SqFeet":8033,"Address1":"9 Schurz Avenue","Address2":"Room 1109","City":"Pasadena","State":"CA","Zip":"91186","Description":null,"SalesValue":"$4007290.17"},
{"NoOfRooms":3,"NoOfBathrooms":4,"SqFeet":4454,"Address1":"3 Annamark Trail","Address2":"Suite 25","City":"San Bernardino","State":"CA","Zip":"92410","Description":null,"SalesValue":"$8253789.54"},
{"NoOfRooms":3,"NoOfBathrooms":2,"SqFeet":9735,"Address1":"2090 Talmadge Street","Address2":"Suite 96","City":"Chula Vista","State":"CA","Zip":"91913","Description":null,"SalesValue":"$606842.70"},
{"NoOfRooms":5,"NoOfBathrooms":3,"SqFeet":1024,"Address1":"1341 Dovetail Drive","Address2":"14th Floor","City":"Bakersfield","State":"CA","Zip":"93305","Description":null,"SalesValue":"$8910325.85"},
{"NoOfRooms":4,"NoOfBathrooms":2,"SqFeet":5566,"Address1":"7591 Forster Point","Address2":"Room 1476","City":"San Diego","State":"CA","Zip":"92176","Description":null,"SalesValue":"$3922968.19"},
{"NoOfRooms":5,"NoOfBathrooms":4,"SqFeet":9923,"Address1":"27034 Melby Plaza","Address2":"PO Box 75747","City":"San Rafael","State":"CA","Zip":"94913","Description":null,"SalesValue":"$8793220.33"},
{"NoOfRooms":4,"NoOfBathrooms":4,"SqFeet":8785,"Address1":"3 Myrtle Crossing","Address2":"Suite 39","City":"Los Angeles","State":"CA","Zip":"90076","Description":null,"SalesValue":"$5363595.00"},
{"NoOfRooms":4,"NoOfBathrooms":4,"SqFeet":8022,"Address1":"8 Waubesa Junction","Address2":"PO Box 7906","City":"San Diego","State":"CA","Zip":"92196","Description":null,"SalesValue":"$3822528.86"},
{"NoOfRooms":2,"NoOfBathrooms":3,"SqFeet":4038,"Address1":"8 Bunting Circle","Address2":"Apt 1894","City":"Sacramento","State":"CA","Zip":"94280","Description":null,"SalesValue":"$956560.06"},
{"NoOfRooms":5,"NoOfBathrooms":1,"SqFeet":8684,"Address1":"7 Nobel Court","Address2":"Apt 1316","City":"San Jose","State":"CA","Zip":"95173","Description":null,"SalesValue":"$2705373.47"},
{"NoOfRooms":3,"NoOfBathrooms":2,"SqFeet":3607,"Address1":"131 Havey Point","Address2":"Room 235","City":"North Hollywood","State":"CA","Zip":"91616","Description":null,"SalesValue":"$9661681.11"},
{"NoOfRooms":4,"NoOfBathrooms":1,"SqFeet":9600,"Address1":"11 Vidon Hill","Address2":"Suite 42","City":"San Francisco","State":"CA","Zip":"94116","Description":null,"SalesValue":"$5507490.25"},
{"NoOfRooms":2,"NoOfBathrooms":3,"SqFeet":8294,"Address1":"54 7th Circle","Address2":"16th Floor","City":"Whittier","State":"CA","Zip":"90605","Description":null,"SalesValue":"$4895431.75"},
{"NoOfRooms":3,"NoOfBathrooms":2,"SqFeet":9802,"Address1":"15601 Spohn Plaza","Address2":"Suite 34","City":"San Francisco","State":"CA","Zip":"94164","Description":null,"SalesValue":"$5246730.02"},
{"NoOfRooms":3,"NoOfBathrooms":5,"SqFeet":1989,"Address1":"6476 Tennessee Pass","Address2":"16th Floor","City":"San Francisco","State":"CA","Zip":"94132","Description":null,"SalesValue":"$1703901.82"},
{"NoOfRooms":2,"NoOfBathrooms":2,"SqFeet":6056,"Address1":"084 Elgar Circle","Address2":"PO Box 22218","City":"San Diego","State":"CA","Zip":"92132","Description":null,"SalesValue":"$8813908.67"},
{"NoOfRooms":4,"NoOfBathrooms":4,"SqFeet":4497,"Address1":"61 Meadow Vale Lane","Address2":"Room 1254","City":"San Francisco","State":"CA","Zip":"94105","Description":null,"SalesValue":"$1381122.58"},
{"NoOfRooms":5,"NoOfBathrooms":3,"SqFeet":7414,"Address1":"966 Vermont Hill","Address2":"Apt 1396","City":"Van Nuys","State":"CA","Zip":"91406","Description":null,"SalesValue":"$4972033.13"},
{"NoOfRooms":5,"NoOfBathrooms":3,"SqFeet":6807,"Address1":"2 Washington Court","Address2":"Room 140","City":"Riverside","State":"CA","Zip":"92513","Description":null,"SalesValue":"$6387823.69"},
{"NoOfRooms":4,"NoOfBathrooms":5,"SqFeet":8687,"Address1":"1130 Kingsford Crossing","Address2":"Suite 81","City":"Riverside","State":"CA","Zip":"92513","Description":null,"SalesValue":"$1122656.40"},
{"NoOfRooms":1,"NoOfBathrooms":4,"SqFeet":6325,"Address1":"87 Carpenter Parkway","Address2":"18th Floor","City":"San Francisco","State":"CA","Zip":"94154","Description":null,"SalesValue":"$5381136.91"},
{"NoOfRooms":5,"NoOfBathrooms":3,"SqFeet":315,"Address1":"255 Pepper Wood Drive","Address2":"Suite 96","City":"Palmdale","State":"CA","Zip":"93591","Description":null,"SalesValue":"$7245371.83"},
{"NoOfRooms":3,"NoOfBathrooms":3,"SqFeet":4644,"Address1":"4782 Center Crossing","Address2":"Suite 90","City":"Richmond","State":"CA","Zip":"94807","Description":null,"SalesValue":"$1504044.97"},
{"NoOfRooms":1,"NoOfBathrooms":2,"SqFeet":7574,"Address1":"2927 Sage Circle","Address2":"Room 562","City":"Anaheim","State":"CA","Zip":"92805","Description":null,"SalesValue":"$7663395.98"},
{"NoOfRooms":2,"NoOfBathrooms":5,"SqFeet":1213,"Address1":"3 Shopko Center","Address2":"4th Floor","City":"Burbank","State":"CA","Zip":"91520","Description":null,"SalesValue":"$4384806.82"},
{"NoOfRooms":4,"NoOfBathrooms":4,"SqFeet":7559,"Address1":"0649 Center Point","Address2":"Apt 363","City":"Santa Barbara","State":"CA","Zip":"93106","Description":null,"SalesValue":"$8379316.20"},
{"NoOfRooms":1,"NoOfBathrooms":3,"SqFeet":2384,"Address1":"03243 Clove Road","Address2":"Apt 1072","City":"Pasadena","State":"CA","Zip":"91131","Description":null,"SalesValue":"$9438415.55"},
{"NoOfRooms":1,"NoOfBathrooms":1,"SqFeet":1826,"Address1":"03518 Fieldstone Parkway","Address2":"3rd Floor","City":"Los Angeles","State":"CA","Zip":"90030","Description":null,"SalesValue":"$3726291.41"},
{"NoOfRooms":1,"NoOfBathrooms":1,"SqFeet":6485,"Address1":"509 Lerdahl Circle","Address2":"2nd Floor","City":"Inglewood","State":"CA","Zip":"90310","Description":null,"SalesValue":"$5964069.41"},
{"NoOfRooms":4,"NoOfBathrooms":1,"SqFeet":294,"Address1":"9461 Dayton Court","Address2":"PO Box 42038","City":"Bakersfield","State":"CA","Zip":"93311","Description":null,"SalesValue":"$5947928.49"},
{"NoOfRooms":3,"NoOfBathrooms":2,"SqFeet":1148,"Address1":"64 Nova Center","Address2":"Suite 83","City":"Simi Valley","State":"CA","Zip":"93094","Description":null,"SalesValue":"$4973978.65"},
{"NoOfRooms":5,"NoOfBathrooms":3,"SqFeet":1686,"Address1":"352 Eliot Road","Address2":"Suite 50","City":"Santa Monica","State":"CA","Zip":"90405","Description":null,"SalesValue":"$2231050.48"},
{"NoOfRooms":1,"NoOfBathrooms":2,"SqFeet":8906,"Address1":"583 Walton Center","Address2":"Room 1455","City":"Irvine","State":"CA","Zip":"92612","Description":null,"SalesValue":"$5994111.50"},
{"NoOfRooms":2,"NoOfBathrooms":4,"SqFeet":1153,"Address1":"450 Sycamore Place","Address2":"Room 487","City":"San Luis Obispo","State":"CA","Zip":"93407","Description":null,"SalesValue":"$8141034.97"},
{"NoOfRooms":2,"NoOfBathrooms":4,"SqFeet":2967,"Address1":"5 Namekagon Drive","Address2":"Room 467","City":"Fullerton","State":"CA","Zip":"92835","Description":null,"SalesValue":"$9851926.45"},
{"NoOfRooms":3,"NoOfBathrooms":2,"SqFeet":2565,"Address1":"732 Lawn Avenue","Address2":"Apt 1791","City":"Bakersfield","State":"CA","Zip":"93399","Description":null,"SalesValue":"$1582522.72"},
{"NoOfRooms":1,"NoOfBathrooms":2,"SqFeet":8280,"Address1":"22237 Oak Valley Trail","Address2":"Room 408","City":"Sacramento","State":"CA","Zip":"95813","Description":null,"SalesValue":"$4067505.31"},
{"NoOfRooms":5,"NoOfBathrooms":5,"SqFeet":4463,"Address1":"51256 Roxbury Hill","Address2":"2nd Floor","City":"Garden Grove","State":"CA","Zip":"92645","Description":null,"SalesValue":"$736923.18"},
{"NoOfRooms":3,"NoOfBathrooms":1,"SqFeet":3514,"Address1":"1650 Crescent Oaks Place","Address2":"Suite 6","City":"San Diego","State":"CA","Zip":"92121","Description":null,"SalesValue":"$8622041.24"},
{"NoOfRooms":3,"NoOfBathrooms":3,"SqFeet":1308,"Address1":"636 Saint Paul Point","Address2":"Room 821","City":"Fresno","State":"CA","Zip":"93794","Description":null,"SalesValue":"$1261968.18"},
{"NoOfRooms":4,"NoOfBathrooms":4,"SqFeet":7949,"Address1":"161 Lyons Lane","Address2":"Room 429","City":"Los Angeles","State":"CA","Zip":"90015","Description":null,"SalesValue":"$4580790.02"},
{"NoOfRooms":2,"NoOfBathrooms":4,"SqFeet":2128,"Address1":"6944 Wayridge Avenue","Address2":"Suite 18","City":"Los Angeles","State":"CA","Zip":"90087","Description":null,"SalesValue":"$6276084.20"},
{"NoOfRooms":5,"NoOfBathrooms":5,"SqFeet":594,"Address1":"3374 American Ash Terrace","Address2":"19th Floor","City":"Sunnyvale","State":"CA","Zip":"94089","Description":null,"SalesValue":"$8251561.74"},
{"NoOfRooms":3,"NoOfBathrooms":5,"SqFeet":4528,"Address1":"242 Eagan Crossing","Address2":"Room 1199","City":"Petaluma","State":"CA","Zip":"94975","Description":null,"SalesValue":"$836155.81"},
{"NoOfRooms":1,"NoOfBathrooms":3,"SqFeet":4433,"Address1":"01588 Golf Course Parkway","Address2":"Room 1370","City":"Stockton","State":"CA","Zip":"95205","Description":null,"SalesValue":"$5510407.89"},
{"NoOfRooms":3,"NoOfBathrooms":2,"SqFeet":306,"Address1":"46581 Spenser Center","Address2":"3rd Floor","City":"San Francisco","State":"CA","Zip":"94116","Description":null,"SalesValue":"$6052375.22"},
{"NoOfRooms":4,"NoOfBathrooms":5,"SqFeet":2082,"Address1":"1 Acker Center","Address2":"Room 1291","City":"Los Angeles","State":"CA","Zip":"90094","Description":null,"SalesValue":"$3565089.15"},
{"NoOfRooms":2,"NoOfBathrooms":4,"SqFeet":3217,"Address1":"833 Almo Alley","Address2":"PO Box 18419","City":"Palmdale","State":"CA","Zip":"93591","Description":null,"SalesValue":"$3376736.16"},
{"NoOfRooms":1,"NoOfBathrooms":1,"SqFeet":3095,"Address1":"2945 Sunfield Road","Address2":"PO Box 22328","City":"San Diego","State":"CA","Zip":"92105","Description":null,"SalesValue":"$4313995.22"},
{"NoOfRooms":5,"NoOfBathrooms":1,"SqFeet":8295,"Address1":"18159 Bluestem Plaza","Address2":"Apt 1605","City":"Richmond","State":"CA","Zip":"94807","Description":null,"SalesValue":"$2674206.48"},
{"NoOfRooms":4,"NoOfBathrooms":1,"SqFeet":7630,"Address1":"4428 Rutledge Court","Address2":"PO Box 94011","City":"Visalia","State":"CA","Zip":"93291","Description":null,"SalesValue":"$8464323.84"},
{"NoOfRooms":2,"NoOfBathrooms":3,"SqFeet":7686,"Address1":"0 Division Point","Address2":"PO Box 26468","City":"Chico","State":"CA","Zip":"95973","Description":null,"SalesValue":"$1379308.42"},
{"NoOfRooms":2,"NoOfBathrooms":4,"SqFeet":8192,"Address1":"7 Kingsford Lane","Address2":"PO Box 19786","City":"Los Angeles","State":"CA","Zip":"90015","Description":null,"SalesValue":"$1048821.61"},
{"NoOfRooms":2,"NoOfBathrooms":1,"SqFeet":365,"Address1":"234 Anhalt Lane","Address2":"PO Box 55830","City":"Sacramento","State":"CA","Zip":"94245","Description":null,"SalesValue":"$6310669.98"},
{"NoOfRooms":5,"NoOfBathrooms":3,"SqFeet":9464,"Address1":"176 Tennessee Hill","Address2":"Suite 94","City":"Los Angeles","State":"CA","Zip":"90030","Description":null,"SalesValue":"$8218016.56"},
{"NoOfRooms":3,"NoOfBathrooms":4,"SqFeet":7022,"Address1":"25 North Park","Address2":"14th Floor","City":"San Jose","State":"CA","Zip":"95128","Description":null,"SalesValue":"$3305665.97"},
{"NoOfRooms":5,"NoOfBathrooms":1,"SqFeet":5570,"Address1":"8 Browning Center","Address2":"Suite 92","City":"Orange","State":"CA","Zip":"92668","Description":null,"SalesValue":"$4113716.13"},
{"NoOfRooms":1,"NoOfBathrooms":4,"SqFeet":5420,"Address1":"03917 Utah Terrace","Address2":"PO Box 89735","City":"Chico","State":"CA","Zip":"95973","Description":null,"SalesValue":"$3528382.49"},
{"NoOfRooms":2,"NoOfBathrooms":5,"SqFeet":3099,"Address1":"8 Superior Lane","Address2":"Suite 69","City":"Los Angeles","State":"CA","Zip":"90045","Description":null,"SalesValue":"$7743537.99"},
{"NoOfRooms":4,"NoOfBathrooms":2,"SqFeet":3098,"Address1":"55 Loeprich Park","Address2":"PO Box 93255","City":"South Lake Tahoe","State":"CA","Zip":"96154","Description":null,"SalesValue":"$6741828.62"},
{"NoOfRooms":3,"NoOfBathrooms":4,"SqFeet":5983,"Address1":"271 Schmedeman Drive","Address2":"Suite 54","City":"Corona","State":"CA","Zip":"92883","Description":null,"SalesValue":"$3555525.38"},
{"NoOfRooms":5,"NoOfBathrooms":1,"SqFeet":8761,"Address1":"3 Warrior Pass","Address2":"1st Floor","City":"Sacramento","State":"CA","Zip":"95813","Description":null,"SalesValue":"$6001255.04"},
{"NoOfRooms":4,"NoOfBathrooms":2,"SqFeet":2830,"Address1":"08 Ridgeway Junction","Address2":"Apt 1494","City":"San Jose","State":"CA","Zip":"95160","Description":null,"SalesValue":"$7377928.57"},
{"NoOfRooms":1,"NoOfBathrooms":4,"SqFeet":4906,"Address1":"9059 Morningstar Road","Address2":"Apt 1869","City":"Pasadena","State":"CA","Zip":"91117","Description":null,"SalesValue":"$987994.39"},
{"NoOfRooms":4,"NoOfBathrooms":5,"SqFeet":2269,"Address1":"5 Johnson Avenue","Address2":"PO Box 18419","City":"Stockton","State":"CA","Zip":"95205","Description":null,"SalesValue":"$2681587.39"},
{"NoOfRooms":3,"NoOfBathrooms":3,"SqFeet":4692,"Address1":"597 Springview Hill","Address2":"4th Floor","City":"Los Angeles","State":"CA","Zip":"90020","Description":null,"SalesValue":"$1903188.10"},
{"NoOfRooms":4,"NoOfBathrooms":2,"SqFeet":8247,"Address1":"2 Miller Parkway","Address2":"1st Floor","City":"Fresno","State":"CA","Zip":"93721","Description":null,"SalesValue":"$4564538.52"},
{"NoOfRooms":1,"NoOfBathrooms":1,"SqFeet":211,"Address1":"92896 Cottonwood Parkway","Address2":"Apt 1780","City":"Los Angeles","State":"CA","Zip":"90065","Description":null,"SalesValue":"$976353.18"},
{"NoOfRooms":2,"NoOfBathrooms":2,"SqFeet":3234,"Address1":"33188 Southridge Court","Address2":"PO Box 43192","City":"San Bernardino","State":"CA","Zip":"92424","Description":null,"SalesValue":"$7947135.05"},
{"NoOfRooms":4,"NoOfBathrooms":1,"SqFeet":8033,"Address1":"36 Golf Crossing","Address2":"Room 1071","City":"Sacramento","State":"CA","Zip":"95865","Description":null,"SalesValue":"$9134696.91"},
{"NoOfRooms":1,"NoOfBathrooms":1,"SqFeet":595,"Address1":"1925 School Park","Address2":"Suite 67","City":"Los Angeles","State":"CA","Zip":"90060","Description":null,"SalesValue":"$7791833.63"},
{"NoOfRooms":4,"NoOfBathrooms":4,"SqFeet":139,"Address1":"7240 Moland Alley","Address2":"Apt 78","City":"Santa Ana","State":"CA","Zip":"92725","Description":null,"SalesValue":"$7219641.19"},
{"NoOfRooms":3,"NoOfBathrooms":5,"SqFeet":3423,"Address1":"7 Waubesa Point","Address2":"PO Box 23757","City":"Los Angeles","State":"CA","Zip":"90020","Description":null,"SalesValue":"$6678113.63"},
{"NoOfRooms":4,"NoOfBathrooms":4,"SqFeet":4297,"Address1":"3 Ohio Terrace","Address2":"PO Box 33458","City":"San Jose","State":"CA","Zip":"95155","Description":null,"SalesValue":"$3240063.69"},
{"NoOfRooms":4,"NoOfBathrooms":1,"SqFeet":1809,"Address1":"64372 Hallows Park","Address2":"PO Box 19173","City":"Huntington Beach","State":"CA","Zip":"92648","Description":null,"SalesValue":"$4073867.34"},
{"NoOfRooms":5,"NoOfBathrooms":4,"SqFeet":7980,"Address1":"90 Morrow Way","Address2":"Apt 1939","City":"Los Angeles","State":"CA","Zip":"90045","Description":null,"SalesValue":"$6859485.57"},
{"NoOfRooms":2,"NoOfBathrooms":4,"SqFeet":1473,"Address1":"21167 Fulton Place","Address2":"Room 1387","City":"San Francisco","State":"CA","Zip":"94110","Description":null,"SalesValue":"$3989391.88"},
{"NoOfRooms":3,"NoOfBathrooms":4,"SqFeet":6096,"Address1":"8 Cordelia Drive","Address2":"Apt 1947","City":"North Hollywood","State":"CA","Zip":"91606","Description":null,"SalesValue":"$7122797.61"},
{"NoOfRooms":3,"NoOfBathrooms":1,"SqFeet":2559,"Address1":"724 Gina Circle","Address2":"Room 1286","City":"Los Angeles","State":"CA","Zip":"90025","Description":null,"SalesValue":"$2713808.40"},
{"NoOfRooms":4,"NoOfBathrooms":4,"SqFeet":3839,"Address1":"6 Sloan Road","Address2":"19th Floor","City":"Sacramento","State":"CA","Zip":"94280","Description":null,"SalesValue":"$8012947.25"},
{"NoOfRooms":4,"NoOfBathrooms":1,"SqFeet":5179,"Address1":"7 Mifflin Way","Address2":"Room 1175","City":"Bakersfield","State":"CA","Zip":"93386","Description":null,"SalesValue":"$8036698.51"},
{"NoOfRooms":2,"NoOfBathrooms":4,"SqFeet":341,"Address1":"6 Tomscot Drive","Address2":"PO Box 34742","City":"San Diego","State":"CA","Zip":"92121","Description":null,"SalesValue":"$523975.60"},
{"NoOfRooms":2,"NoOfBathrooms":3,"SqFeet":5216,"Address1":"0 Golf View Park","Address2":"Apt 1060","City":"Fresno","State":"CA","Zip":"93794","Description":null,"SalesValue":"$7919151.83"},
{"NoOfRooms":4,"NoOfBathrooms":2,"SqFeet":3882,"Address1":"19 Ohio Place","Address2":"Room 550","City":"San Diego","State":"CA","Zip":"92160","Description":null,"SalesValue":"$4996683.46"},
{"NoOfRooms":5,"NoOfBathrooms":2,"SqFeet":2376,"Address1":"5 Buhler Hill","Address2":"PO Box 63152","City":"Santa Barbara","State":"CA","Zip":"93150","Description":null,"SalesValue":"$1295519.52"},
{"NoOfRooms":5,"NoOfBathrooms":5,"SqFeet":8005,"Address1":"03891 Main Point","Address2":"Suite 81","City":"Stockton","State":"CA","Zip":"95219","Description":null,"SalesValue":"$5913260.63"},
{"NoOfRooms":3,"NoOfBathrooms":4,"SqFeet":3818,"Address1":"805 Summer Ridge Terrace","Address2":"PO Box 30794","City":"Long Beach","State":"CA","Zip":"90847","Description":null,"SalesValue":"$2068844.28"},
{"NoOfRooms":1,"NoOfBathrooms":2,"SqFeet":1627,"Address1":"22 Monica Place","Address2":"4th Floor","City":"Sacramento","State":"CA","Zip":"94273","Description":null,"SalesValue":"$3918766.91"},
{"NoOfRooms":5,"NoOfBathrooms":1,"SqFeet":7355,"Address1":"6226 Luster Hill","Address2":"Room 1988","City":"San Jose","State":"CA","Zip":"95123","Description":null,"SalesValue":"$5965552.20"},
{"NoOfRooms":5,"NoOfBathrooms":3,"SqFeet":9142,"Address1":"6 Stephen Trail","Address2":"15th Floor","City":"Los Angeles","State":"CA","Zip":"90055","Description":null,"SalesValue":"$3844869.13"},
{"NoOfRooms":1,"NoOfBathrooms":2,"SqFeet":2495,"Address1":"1752 Golf Course Drive","Address2":"PO Box 20147","City":"Inglewood","State":"CA","Zip":"90398","Description":null,"SalesValue":"$7284856.70"},
{"NoOfRooms":3,"NoOfBathrooms":4,"SqFeet":8981,"Address1":"3456 Cascade Alley","Address2":"3rd Floor","City":"San Diego","State":"CA","Zip":"92176","Description":null,"SalesValue":"$2067013.66"},
{"NoOfRooms":5,"NoOfBathrooms":3,"SqFeet":7146,"Address1":"695 Boyd Road","Address2":"Room 1433","City":"Los Angeles","State":"CA","Zip":"90060","Description":null,"SalesValue":"$2068720.63"},
{"NoOfRooms":4,"NoOfBathrooms":2,"SqFeet":4564,"Address1":"33860 Merchant Park","Address2":"Room 554","City":"San Diego","State":"CA","Zip":"92165","Description":null,"SalesValue":"$6907886.26"},
{"NoOfRooms":2,"NoOfBathrooms":2,"SqFeet":9300,"Address1":"33260 Ilene Crossing","Address2":"Room 729","City":"Los Angeles","State":"CA","Zip":"90005","Description":null,"SalesValue":"$6974074.71"},
{"NoOfRooms":3,"NoOfBathrooms":4,"SqFeet":3979,"Address1":"56 Lawn Terrace","Address2":"Apt 1637","City":"Brea","State":"CA","Zip":"92822","Description":null,"SalesValue":"$3704741.25"},
{"NoOfRooms":5,"NoOfBathrooms":4,"SqFeet":7972,"Address1":"08 Huxley Avenue","Address2":"Suite 32","City":"Santa Barbara","State":"CA","Zip":"93106","Description":null,"SalesValue":"$821443.48"},
{"NoOfRooms":3,"NoOfBathrooms":5,"SqFeet":1455,"Address1":"38 Butternut Trail","Address2":"3rd Floor","City":"Sacramento","State":"CA","Zip":"94273","Description":null,"SalesValue":"$8302957.81"},
{"NoOfRooms":4,"NoOfBathrooms":4,"SqFeet":8071,"Address1":"54 Morrow Park","Address2":"Suite 23","City":"Bakersfield","State":"CA","Zip":"93399","Description":null,"SalesValue":"$1049478.74"},
{"NoOfRooms":1,"NoOfBathrooms":4,"SqFeet":5083,"Address1":"2642 Larry Way","Address2":"Room 863","City":"Newport Beach","State":"CA","Zip":"92662","Description":null,"SalesValue":"$3111708.39"},
{"NoOfRooms":1,"NoOfBathrooms":4,"SqFeet":1795,"Address1":"3 Mccormick Parkway","Address2":"Apt 1739","City":"Sacramento","State":"CA","Zip":"94280","Description":null,"SalesValue":"$7180505.40"},
{"NoOfRooms":2,"NoOfBathrooms":3,"SqFeet":393,"Address1":"16125 Springs Street","Address2":"Suite 30","City":"San Diego","State":"CA","Zip":"92132","Description":null,"SalesValue":"$4196658.18"},
{"NoOfRooms":5,"NoOfBathrooms":3,"SqFeet":6712,"Address1":"20 Sutherland Trail","Address2":"6th Floor","City":"Chico","State":"CA","Zip":"95973","Description":null,"SalesValue":"$6253579.02"},
{"NoOfRooms":4,"NoOfBathrooms":5,"SqFeet":1509,"Address1":"86059 Tony Alley","Address2":"PO Box 5073","City":"Whittier","State":"CA","Zip":"90610","Description":null,"SalesValue":"$7162453.58"},
{"NoOfRooms":2,"NoOfBathrooms":1,"SqFeet":1399,"Address1":"5249 Hintze Parkway","Address2":"Suite 19","City":"Fresno","State":"CA","Zip":"93773","Description":null,"SalesValue":"$3251989.14"},
{"NoOfRooms":1,"NoOfBathrooms":1,"SqFeet":829,"Address1":"53 Anthes Trail","Address2":"Apt 1456","City":"San Jose","State":"CA","Zip":"95113","Description":null,"SalesValue":"$6131034.73"},
{"NoOfRooms":5,"NoOfBathrooms":4,"SqFeet":4942,"Address1":"89 Union Trail","Address2":"PO Box 60732","City":"San Francisco","State":"CA","Zip":"94164","Description":null,"SalesValue":"$8432364.89"},
{"NoOfRooms":1,"NoOfBathrooms":5,"SqFeet":2673,"Address1":"4933 Mallory Point","Address2":"Suite 78","City":"Fresno","State":"CA","Zip":"93709","Description":null,"SalesValue":"$5959484.45"},
{"NoOfRooms":4,"NoOfBathrooms":3,"SqFeet":696,"Address1":"89358 Armistice Lane","Address2":"14th Floor","City":"Inglewood","State":"CA","Zip":"90310","Description":null,"SalesValue":"$6001066.76"},
{"NoOfRooms":4,"NoOfBathrooms":2,"SqFeet":3600,"Address1":"38476 Utah Hill","Address2":"6th Floor","City":"Bakersfield","State":"CA","Zip":"93386","Description":null,"SalesValue":"$8917104.30"},
{"NoOfRooms":2,"NoOfBathrooms":3,"SqFeet":8521,"Address1":"738 Meadow Ridge Trail","Address2":"Suite 3","City":"Oakland","State":"CA","Zip":"94616","Description":null,"SalesValue":"$3037133.10"},
{"NoOfRooms":4,"NoOfBathrooms":5,"SqFeet":7266,"Address1":"807 Daystar Road","Address2":"Room 263","City":"Los Angeles","State":"CA","Zip":"90020","Description":null,"SalesValue":"$1744025.24"},
{"NoOfRooms":5,"NoOfBathrooms":2,"SqFeet":1851,"Address1":"33 Annamark Drive","Address2":"Apt 1844","City":"Concord","State":"CA","Zip":"94522","Description":null,"SalesValue":"$8868116.79"},
{"NoOfRooms":3,"NoOfBathrooms":2,"SqFeet":5164,"Address1":"09 Anhalt Park","Address2":"10th Floor","City":"Richmond","State":"CA","Zip":"94807","Description":null,"SalesValue":"$3147333.71"},
{"NoOfRooms":1,"NoOfBathrooms":3,"SqFeet":1104,"Address1":"3786 Ryan Drive","Address2":"Suite 57","City":"San Diego","State":"CA","Zip":"92115","Description":null,"SalesValue":"$8769029.07"},
{"NoOfRooms":1,"NoOfBathrooms":3,"SqFeet":550,"Address1":"0369 Bonner Way","Address2":"PO Box 1186","City":"San Jose","State":"CA","Zip":"95150","Description":null,"SalesValue":"$3096138.78"},
{"NoOfRooms":1,"NoOfBathrooms":5,"SqFeet":460,"Address1":"17 Florence Way","Address2":"Suite 10","City":"Sacramento","State":"CA","Zip":"95818","Description":null,"SalesValue":"$4808099.14"},
{"NoOfRooms":1,"NoOfBathrooms":1,"SqFeet":8285,"Address1":"986 Westport Crossing","Address2":"PO Box 1295","City":"Fresno","State":"CA","Zip":"93778","Description":null,"SalesValue":"$1735399.26"},
{"NoOfRooms":2,"NoOfBathrooms":1,"SqFeet":8054,"Address1":"20 Commercial Junction","Address2":"Room 132","City":"Berkeley","State":"CA","Zip":"94712","Description":null,"SalesValue":"$4601035.03"},
{"NoOfRooms":1,"NoOfBathrooms":5,"SqFeet":1287,"Address1":"3906 Mesta Hill","Address2":"Apt 94","City":"Sacramento","State":"CA","Zip":"94257","Description":null,"SalesValue":"$8418016.22"},
{"NoOfRooms":5,"NoOfBathrooms":2,"SqFeet":5433,"Address1":"095 Del Mar Crossing","Address2":"Room 1048","City":"Santa Ana","State":"CA","Zip":"92725","Description":null,"SalesValue":"$9227119.88"},
{"NoOfRooms":5,"NoOfBathrooms":1,"SqFeet":2709,"Address1":"8911 Haas Crossing","Address2":"Suite 33","City":"Oakland","State":"CA","Zip":"94605","Description":null,"SalesValue":"$6378045.47"},
{"NoOfRooms":3,"NoOfBathrooms":4,"SqFeet":3888,"Address1":"506 Springview Plaza","Address2":"19th Floor","City":"Sunnyvale","State":"CA","Zip":"94089","Description":null,"SalesValue":"$8005281.69"},
{"NoOfRooms":1,"NoOfBathrooms":3,"SqFeet":5497,"Address1":"49 Hauk Parkway","Address2":"Apt 1844","City":"San Jose","State":"CA","Zip":"95118","Description":null,"SalesValue":"$2300077.76"},
{"NoOfRooms":4,"NoOfBathrooms":5,"SqFeet":7112,"Address1":"66370 Village Green Hill","Address2":"Room 997","City":"Glendale","State":"CA","Zip":"91210","Description":null,"SalesValue":"$1964476.63"},
{"NoOfRooms":1,"NoOfBathrooms":3,"SqFeet":3911,"Address1":"72273 Forest Dale Road","Address2":"Apt 1592","City":"Palo Alto","State":"CA","Zip":"94302","Description":null,"SalesValue":"$2472913.57"},
{"NoOfRooms":1,"NoOfBathrooms":3,"SqFeet":2530,"Address1":"52606 Summit Trail","Address2":"PO Box 19303","City":"Visalia","State":"CA","Zip":"93291","Description":null,"SalesValue":"$6099919.84"},
{"NoOfRooms":5,"NoOfBathrooms":3,"SqFeet":3340,"Address1":"403 Westend Circle","Address2":"16th Floor","City":"San Diego","State":"CA","Zip":"92153","Description":null,"SalesValue":"$8128713.02"},
{"NoOfRooms":2,"NoOfBathrooms":2,"SqFeet":2729,"Address1":"7 Ridge Oak Plaza","Address2":"Room 1554","City":"South Lake Tahoe","State":"CA","Zip":"96154","Description":null,"SalesValue":"$3112501.49"},
{"NoOfRooms":2,"NoOfBathrooms":4,"SqFeet":4181,"Address1":"2 International Street","Address2":"Apt 240","City":"Fullerton","State":"CA","Zip":"92640","Description":null,"SalesValue":"$5659918.14"},
{"NoOfRooms":5,"NoOfBathrooms":1,"SqFeet":1595,"Address1":"07 Comanche Hill","Address2":"PO Box 3092","City":"Burbank","State":"CA","Zip":"91520","Description":null,"SalesValue":"$8437299.42"},
{"NoOfRooms":4,"NoOfBathrooms":5,"SqFeet":7759,"Address1":"794 Carberry Lane","Address2":"19th Floor","City":"San Diego","State":"CA","Zip":"92105","Description":null,"SalesValue":"$7769130.23"},
{"NoOfRooms":3,"NoOfBathrooms":4,"SqFeet":2060,"Address1":"54957 Scofield Center","Address2":"Room 470","City":"Anaheim","State":"CA","Zip":"92825","Description":null,"SalesValue":"$2080312.82"},
{"NoOfRooms":2,"NoOfBathrooms":2,"SqFeet":8613,"Address1":"0022 Merrick Lane","Address2":"Room 642","City":"San Francisco","State":"CA","Zip":"94137","Description":null,"SalesValue":"$2067506.89"},
{"NoOfRooms":2,"NoOfBathrooms":5,"SqFeet":2833,"Address1":"79703 American Ash Terrace","Address2":"Suite 8","City":"San Jose","State":"CA","Zip":"95113","Description":null,"SalesValue":"$4295689.01"},
{"NoOfRooms":5,"NoOfBathrooms":5,"SqFeet":8793,"Address1":"838 Beilfuss Pass","Address2":"Suite 75","City":"Los Angeles","State":"CA","Zip":"90101","Description":null,"SalesValue":"$2323037.47"},
{"NoOfRooms":5,"NoOfBathrooms":1,"SqFeet":7782,"Address1":"57 Nelson Circle","Address2":"Apt 986","City":"San Jose","State":"CA","Zip":"95138","Description":null,"SalesValue":"$4388587.42"},
{"NoOfRooms":4,"NoOfBathrooms":3,"SqFeet":6865,"Address1":"0319 Westridge Park","Address2":"Suite 29","City":"San Francisco","State":"CA","Zip":"94142","Description":null,"SalesValue":"$4351854.56"},
{"NoOfRooms":3,"NoOfBathrooms":4,"SqFeet":3696,"Address1":"99 Grim Drive","Address2":"PO Box 51125","City":"Anaheim","State":"CA","Zip":"92825","Description":null,"SalesValue":"$9010772.62"},
{"NoOfRooms":1,"NoOfBathrooms":3,"SqFeet":6886,"Address1":"46 Cardinal Court","Address2":"PO Box 59183","City":"Los Angeles","State":"CA","Zip":"90060","Description":null,"SalesValue":"$8794948.90"},
{"NoOfRooms":3,"NoOfBathrooms":1,"SqFeet":5828,"Address1":"5 Melvin Center","Address2":"Suite 1","City":"San Diego","State":"CA","Zip":"92127","Description":null,"SalesValue":"$3322806.57"},
{"NoOfRooms":3,"NoOfBathrooms":3,"SqFeet":6205,"Address1":"454 Sullivan Alley","Address2":"Apt 18","City":"Sacramento","State":"CA","Zip":"94230","Description":null,"SalesValue":"$2134775.65"},
{"NoOfRooms":1,"NoOfBathrooms":1,"SqFeet":4326,"Address1":"09657 Granby Circle","Address2":"Suite 29","City":"Garden Grove","State":"CA","Zip":"92844","Description":null,"SalesValue":"$4226902.36"},
{"NoOfRooms":5,"NoOfBathrooms":3,"SqFeet":2575,"Address1":"1134 Dapin Pass","Address2":"Suite 13","City":"Los Angeles","State":"CA","Zip":"90035","Description":null,"SalesValue":"$8751179.81"},
{"NoOfRooms":3,"NoOfBathrooms":1,"SqFeet":7855,"Address1":"955 Gateway Terrace","Address2":"Room 203","City":"San Diego","State":"CA","Zip":"92145","Description":null,"SalesValue":"$4460482.05"},
{"NoOfRooms":2,"NoOfBathrooms":5,"SqFeet":632,"Address1":"32 Cardinal Hill","Address2":"Suite 56","City":"Oakland","State":"CA","Zip":"94605","Description":null,"SalesValue":"$907083.52"},
{"NoOfRooms":1,"NoOfBathrooms":1,"SqFeet":8517,"Address1":"01 Esker Hill","Address2":"Suite 8","City":"Oakland","State":"CA","Zip":"94605","Description":null,"SalesValue":"$6411591.47"},
{"NoOfRooms":4,"NoOfBathrooms":5,"SqFeet":8768,"Address1":"8149 Laurel Way","Address2":"1st Floor","City":"Sacramento","State":"CA","Zip":"94286","Description":null,"SalesValue":"$5752432.97"},
{"NoOfRooms":1,"NoOfBathrooms":5,"SqFeet":263,"Address1":"7485 Iowa Way","Address2":"Room 1256","City":"Riverside","State":"CA","Zip":"92513","Description":null,"SalesValue":"$838121.17"},
{"NoOfRooms":5,"NoOfBathrooms":5,"SqFeet":8395,"Address1":"9642 Dawn Trail","Address2":"PO Box 45613","City":"Fresno","State":"CA","Zip":"93715","Description":null,"SalesValue":"$3750084.94"},
{"NoOfRooms":5,"NoOfBathrooms":5,"SqFeet":118,"Address1":"87413 Anzinger Center","Address2":"Apt 602","City":"Sunnyvale","State":"CA","Zip":"94089","Description":null,"SalesValue":"$7351714.53"},
{"NoOfRooms":1,"NoOfBathrooms":1,"SqFeet":8398,"Address1":"70 Daystar Point","Address2":"Room 541","City":"Stockton","State":"CA","Zip":"95210","Description":null,"SalesValue":"$5843287.31"},
{"NoOfRooms":2,"NoOfBathrooms":5,"SqFeet":3609,"Address1":"9 Veith Hill","Address2":"PO Box 9376","City":"San Diego","State":"CA","Zip":"92115","Description":null,"SalesValue":"$9271999.04"},
{"NoOfRooms":1,"NoOfBathrooms":2,"SqFeet":3543,"Address1":"5103 Little Fleur Point","Address2":"Apt 1537","City":"Huntington Beach","State":"CA","Zip":"92648","Description":null,"SalesValue":"$7465662.29"},
{"NoOfRooms":2,"NoOfBathrooms":4,"SqFeet":8860,"Address1":"7 Crescent Oaks Trail","Address2":"10th Floor","City":"Fresno","State":"CA","Zip":"93715","Description":null,"SalesValue":"$7308475.85"},
{"NoOfRooms":2,"NoOfBathrooms":2,"SqFeet":2898,"Address1":"4388 Pine View Way","Address2":"17th Floor","City":"San Rafael","State":"CA","Zip":"94913","Description":null,"SalesValue":"$5257698.43"},
{"NoOfRooms":3,"NoOfBathrooms":5,"SqFeet":5607,"Address1":"7 Sundown Trail","Address2":"Apt 1354","City":"North Hollywood","State":"CA","Zip":"91616","Description":null,"SalesValue":"$6263706.77"},
{"NoOfRooms":3,"NoOfBathrooms":4,"SqFeet":4506,"Address1":"733 Esch Junction","Address2":"Room 1610","City":"Petaluma","State":"CA","Zip":"94975","Description":null,"SalesValue":"$612451.87"},
{"NoOfRooms":1,"NoOfBathrooms":4,"SqFeet":7876,"Address1":"1 Amoth Pass","Address2":"Suite 8","City":"Pomona","State":"CA","Zip":"91797","Description":null,"SalesValue":"$1932573.12"},
{"NoOfRooms":2,"NoOfBathrooms":1,"SqFeet":2855,"Address1":"39942 Raven Drive","Address2":"PO Box 36462","City":"Los Angeles","State":"CA","Zip":"90010","Description":null,"SalesValue":"$7678173.05"},
{"NoOfRooms":5,"NoOfBathrooms":4,"SqFeet":8862,"Address1":"749 Transport Street","Address2":"PO Box 79909","City":"Los Angeles","State":"CA","Zip":"90035","Description":null,"SalesValue":"$7544213.68"},
{"NoOfRooms":4,"NoOfBathrooms":5,"SqFeet":9466,"Address1":"4467 Carberry Lane","Address2":"Suite 97","City":"San Francisco","State":"CA","Zip":"94126","Description":null,"SalesValue":"$4252454.17"},
{"NoOfRooms":3,"NoOfBathrooms":3,"SqFeet":8196,"Address1":"34 Lakewood Gardens Circle","Address2":"Apt 1117","City":"Oakland","State":"CA","Zip":"94627","Description":null,"SalesValue":"$8511038.31"},
{"NoOfRooms":2,"NoOfBathrooms":2,"SqFeet":6590,"Address1":"50714 Jana Alley","Address2":"1st Floor","City":"San Bernardino","State":"CA","Zip":"92415","Description":null,"SalesValue":"$7962599.40"},
{"NoOfRooms":3,"NoOfBathrooms":1,"SqFeet":6678,"Address1":"542 Amoth Point","Address2":"2nd Floor","City":"Burbank","State":"CA","Zip":"91505","Description":null,"SalesValue":"$1132127.37"},
{"NoOfRooms":2,"NoOfBathrooms":4,"SqFeet":5825,"Address1":"8247 Redwing Pass","Address2":"18th Floor","City":"San Diego","State":"CA","Zip":"92110","Description":null,"SalesValue":"$1707446.03"},
{"NoOfRooms":4,"NoOfBathrooms":4,"SqFeet":3878,"Address1":"97 Trailsway Point","Address2":"PO Box 53066","City":"Concord","State":"CA","Zip":"94522","Description":null,"SalesValue":"$3936019.90"},
{"NoOfRooms":3,"NoOfBathrooms":3,"SqFeet":3988,"Address1":"784 Thompson Point","Address2":"Suite 62","City":"Pasadena","State":"CA","Zip":"91125","Description":null,"SalesValue":"$5309789.60"},
{"NoOfRooms":1,"NoOfBathrooms":5,"SqFeet":1277,"Address1":"76 Oak Drive","Address2":"Room 615","City":"San Diego","State":"CA","Zip":"92145","Description":null,"SalesValue":"$7205143.82"},
{"NoOfRooms":5,"NoOfBathrooms":5,"SqFeet":6514,"Address1":"2650 Golf Hill","Address2":"Suite 85","City":"Pasadena","State":"CA","Zip":"91131","Description":null,"SalesValue":"$2865700.02"},
{"NoOfRooms":5,"NoOfBathrooms":3,"SqFeet":9523,"Address1":"80 Atwood Center","Address2":"Suite 64","City":"Garden Grove","State":"CA","Zip":"92645","Description":null,"SalesValue":"$3395705.25"},
{"NoOfRooms":3,"NoOfBathrooms":3,"SqFeet":8823,"Address1":"99697 Pawling Circle","Address2":"Apt 807","City":"Los Angeles","State":"CA","Zip":"90015","Description":null,"SalesValue":"$7435376.05"},
{"NoOfRooms":3,"NoOfBathrooms":4,"SqFeet":6460,"Address1":"73202 Swallow Plaza","Address2":"Suite 55","City":"Los Angeles","State":"CA","Zip":"90045","Description":null,"SalesValue":"$9238818.48"},
{"NoOfRooms":2,"NoOfBathrooms":2,"SqFeet":4936,"Address1":"9 Johnson Alley","Address2":"PO Box 52633","City":"Stockton","State":"CA","Zip":"95298","Description":null,"SalesValue":"$8728363.65"},
{"NoOfRooms":5,"NoOfBathrooms":2,"SqFeet":3504,"Address1":"156 Rutledge Alley","Address2":"Room 256","City":"Fresno","State":"CA","Zip":"93762","Description":null,"SalesValue":"$7357474.11"},
{"NoOfRooms":4,"NoOfBathrooms":5,"SqFeet":8297,"Address1":"1 Maple Wood Road","Address2":"7th Floor","City":"San Diego","State":"CA","Zip":"92121","Description":null,"SalesValue":"$4594989.20"},
{"NoOfRooms":5,"NoOfBathrooms":3,"SqFeet":9752,"Address1":"709 Vidon Crossing","Address2":"Suite 43","City":"Fresno","State":"CA","Zip":"93721","Description":null,"SalesValue":"$9832708.07"},
{"NoOfRooms":2,"NoOfBathrooms":2,"SqFeet":5579,"Address1":"997 Ronald Regan Road","Address2":"PO Box 40668","City":"San Diego","State":"CA","Zip":"92165","Description":null,"SalesValue":"$7766288.87"},
{"NoOfRooms":3,"NoOfBathrooms":2,"SqFeet":5397,"Address1":"3 Boyd Street","Address2":"6th Floor","City":"Pasadena","State":"CA","Zip":"91125","Description":null,"SalesValue":"$6497061.43"},
{"NoOfRooms":1,"NoOfBathrooms":1,"SqFeet":6134,"Address1":"0 Bunting Court","Address2":"Apt 1823","City":"San Jose","State":"CA","Zip":"95150","Description":null,"SalesValue":"$5058333.57"},
{"NoOfRooms":1,"NoOfBathrooms":5,"SqFeet":887,"Address1":"51 Rieder Trail","Address2":"PO Box 24241","City":"Long Beach","State":"CA","Zip":"90810","Description":null,"SalesValue":"$8713847.03"},
{"NoOfRooms":4,"NoOfBathrooms":3,"SqFeet":1071,"Address1":"5326 Londonderry Avenue","Address2":"Room 18","City":"Sacramento","State":"CA","Zip":"95865","Description":null,"SalesValue":"$4186385.73"},
{"NoOfRooms":1,"NoOfBathrooms":4,"SqFeet":7363,"Address1":"62 Spohn Trail","Address2":"10th Floor","City":"Santa Barbara","State":"CA","Zip":"93111","Description":null,"SalesValue":"$6888366.91"},
{"NoOfRooms":3,"NoOfBathrooms":1,"SqFeet":9397,"Address1":"24531 Ilene Plaza","Address2":"Room 1085","City":"San Jose","State":"CA","Zip":"95118","Description":null,"SalesValue":"$7713385.79"},
{"NoOfRooms":4,"NoOfBathrooms":2,"SqFeet":3462,"Address1":"6 Mccormick Park","Address2":"Suite 69","City":"Sacramento","State":"CA","Zip":"94273","Description":null,"SalesValue":"$1916618.88"},
{"NoOfRooms":2,"NoOfBathrooms":3,"SqFeet":2914,"Address1":"05 Farmco Center","Address2":"4th Floor","City":"Fresno","State":"CA","Zip":"93721","Description":null,"SalesValue":"$8915903.98"},
{"NoOfRooms":4,"NoOfBathrooms":4,"SqFeet":5389,"Address1":"84 Raven Avenue","Address2":"PO Box 48995","City":"Inglewood","State":"CA","Zip":"90398","Description":null,"SalesValue":"$6721872.43"},
{"NoOfRooms":3,"NoOfBathrooms":3,"SqFeet":7883,"Address1":"655 Thompson Circle","Address2":"Room 1938","City":"Los Angeles","State":"CA","Zip":"90189","Description":null,"SalesValue":"$2992648.06"},
{"NoOfRooms":2,"NoOfBathrooms":5,"SqFeet":4495,"Address1":"87 Elka Court","Address2":"Apt 176","City":"Bakersfield","State":"CA","Zip":"93311","Description":null,"SalesValue":"$8630455.99"},
{"NoOfRooms":4,"NoOfBathrooms":3,"SqFeet":3998,"Address1":"030 Oakridge Court","Address2":"Room 717","City":"Oakland","State":"CA","Zip":"94627","Description":null,"SalesValue":"$7346251.40"},
{"NoOfRooms":4,"NoOfBathrooms":4,"SqFeet":2911,"Address1":"74286 Thierer Street","Address2":"Room 1184","City":"San Diego","State":"CA","Zip":"92191","Description":null,"SalesValue":"$7599294.40"},
{"NoOfRooms":4,"NoOfBathrooms":4,"SqFeet":1107,"Address1":"775 Larry Plaza","Address2":"Room 1631","City":"Los Angeles","State":"CA","Zip":"90040","Description":null,"SalesValue":"$7697890.81"},
{"NoOfRooms":4,"NoOfBathrooms":1,"SqFeet":4559,"Address1":"26647 Pepper Wood Drive","Address2":"Suite 37","City":"Anaheim","State":"CA","Zip":"92825","Description":null,"SalesValue":"$1109344.15"},
{"NoOfRooms":1,"NoOfBathrooms":2,"SqFeet":4947,"Address1":"98 Jackson Pass","Address2":"11th Floor","City":"Santa Ana","State":"CA","Zip":"92705","Description":null,"SalesValue":"$5772020.70"},
{"NoOfRooms":3,"NoOfBathrooms":4,"SqFeet":6815,"Address1":"844 Waywood Crossing","Address2":"PO Box 2754","City":"San Diego","State":"CA","Zip":"92137","Description":null,"SalesValue":"$4020128.53"},
{"NoOfRooms":3,"NoOfBathrooms":5,"SqFeet":9635,"Address1":"78 Bluejay Junction","Address2":"14th Floor","City":"Los Angeles","State":"CA","Zip":"90015","Description":null,"SalesValue":"$4522447.02"},
{"NoOfRooms":4,"NoOfBathrooms":5,"SqFeet":2735,"Address1":"6511 Spenser Junction","Address2":"PO Box 76236","City":"San Diego","State":"CA","Zip":"92196","Description":null,"SalesValue":"$2850868.23"},
{"NoOfRooms":5,"NoOfBathrooms":1,"SqFeet":5825,"Address1":"13 South Court","Address2":"Suite 1","City":"Santa Monica","State":"CA","Zip":"90410","Description":null,"SalesValue":"$1064275.64"},
{"NoOfRooms":3,"NoOfBathrooms":2,"SqFeet":9651,"Address1":"952 Golf Hill","Address2":"Room 1426","City":"Fresno","State":"CA","Zip":"93715","Description":null,"SalesValue":"$8275686.86"},
{"NoOfRooms":5,"NoOfBathrooms":4,"SqFeet":236,"Address1":"05 Kropf Trail","Address2":"7th Floor","City":"Inglewood","State":"CA","Zip":"90310","Description":null,"SalesValue":"$8269531.12"},
{"NoOfRooms":4,"NoOfBathrooms":4,"SqFeet":2194,"Address1":"66 Talisman Pass","Address2":"Apt 1845","City":"San Jose","State":"CA","Zip":"95128","Description":null,"SalesValue":"$3671378.01"},
{"NoOfRooms":5,"NoOfBathrooms":1,"SqFeet":9325,"Address1":"91 Lakewood Point","Address2":"Room 760","City":"Alhambra","State":"CA","Zip":"91841","Description":null,"SalesValue":"$8182060.62"},
{"NoOfRooms":3,"NoOfBathrooms":3,"SqFeet":1281,"Address1":"15 Lotheville Way","Address2":"PO Box 55601","City":"Fullerton","State":"CA","Zip":"92640","Description":null,"SalesValue":"$4238212.47"},
{"NoOfRooms":5,"NoOfBathrooms":2,"SqFeet":741,"Address1":"16 Spenser Pass","Address2":"PO Box 32635","City":"Santa Monica","State":"CA","Zip":"90405","Description":null,"SalesValue":"$1094117.11"},
{"NoOfRooms":2,"NoOfBathrooms":5,"SqFeet":7287,"Address1":"7864 Old Gate Parkway","Address2":"Room 1225","City":"Torrance","State":"CA","Zip":"90505","Description":null,"SalesValue":"$3515322.28"},
{"NoOfRooms":4,"NoOfBathrooms":3,"SqFeet":6813,"Address1":"209 Colorado Road","Address2":"Apt 250","City":"Stockton","State":"CA","Zip":"95219","Description":null,"SalesValue":"$7105713.08"},
{"NoOfRooms":1,"NoOfBathrooms":4,"SqFeet":8510,"Address1":"0889 Glendale Street","Address2":"PO Box 15160","City":"San Francisco","State":"CA","Zip":"94137","Description":null,"SalesValue":"$9835254.48"},
{"NoOfRooms":1,"NoOfBathrooms":3,"SqFeet":6817,"Address1":"677 Buena Vista Plaza","Address2":"Apt 251","City":"Pasadena","State":"CA","Zip":"91131","Description":null,"SalesValue":"$2233235.39"},
{"NoOfRooms":4,"NoOfBathrooms":2,"SqFeet":7760,"Address1":"1 Columbus Trail","Address2":"Apt 1466","City":"Sacramento","State":"CA","Zip":"95852","Description":null,"SalesValue":"$4122708.17"},
{"NoOfRooms":1,"NoOfBathrooms":4,"SqFeet":5986,"Address1":"614 Pond Crossing","Address2":"6th Floor","City":"Corona","State":"CA","Zip":"92883","Description":null,"SalesValue":"$1249587.55"},
{"NoOfRooms":1,"NoOfBathrooms":3,"SqFeet":7246,"Address1":"35 Parkside Drive","Address2":"Room 1025","City":"Chico","State":"CA","Zip":"95973","Description":null,"SalesValue":"$3016738.60"},
{"NoOfRooms":4,"NoOfBathrooms":4,"SqFeet":214,"Address1":"53918 American Ash Court","Address2":"Suite 50","City":"San Francisco","State":"CA","Zip":"94147","Description":null,"SalesValue":"$2277474.63"},
{"NoOfRooms":2,"NoOfBathrooms":3,"SqFeet":4365,"Address1":"651 Clarendon Parkway","Address2":"PO Box 72432","City":"San Bernardino","State":"CA","Zip":"92415","Description":null,"SalesValue":"$3977201.95"},
{"NoOfRooms":1,"NoOfBathrooms":4,"SqFeet":7704,"Address1":"05 Lighthouse Bay Court","Address2":"15th Floor","City":"Sacramento","State":"CA","Zip":"94257","Description":null,"SalesValue":"$4120003.48"},
{"NoOfRooms":4,"NoOfBathrooms":4,"SqFeet":6387,"Address1":"71334 Judy Alley","Address2":"PO Box 22810","City":"Modesto","State":"CA","Zip":"95354","Description":null,"SalesValue":"$572846.66"},
{"NoOfRooms":1,"NoOfBathrooms":2,"SqFeet":7259,"Address1":"16892 Miller Park","Address2":"6th Floor","City":"Los Angeles","State":"CA","Zip":"90040","Description":null,"SalesValue":"$3408741.34"},
{"NoOfRooms":1,"NoOfBathrooms":4,"SqFeet":367,"Address1":"3162 Dryden Crossing","Address2":"PO Box 3719","City":"Sacramento","State":"CA","Zip":"95865","Description":null,"SalesValue":"$6888585.08"},
{"NoOfRooms":5,"NoOfBathrooms":5,"SqFeet":1113,"Address1":"21393 Mitchell Park","Address2":"Apt 1081","City":"San Francisco","State":"CA","Zip":"94121","Description":null,"SalesValue":"$745758.54"},
{"NoOfRooms":5,"NoOfBathrooms":2,"SqFeet":2554,"Address1":"3141 East Crossing","Address2":"PO Box 59250","City":"Corona","State":"CA","Zip":"92883","Description":null,"SalesValue":"$4975415.39"},
{"NoOfRooms":2,"NoOfBathrooms":5,"SqFeet":9940,"Address1":"56949 Sundown Crossing","Address2":"PO Box 39891","City":"Sacramento","State":"CA","Zip":"94263","Description":null,"SalesValue":"$8944975.88"},
{"NoOfRooms":2,"NoOfBathrooms":2,"SqFeet":8311,"Address1":"81013 Bluestem Street","Address2":"Suite 41","City":"Oakland","State":"CA","Zip":"94622","Description":null,"SalesValue":"$7979706.86"},
{"NoOfRooms":4,"NoOfBathrooms":3,"SqFeet":9530,"Address1":"0552 Banding Point","Address2":"7th Floor","City":"Los Angeles","State":"CA","Zip":"90101","Description":null,"SalesValue":"$5952747.50"},
{"NoOfRooms":4,"NoOfBathrooms":2,"SqFeet":7952,"Address1":"6 Arkansas Hill","Address2":"Apt 915","City":"Fresno","State":"CA","Zip":"93773","Description":null,"SalesValue":"$1939094.89"},
{"NoOfRooms":2,"NoOfBathrooms":3,"SqFeet":7849,"Address1":"99 Ridgeview Avenue","Address2":"PO Box 99700","City":"Corona","State":"CA","Zip":"92878","Description":null,"SalesValue":"$8765236.99"},
{"NoOfRooms":4,"NoOfBathrooms":2,"SqFeet":998,"Address1":"93904 Shasta Parkway","Address2":"Suite 83","City":"Fresno","State":"CA","Zip":"93794","Description":null,"SalesValue":"$7095855.47"},
{"NoOfRooms":4,"NoOfBathrooms":1,"SqFeet":7276,"Address1":"04 Sundown Circle","Address2":"20th Floor","City":"Oakland","State":"CA","Zip":"94627","Description":null,"SalesValue":"$9594480.27"},
{"NoOfRooms":2,"NoOfBathrooms":4,"SqFeet":1029,"Address1":"863 Crescent Oaks Park","Address2":"Suite 11","City":"Los Angeles","State":"CA","Zip":"90055","Description":null,"SalesValue":"$5043992.29"},
{"NoOfRooms":3,"NoOfBathrooms":2,"SqFeet":1846,"Address1":"2036 6th Hill","Address2":"PO Box 60338","City":"San Diego","State":"CA","Zip":"92127","Description":null,"SalesValue":"$7737750.03"},
{"NoOfRooms":3,"NoOfBathrooms":1,"SqFeet":5763,"Address1":"5713 American Ash Way","Address2":"10th Floor","City":"Los Angeles","State":"CA","Zip":"90045","Description":null,"SalesValue":"$6456432.91"},
{"NoOfRooms":5,"NoOfBathrooms":5,"SqFeet":425,"Address1":"372 Lighthouse Bay Pass","Address2":"PO Box 4671","City":"Lancaster","State":"CA","Zip":"93584","Description":null,"SalesValue":"$817042.11"},
{"NoOfRooms":3,"NoOfBathrooms":4,"SqFeet":7865,"Address1":"35046 Amoth Trail","Address2":"PO Box 89245","City":"Torrance","State":"CA","Zip":"90505","Description":null,"SalesValue":"$8710833.49"},
{"NoOfRooms":2,"NoOfBathrooms":1,"SqFeet":2106,"Address1":"4752 Gulseth Circle","Address2":"Apt 1322","City":"Los Angeles","State":"CA","Zip":"90087","Description":null,"SalesValue":"$5375746.78"},
{"NoOfRooms":2,"NoOfBathrooms":1,"SqFeet":7534,"Address1":"16011 Merry Point","Address2":"PO Box 24557","City":"San Francisco","State":"CA","Zip":"94105","Description":null,"SalesValue":"$589479.38"},
{"NoOfRooms":1,"NoOfBathrooms":1,"SqFeet":7746,"Address1":"1845 Quincy Road","Address2":"2nd Floor","City":"San Jose","State":"CA","Zip":"95123","Description":null,"SalesValue":"$3234735.68"},
{"NoOfRooms":4,"NoOfBathrooms":4,"SqFeet":7134,"Address1":"97 Buell Alley","Address2":"Apt 329","City":"South Lake Tahoe","State":"CA","Zip":"96154","Description":null,"SalesValue":"$5378113.24"},
{"NoOfRooms":5,"NoOfBathrooms":3,"SqFeet":6752,"Address1":"1 Hooker Parkway","Address2":"Suite 18","City":"San Diego","State":"CA","Zip":"92127","Description":null,"SalesValue":"$5389751.72"},
{"NoOfRooms":3,"NoOfBathrooms":2,"SqFeet":9344,"Address1":"3746 Farragut Way","Address2":"Room 1829","City":"Sacramento","State":"CA","Zip":"94280","Description":null,"SalesValue":"$5646639.60"},
{"NoOfRooms":4,"NoOfBathrooms":4,"SqFeet":7214,"Address1":"4411 Gerald Crossing","Address2":"Room 183","City":"Long Beach","State":"CA","Zip":"90810","Description":null,"SalesValue":"$1292233.08"},
{"NoOfRooms":2,"NoOfBathrooms":1,"SqFeet":4756,"Address1":"64 East Terrace","Address2":"Room 1188","City":"Inglewood","State":"CA","Zip":"90305","Description":null,"SalesValue":"$689492.49"},
{"NoOfRooms":2,"NoOfBathrooms":4,"SqFeet":4610,"Address1":"7 Bonner Street","Address2":"20th Floor","City":"Chico","State":"CA","Zip":"95973","Description":null,"SalesValue":"$4380133.90"},
{"NoOfRooms":3,"NoOfBathrooms":2,"SqFeet":9118,"Address1":"0570 Moulton Hill","Address2":"Apt 676","City":"Torrance","State":"CA","Zip":"90510","Description":null,"SalesValue":"$3304953.04"},
{"NoOfRooms":1,"NoOfBathrooms":4,"SqFeet":837,"Address1":"2898 Waxwing Pass","Address2":"20th Floor","City":"Bakersfield","State":"CA","Zip":"93381","Description":null,"SalesValue":"$5602558.57"},
{"NoOfRooms":4,"NoOfBathrooms":5,"SqFeet":3064,"Address1":"09 Helena Lane","Address2":"PO Box 2107","City":"San Diego","State":"CA","Zip":"92196","Description":null,"SalesValue":"$5417632.11"},
{"NoOfRooms":5,"NoOfBathrooms":5,"SqFeet":446,"Address1":"48715 Washington Court","Address2":"Suite 35","City":"Fresno","State":"CA","Zip":"93794","Description":null,"SalesValue":"$8043864.30"},
{"NoOfRooms":2,"NoOfBathrooms":1,"SqFeet":635,"Address1":"33 Charing Cross Terrace","Address2":"PO Box 23408","City":"Sacramento","State":"CA","Zip":"95852","Description":null,"SalesValue":"$4422060.86"},
{"NoOfRooms":3,"NoOfBathrooms":2,"SqFeet":5595,"Address1":"946 Elgar Plaza","Address2":"Room 907","City":"San Francisco","State":"CA","Zip":"94169","Description":null,"SalesValue":"$3495667.64"},
{"NoOfRooms":2,"NoOfBathrooms":4,"SqFeet":6133,"Address1":"69263 Bartelt Court","Address2":"Suite 58","City":"Corona","State":"CA","Zip":"92883","Description":null,"SalesValue":"$9894394.22"},
{"NoOfRooms":2,"NoOfBathrooms":2,"SqFeet":664,"Address1":"443 Anhalt Junction","Address2":"Suite 87","City":"Garden Grove","State":"CA","Zip":"92844","Description":null,"SalesValue":"$6692818.49"},
{"NoOfRooms":2,"NoOfBathrooms":5,"SqFeet":5178,"Address1":"8972 Buhler Lane","Address2":"Room 1815","City":"San Mateo","State":"CA","Zip":"94405","Description":null,"SalesValue":"$5524281.67"},
{"NoOfRooms":5,"NoOfBathrooms":4,"SqFeet":6033,"Address1":"15 Bartelt Center","Address2":"19th Floor","City":"Palo Alto","State":"CA","Zip":"94302","Description":null,"SalesValue":"$2487916.53"},
{"NoOfRooms":3,"NoOfBathrooms":2,"SqFeet":786,"Address1":"57 Straubel Hill","Address2":"Suite 7","City":"Concord","State":"CA","Zip":"94522","Description":null,"SalesValue":"$2233883.60"},
{"NoOfRooms":2,"NoOfBathrooms":5,"SqFeet":6948,"Address1":"1 Kingsford Alley","Address2":"3rd Floor","City":"San Jose","State":"CA","Zip":"95160","Description":null,"SalesValue":"$719070.63"},
{"NoOfRooms":5,"NoOfBathrooms":2,"SqFeet":5220,"Address1":"35251 Gulseth Way","Address2":"Suite 80","City":"San Francisco","State":"CA","Zip":"94110","Description":null,"SalesValue":"$4234045.29"},
{"NoOfRooms":2,"NoOfBathrooms":5,"SqFeet":8488,"Address1":"4418 Kingsford Pass","Address2":"PO Box 73501","City":"Oakland","State":"CA","Zip":"94616","Description":null,"SalesValue":"$1711177.49"},
{"NoOfRooms":2,"NoOfBathrooms":1,"SqFeet":8209,"Address1":"84552 Moulton Trail","Address2":"PO Box 28382","City":"Anaheim","State":"CA","Zip":"92825","Description":null,"SalesValue":"$3892188.97"},
{"NoOfRooms":5,"NoOfBathrooms":4,"SqFeet":9204,"Address1":"38 Stuart Plaza","Address2":"Room 211","City":"Inglewood","State":"CA","Zip":"90310","Description":null,"SalesValue":"$8928737.83"},
{"NoOfRooms":2,"NoOfBathrooms":3,"SqFeet":3231,"Address1":"26 Dottie Junction","Address2":"Room 992","City":"Whittier","State":"CA","Zip":"90605","Description":null,"SalesValue":"$1670892.16"},
{"NoOfRooms":3,"NoOfBathrooms":3,"SqFeet":1566,"Address1":"0707 Packers Drive","Address2":"Suite 20","City":"Los Angeles","State":"CA","Zip":"90094","Description":null,"SalesValue":"$3333180.09"},
{"NoOfRooms":2,"NoOfBathrooms":1,"SqFeet":6171,"Address1":"60645 Buena Vista Center","Address2":"Apt 7","City":"Sacramento","State":"CA","Zip":"94257","Description":null,"SalesValue":"$7659174.79"},
{"NoOfRooms":3,"NoOfBathrooms":1,"SqFeet":4785,"Address1":"967 Atwood Point","Address2":"Suite 47","City":"San Bernardino","State":"CA","Zip":"92415","Description":null,"SalesValue":"$9905844.44"},
{"NoOfRooms":1,"NoOfBathrooms":1,"SqFeet":2163,"Address1":"08 Bartelt Crossing","Address2":"7th Floor","City":"San Jose","State":"CA","Zip":"95133","Description":null,"SalesValue":"$4741556.57"},
{"NoOfRooms":5,"NoOfBathrooms":3,"SqFeet":4202,"Address1":"6184 Grasskamp Avenue","Address2":"Apt 631","City":"Corona","State":"CA","Zip":"92883","Description":null,"SalesValue":"$6298490.54"},
{"NoOfRooms":2,"NoOfBathrooms":2,"SqFeet":3320,"Address1":"9441 Warner Lane","Address2":"Apt 1221","City":"San Francisco","State":"CA","Zip":"94177","Description":null,"SalesValue":"$5707963.39"},
{"NoOfRooms":4,"NoOfBathrooms":2,"SqFeet":9385,"Address1":"18 Fremont Circle","Address2":"5th Floor","City":"San Francisco","State":"CA","Zip":"94159","Description":null,"SalesValue":"$1120885.95"},
{"NoOfRooms":4,"NoOfBathrooms":2,"SqFeet":5129,"Address1":"8 Melvin Junction","Address2":"PO Box 3509","City":"San Jose","State":"CA","Zip":"95108","Description":null,"SalesValue":"$6450642.43"},
{"NoOfRooms":1,"NoOfBathrooms":3,"SqFeet":2530,"Address1":"3 Browning Crossing","Address2":"13th Floor","City":"Long Beach","State":"CA","Zip":"90831","Description":null,"SalesValue":"$623425.11"},
{"NoOfRooms":4,"NoOfBathrooms":1,"SqFeet":1406,"Address1":"3 Morrow Way","Address2":"Apt 162","City":"Sacramento","State":"CA","Zip":"95865","Description":null,"SalesValue":"$4367029.50"},
{"NoOfRooms":2,"NoOfBathrooms":4,"SqFeet":504,"Address1":"681 Daystar Terrace","Address2":"Apt 476","City":"Whittier","State":"CA","Zip":"90610","Description":null,"SalesValue":"$6814751.69"},
{"NoOfRooms":1,"NoOfBathrooms":5,"SqFeet":3769,"Address1":"581 Brown Avenue","Address2":"Room 431","City":"Sacramento","State":"CA","Zip":"95823","Description":null,"SalesValue":"$2776063.83"},
{"NoOfRooms":3,"NoOfBathrooms":3,"SqFeet":397,"Address1":"8 Laurel Pass","Address2":"Apt 1376","City":"Sacramento","State":"CA","Zip":"95865","Description":null,"SalesValue":"$1792731.04"},
{"NoOfRooms":3,"NoOfBathrooms":3,"SqFeet":3832,"Address1":"94 Nevada Trail","Address2":"PO Box 24160","City":"Pomona","State":"CA","Zip":"91797","Description":null,"SalesValue":"$3935087.81"},
{"NoOfRooms":5,"NoOfBathrooms":1,"SqFeet":3883,"Address1":"4 Londonderry Plaza","Address2":"10th Floor","City":"Sacramento","State":"CA","Zip":"95894","Description":null,"SalesValue":"$2254867.16"},
{"NoOfRooms":3,"NoOfBathrooms":2,"SqFeet":9547,"Address1":"5 Scott Crossing","Address2":"PO Box 39663","City":"San Francisco","State":"CA","Zip":"94137","Description":null,"SalesValue":"$6594780.16"},
{"NoOfRooms":2,"NoOfBathrooms":3,"SqFeet":4455,"Address1":"9 Pawling Terrace","Address2":"10th Floor","City":"Fresno","State":"CA","Zip":"93704","Description":null,"SalesValue":"$8135835.94"},
{"NoOfRooms":1,"NoOfBathrooms":5,"SqFeet":897,"Address1":"94897 Service Alley","Address2":"Room 1652","City":"San Diego","State":"CA","Zip":"92115","Description":null,"SalesValue":"$3506131.06"},
{"NoOfRooms":4,"NoOfBathrooms":5,"SqFeet":2081,"Address1":"024 Stone Corner Lane","Address2":"Room 396","City":"Los Angeles","State":"CA","Zip":"90050","Description":null,"SalesValue":"$2286246.10"},
{"NoOfRooms":1,"NoOfBathrooms":1,"SqFeet":2901,"Address1":"97 Bellgrove Crossing","Address2":"PO Box 98092","City":"Salinas","State":"CA","Zip":"93907","Description":null,"SalesValue":"$8756286.32"},
{"NoOfRooms":5,"NoOfBathrooms":4,"SqFeet":5729,"Address1":"50829 Colorado Alley","Address2":"19th Floor","City":"San Bernardino","State":"CA","Zip":"92410","Description":null,"SalesValue":"$1544466.32"},
{"NoOfRooms":5,"NoOfBathrooms":5,"SqFeet":9228,"Address1":"190 Judy Point","Address2":"11th Floor","City":"Palo Alto","State":"CA","Zip":"94302","Description":null,"SalesValue":"$7936217.96"},
{"NoOfRooms":1,"NoOfBathrooms":3,"SqFeet":5723,"Address1":"416 Eliot Avenue","Address2":"Room 559","City":"Pomona","State":"CA","Zip":"91797","Description":null,"SalesValue":"$6843856.44"},
{"NoOfRooms":5,"NoOfBathrooms":2,"SqFeet":8958,"Address1":"0 Thierer Parkway","Address2":"PO Box 93400","City":"San Diego","State":"CA","Zip":"92121","Description":null,"SalesValue":"$4371325.91"},
{"NoOfRooms":4,"NoOfBathrooms":1,"SqFeet":294,"Address1":"01368 Esch Center","Address2":"PO Box 84547","City":"Irvine","State":"CA","Zip":"92717","Description":null,"SalesValue":"$3215842.44"},
{"NoOfRooms":3,"NoOfBathrooms":3,"SqFeet":9293,"Address1":"34 Talmadge Court","Address2":"Suite 6","City":"Los Angeles","State":"CA","Zip":"90081","Description":null,"SalesValue":"$3369997.42"},
{"NoOfRooms":3,"NoOfBathrooms":4,"SqFeet":8479,"Address1":"63 Holy Cross Point","Address2":"Suite 92","City":"Burbank","State":"CA","Zip":"91505","Description":null,"SalesValue":"$648944.56"},
{"NoOfRooms":5,"NoOfBathrooms":4,"SqFeet":4007,"Address1":"72279 Orin Junction","Address2":"PO Box 74983","City":"Orange","State":"CA","Zip":"92867","Description":null,"SalesValue":"$1570292.60"},
{"NoOfRooms":4,"NoOfBathrooms":4,"SqFeet":4855,"Address1":"60 Boyd Way","Address2":"Room 526","City":"Orange","State":"CA","Zip":"92668","Description":null,"SalesValue":"$9374027.73"},
{"NoOfRooms":1,"NoOfBathrooms":3,"SqFeet":4282,"Address1":"67 Clove Parkway","Address2":"Suite 55","City":"Sacramento","State":"CA","Zip":"94245","Description":null,"SalesValue":"$4193912.15"},
{"NoOfRooms":3,"NoOfBathrooms":5,"SqFeet":2762,"Address1":"2 Mallard Pass","Address2":"Apt 413","City":"San Jose","State":"CA","Zip":"95133","Description":null,"SalesValue":"$6160019.62"},
{"NoOfRooms":2,"NoOfBathrooms":3,"SqFeet":8125,"Address1":"964 Cody Junction","Address2":"Suite 1","City":"San Jose","State":"CA","Zip":"95123","Description":null,"SalesValue":"$6544608.82"},
{"NoOfRooms":2,"NoOfBathrooms":2,"SqFeet":2727,"Address1":"1 Sage Avenue","Address2":"PO Box 61795","City":"Sacramento","State":"CA","Zip":"94230","Description":null,"SalesValue":"$1899413.06"},
{"NoOfRooms":2,"NoOfBathrooms":1,"SqFeet":8065,"Address1":"25 Hayes Plaza","Address2":"PO Box 22960","City":"Santa Ana","State":"CA","Zip":"92725","Description":null,"SalesValue":"$5441956.25"},
{"NoOfRooms":2,"NoOfBathrooms":3,"SqFeet":8202,"Address1":"034 Jenna Junction","Address2":"Room 265","City":"Sacramento","State":"CA","Zip":"94291","Description":null,"SalesValue":"$4109987.74"},
{"NoOfRooms":1,"NoOfBathrooms":2,"SqFeet":6246,"Address1":"405 Ramsey Junction","Address2":"PO Box 17952","City":"Burbank","State":"CA","Zip":"91505","Description":null,"SalesValue":"$4716746.67"},
{"NoOfRooms":2,"NoOfBathrooms":5,"SqFeet":4124,"Address1":"06 Fieldstone Plaza","Address2":"PO Box 19838","City":"Sunnyvale","State":"CA","Zip":"94089","Description":null,"SalesValue":"$3871011.33"},
{"NoOfRooms":3,"NoOfBathrooms":4,"SqFeet":8787,"Address1":"5 Summit Avenue","Address2":"Room 786","City":"Sacramento","State":"CA","Zip":"94230","Description":null,"SalesValue":"$7668655.62"},
{"NoOfRooms":1,"NoOfBathrooms":5,"SqFeet":8698,"Address1":"97778 Sunfield Pass","Address2":"PO Box 38221","City":"Bakersfield","State":"CA","Zip":"93311","Description":null,"SalesValue":"$5105025.69"},
{"NoOfRooms":3,"NoOfBathrooms":2,"SqFeet":981,"Address1":"12698 Almo Road","Address2":"Suite 41","City":"San Jose","State":"CA","Zip":"95160","Description":null,"SalesValue":"$8456438.28"},
{"NoOfRooms":3,"NoOfBathrooms":4,"SqFeet":4607,"Address1":"3 Sommers Point","Address2":"Room 834","City":"Ventura","State":"CA","Zip":"93005","Description":null,"SalesValue":"$2186873.11"},
{"NoOfRooms":3,"NoOfBathrooms":2,"SqFeet":515,"Address1":"0 Lakewood Alley","Address2":"Apt 1696","City":"San Bernardino","State":"CA","Zip":"92415","Description":null,"SalesValue":"$7492207.39"},
{"NoOfRooms":4,"NoOfBathrooms":1,"SqFeet":1057,"Address1":"76 Fairview Avenue","Address2":"5th Floor","City":"Fresno","State":"CA","Zip":"93726","Description":null,"SalesValue":"$7132751.24"},
{"NoOfRooms":1,"NoOfBathrooms":4,"SqFeet":1465,"Address1":"723 Westend Trail","Address2":"15th Floor","City":"Ventura","State":"CA","Zip":"93005","Description":null,"SalesValue":"$8089146.07"},
{"NoOfRooms":3,"NoOfBathrooms":1,"SqFeet":2205,"Address1":"364 Clyde Gallagher Pass","Address2":"Suite 79","City":"Santa Barbara","State":"CA","Zip":"93150","Description":null,"SalesValue":"$808126.78"},
{"NoOfRooms":4,"NoOfBathrooms":1,"SqFeet":1553,"Address1":"7919 Esker Center","Address2":"Suite 10","City":"Inglewood","State":"CA","Zip":"90398","Description":null,"SalesValue":"$5209237.96"},
{"NoOfRooms":1,"NoOfBathrooms":1,"SqFeet":4013,"Address1":"36 Drewry Street","Address2":"Room 1829","City":"Fresno","State":"CA","Zip":"93750","Description":null,"SalesValue":"$7549150.95"},
{"NoOfRooms":1,"NoOfBathrooms":4,"SqFeet":9823,"Address1":"9307 Warbler Terrace","Address2":"8th Floor","City":"San Diego","State":"CA","Zip":"92110","Description":null,"SalesValue":"$6761927.32"},
{"NoOfRooms":2,"NoOfBathrooms":5,"SqFeet":1557,"Address1":"38 Golf Course Terrace","Address2":"Apt 1545","City":"San Diego","State":"CA","Zip":"92176","Description":null,"SalesValue":"$715719.72"},
{"NoOfRooms":5,"NoOfBathrooms":2,"SqFeet":2571,"Address1":"0911 Holmberg Plaza","Address2":"Room 676","City":"Sacramento","State":"CA","Zip":"95813","Description":null,"SalesValue":"$2649853.89"},
{"NoOfRooms":2,"NoOfBathrooms":2,"SqFeet":8688,"Address1":"2 Dawn Center","Address2":"Room 1250","City":"Redwood City","State":"CA","Zip":"94064","Description":null,"SalesValue":"$6201098.01"},
{"NoOfRooms":2,"NoOfBathrooms":2,"SqFeet":2882,"Address1":"316 Boyd Plaza","Address2":"Room 886","City":"San Bernardino","State":"CA","Zip":"92405","Description":null,"SalesValue":"$3409447.48"},
{"NoOfRooms":5,"NoOfBathrooms":1,"SqFeet":9631,"Address1":"1467 Logan Court","Address2":"12th Floor","City":"Sacramento","State":"CA","Zip":"94297","Description":null,"SalesValue":"$4288531.78"},
{"NoOfRooms":3,"NoOfBathrooms":2,"SqFeet":2893,"Address1":"5383 Rigney Road","Address2":"20th Floor","City":"San Diego","State":"CA","Zip":"92165","Description":null,"SalesValue":"$4639987.82"},
{"NoOfRooms":2,"NoOfBathrooms":4,"SqFeet":8340,"Address1":"89966 Randy Trail","Address2":"Apt 1134","City":"San Jose","State":"CA","Zip":"95108","Description":null,"SalesValue":"$6442973.67"},
{"NoOfRooms":2,"NoOfBathrooms":4,"SqFeet":8544,"Address1":"01 Starling Park","Address2":"Suite 26","City":"San Diego","State":"CA","Zip":"92127","Description":null,"SalesValue":"$4253475.96"},
{"NoOfRooms":1,"NoOfBathrooms":1,"SqFeet":3779,"Address1":"0 Gina Alley","Address2":"Room 1766","City":"Los Angeles","State":"CA","Zip":"90060","Description":null,"SalesValue":"$824943.62"},
{"NoOfRooms":1,"NoOfBathrooms":2,"SqFeet":3677,"Address1":"42 Dawn Center","Address2":"Room 861","City":"Fresno","State":"CA","Zip":"93773","Description":null,"SalesValue":"$2077450.80"},
{"NoOfRooms":1,"NoOfBathrooms":3,"SqFeet":9159,"Address1":"528 Iowa Crossing","Address2":"PO Box 51550","City":"Berkeley","State":"CA","Zip":"94705","Description":null,"SalesValue":"$2555863.47"},
{"NoOfRooms":2,"NoOfBathrooms":4,"SqFeet":5075,"Address1":"41 Nelson Hill","Address2":"Suite 57","City":"San Jose","State":"CA","Zip":"95194","Description":null,"SalesValue":"$2981689.36"},
{"NoOfRooms":2,"NoOfBathrooms":1,"SqFeet":8890,"Address1":"9801 Rieder Junction","Address2":"14th Floor","City":"Fresno","State":"CA","Zip":"93721","Description":null,"SalesValue":"$9692456.73"},
{"NoOfRooms":4,"NoOfBathrooms":2,"SqFeet":6681,"Address1":"876 Maple Point","Address2":"Room 1849","City":"Stockton","State":"CA","Zip":"95205","Description":null,"SalesValue":"$5282132.71"},
{"NoOfRooms":4,"NoOfBathrooms":3,"SqFeet":3984,"Address1":"403 Lakeland Pass","Address2":"Apt 1701","City":"Sacramento","State":"CA","Zip":"94280","Description":null,"SalesValue":"$1747608.33"},
{"NoOfRooms":4,"NoOfBathrooms":4,"SqFeet":7756,"Address1":"803 Warrior Place","Address2":"Suite 96","City":"Los Angeles","State":"CA","Zip":"90055","Description":null,"SalesValue":"$4284306.79"},
{"NoOfRooms":4,"NoOfBathrooms":1,"SqFeet":8544,"Address1":"99 Troy Parkway","Address2":"PO Box 4401","City":"San Diego","State":"CA","Zip":"92132","Description":null,"SalesValue":"$6958751.79"},
{"NoOfRooms":1,"NoOfBathrooms":3,"SqFeet":4156,"Address1":"7 David Circle","Address2":"7th Floor","City":"South Lake Tahoe","State":"CA","Zip":"96154","Description":null,"SalesValue":"$2829816.91"},
{"NoOfRooms":2,"NoOfBathrooms":4,"SqFeet":3574,"Address1":"1 Harper Junction","Address2":"20th Floor","City":"Riverside","State":"CA","Zip":"92519","Description":null,"SalesValue":"$9317485.20"},
{"NoOfRooms":4,"NoOfBathrooms":2,"SqFeet":8255,"Address1":"18475 Forest Run Lane","Address2":"Suite 73","City":"Corona","State":"CA","Zip":"92878","Description":null,"SalesValue":"$3789631.54"},
{"NoOfRooms":1,"NoOfBathrooms":4,"SqFeet":3973,"Address1":"75 Bayside Avenue","Address2":"Apt 1693","City":"Los Angeles","State":"CA","Zip":"90060","Description":null,"SalesValue":"$5199884.84"},
{"NoOfRooms":3,"NoOfBathrooms":5,"SqFeet":3230,"Address1":"5 North Road","Address2":"Apt 1211","City":"San Francisco","State":"CA","Zip":"94105","Description":null,"SalesValue":"$9728490.93"},
{"NoOfRooms":3,"NoOfBathrooms":5,"SqFeet":2812,"Address1":"909 Lighthouse Bay Way","Address2":"9th Floor","City":"Bakersfield","State":"CA","Zip":"93386","Description":null,"SalesValue":"$9362960.19"},
{"NoOfRooms":5,"NoOfBathrooms":2,"SqFeet":7003,"Address1":"1 Anthes Way","Address2":"18th Floor","City":"Long Beach","State":"CA","Zip":"90805","Description":null,"SalesValue":"$7672165.98"},
{"NoOfRooms":3,"NoOfBathrooms":3,"SqFeet":1410,"Address1":"70 Longview Drive","Address2":"Room 501","City":"Sacramento","State":"CA","Zip":"94291","Description":null,"SalesValue":"$9756984.76"},
{"NoOfRooms":4,"NoOfBathrooms":2,"SqFeet":2132,"Address1":"75 Russell Alley","Address2":"Suite 56","City":"Visalia","State":"CA","Zip":"93291","Description":null,"SalesValue":"$5153301.97"},
{"NoOfRooms":4,"NoOfBathrooms":1,"SqFeet":8662,"Address1":"06 Beilfuss Hill","Address2":"PO Box 64478","City":"Riverside","State":"CA","Zip":"92513","Description":null,"SalesValue":"$7782490.19"},
{"NoOfRooms":3,"NoOfBathrooms":4,"SqFeet":8730,"Address1":"62 Prairie Rose Street","Address2":"Suite 46","City":"San Diego","State":"CA","Zip":"92196","Description":null,"SalesValue":"$2642756.35"},
{"NoOfRooms":3,"NoOfBathrooms":4,"SqFeet":1261,"Address1":"47 Browning Center","Address2":"PO Box 18307","City":"San Diego","State":"CA","Zip":"92110","Description":null,"SalesValue":"$6126505.44"},
{"NoOfRooms":1,"NoOfBathrooms":5,"SqFeet":854,"Address1":"51 Kennedy Road","Address2":"Room 207","City":"Sacramento","State":"CA","Zip":"95823","Description":null,"SalesValue":"$3721607.83"},
{"NoOfRooms":2,"NoOfBathrooms":4,"SqFeet":4266,"Address1":"9080 Melrose Center","Address2":"Suite 71","City":"San Francisco","State":"CA","Zip":"94132","Description":null,"SalesValue":"$3230594.20"},
{"NoOfRooms":3,"NoOfBathrooms":4,"SqFeet":8171,"Address1":"94 Rutledge Place","Address2":"PO Box 30218","City":"San Bernardino","State":"CA","Zip":"92410","Description":null,"SalesValue":"$4034901.11"},
{"NoOfRooms":3,"NoOfBathrooms":3,"SqFeet":3495,"Address1":"34 Northport Park","Address2":"Apt 1474","City":"South Lake Tahoe","State":"CA","Zip":"96154","Description":null,"SalesValue":"$9728463.04"},
{"NoOfRooms":5,"NoOfBathrooms":2,"SqFeet":1656,"Address1":"8727 Dwight Hill","Address2":"PO Box 39130","City":"Los Angeles","State":"CA","Zip":"90094","Description":null,"SalesValue":"$9304413.56"},
{"NoOfRooms":3,"NoOfBathrooms":1,"SqFeet":4644,"Address1":"3832 Oxford Street","Address2":"PO Box 18254","City":"Pasadena","State":"CA","Zip":"91109","Description":null,"SalesValue":"$7790142.21"},
{"NoOfRooms":1,"NoOfBathrooms":1,"SqFeet":1726,"Address1":"510 Merrick Parkway","Address2":"Apt 552","City":"San Jose","State":"CA","Zip":"95118","Description":null,"SalesValue":"$1057154.24"},
{"NoOfRooms":5,"NoOfBathrooms":3,"SqFeet":5423,"Address1":"9 Pennsylvania Junction","Address2":"Room 956","City":"San Jose","State":"CA","Zip":"95108","Description":null,"SalesValue":"$8417633.19"},
{"NoOfRooms":1,"NoOfBathrooms":5,"SqFeet":6665,"Address1":"83089 Cherokee Terrace","Address2":"Suite 69","City":"Oakland","State":"CA","Zip":"94622","Description":null,"SalesValue":"$3358103.24"},
{"NoOfRooms":5,"NoOfBathrooms":3,"SqFeet":7287,"Address1":"87 Truax Park","Address2":"PO Box 85139","City":"Inglewood","State":"CA","Zip":"90310","Description":null,"SalesValue":"$2669889.93"},
{"NoOfRooms":2,"NoOfBathrooms":1,"SqFeet":7730,"Address1":"7 Rieder Avenue","Address2":"11th Floor","City":"Inglewood","State":"CA","Zip":"90310","Description":null,"SalesValue":"$5862839.27"},
{"NoOfRooms":1,"NoOfBathrooms":4,"SqFeet":8413,"Address1":"373 Shoshone Parkway","Address2":"Apt 1863","City":"San Francisco","State":"CA","Zip":"94105","Description":null,"SalesValue":"$5355877.27"},
{"NoOfRooms":5,"NoOfBathrooms":1,"SqFeet":9650,"Address1":"4305 Corscot Park","Address2":"Suite 25","City":"Los Angeles","State":"CA","Zip":"90055","Description":null,"SalesValue":"$7384596.89"},
{"NoOfRooms":3,"NoOfBathrooms":2,"SqFeet":1581,"Address1":"1 Sachs Place","Address2":"Room 603","City":"San Luis Obispo","State":"CA","Zip":"93407","Description":null,"SalesValue":"$8144783.20"},
{"NoOfRooms":4,"NoOfBathrooms":2,"SqFeet":6281,"Address1":"7856 Vera Pass","Address2":"5th Floor","City":"Anaheim","State":"CA","Zip":"92825","Description":null,"SalesValue":"$2426569.63"},
{"NoOfRooms":3,"NoOfBathrooms":5,"SqFeet":7216,"Address1":"0 Cordelia Avenue","Address2":"Room 1199","City":"Los Angeles","State":"CA","Zip":"90025","Description":null,"SalesValue":"$4505391.41"},
{"NoOfRooms":4,"NoOfBathrooms":4,"SqFeet":5349,"Address1":"64532 Ridge Oak Terrace","Address2":"Suite 29","City":"Escondido","State":"CA","Zip":"92030","Description":null,"SalesValue":"$9287126.73"},
{"NoOfRooms":5,"NoOfBathrooms":3,"SqFeet":3122,"Address1":"79 Talisman Center","Address2":"Apt 876","City":"Fresno","State":"CA","Zip":"93704","Description":null,"SalesValue":"$3755770.82"},
{"NoOfRooms":4,"NoOfBathrooms":2,"SqFeet":3969,"Address1":"05628 Stephen Drive","Address2":"19th Floor","City":"Palmdale","State":"CA","Zip":"93591","Description":null,"SalesValue":"$6421233.17"},
{"NoOfRooms":4,"NoOfBathrooms":5,"SqFeet":3291,"Address1":"47 Springview Court","Address2":"5th Floor","City":"Sacramento","State":"CA","Zip":"94263","Description":null,"SalesValue":"$1467670.15"},
{"NoOfRooms":1,"NoOfBathrooms":4,"SqFeet":3601,"Address1":"205 La Follette Avenue","Address2":"Room 469","City":"Sacramento","State":"CA","Zip":"94237","Description":null,"SalesValue":"$3631744.10"},
{"NoOfRooms":2,"NoOfBathrooms":2,"SqFeet":9265,"Address1":"042 Lakewood Plaza","Address2":"Room 1560","City":"Los Angeles","State":"CA","Zip":"90189","Description":null,"SalesValue":"$4349292.01"},
{"NoOfRooms":2,"NoOfBathrooms":2,"SqFeet":4800,"Address1":"07 Independence Circle","Address2":"Room 764","City":"Burbank","State":"CA","Zip":"91520","Description":null,"SalesValue":"$2577859.34"},
{"NoOfRooms":1,"NoOfBathrooms":5,"SqFeet":1345,"Address1":"6 Hanson Road","Address2":"PO Box 97788","City":"Pasadena","State":"CA","Zip":"91125","Description":null,"SalesValue":"$8643744.19"},
{"NoOfRooms":4,"NoOfBathrooms":3,"SqFeet":4643,"Address1":"3 Westport Park","Address2":"19th Floor","City":"Oakland","State":"CA","Zip":"94660","Description":null,"SalesValue":"$8970227.82"},
{"NoOfRooms":1,"NoOfBathrooms":1,"SqFeet":3222,"Address1":"7296 Monterey Hill","Address2":"PO Box 86903","City":"Stockton","State":"CA","Zip":"95210","Description":null,"SalesValue":"$3479426.91"},
{"NoOfRooms":5,"NoOfBathrooms":5,"SqFeet":9626,"Address1":"77 Mayfield Parkway","Address2":"Room 1905","City":"Santa Ana","State":"CA","Zip":"92705","Description":null,"SalesValue":"$7186699.52"},
{"NoOfRooms":3,"NoOfBathrooms":2,"SqFeet":6629,"Address1":"6 Oak Valley Pass","Address2":"PO Box 34254","City":"Chico","State":"CA","Zip":"95973","Description":null,"SalesValue":"$6353097.82"},
{"NoOfRooms":3,"NoOfBathrooms":3,"SqFeet":6576,"Address1":"331 Elmside Avenue","Address2":"Apt 945","City":"Los Angeles","State":"CA","Zip":"90081","Description":null,"SalesValue":"$7291031.38"},
{"NoOfRooms":2,"NoOfBathrooms":2,"SqFeet":8838,"Address1":"1263 Browning Road","Address2":"PO Box 79921","City":"Los Angeles","State":"CA","Zip":"90040","Description":null,"SalesValue":"$8944784.02"},
{"NoOfRooms":4,"NoOfBathrooms":4,"SqFeet":2795,"Address1":"651 Londonderry Junction","Address2":"7th Floor","City":"San Francisco","State":"CA","Zip":"94177","Description":null,"SalesValue":"$8497493.61"},
{"NoOfRooms":3,"NoOfBathrooms":3,"SqFeet":1917,"Address1":"77 Kennedy Trail","Address2":"PO Box 57077","City":"San Francisco","State":"CA","Zip":"94169","Description":null,"SalesValue":"$5271385.87"},
{"NoOfRooms":4,"NoOfBathrooms":4,"SqFeet":1237,"Address1":"55 Transport Pass","Address2":"14th Floor","City":"San Jose","State":"CA","Zip":"95160","Description":null,"SalesValue":"$6832773.35"},
{"NoOfRooms":2,"NoOfBathrooms":5,"SqFeet":4563,"Address1":"1 Starling Parkway","Address2":"Room 1006","City":"Los Angeles","State":"CA","Zip":"90189","Description":null,"SalesValue":"$2376819.20"},
{"NoOfRooms":5,"NoOfBathrooms":4,"SqFeet":3405,"Address1":"7 Gateway Court","Address2":"PO Box 62505","City":"Irvine","State":"CA","Zip":"92717","Description":null,"SalesValue":"$8046788.21"},
{"NoOfRooms":4,"NoOfBathrooms":1,"SqFeet":1584,"Address1":"50937 Lotheville Plaza","Address2":"Room 1408","City":"Inglewood","State":"CA","Zip":"90310","Description":null,"SalesValue":"$705009.55"},
{"NoOfRooms":3,"NoOfBathrooms":2,"SqFeet":800,"Address1":"05 Bluestem Lane","Address2":"Room 695","City":"Long Beach","State":"CA","Zip":"90831","Description":null,"SalesValue":"$8244079.93"},
{"NoOfRooms":3,"NoOfBathrooms":3,"SqFeet":8387,"Address1":"9 Barnett Pass","Address2":"Apt 647","City":"Santa Barbara","State":"CA","Zip":"93111","Description":null,"SalesValue":"$1743086.58"},
{"NoOfRooms":1,"NoOfBathrooms":3,"SqFeet":7946,"Address1":"4944 Rigney Drive","Address2":"PO Box 11176","City":"Torrance","State":"CA","Zip":"90505","Description":null,"SalesValue":"$8535512.09"},
{"NoOfRooms":5,"NoOfBathrooms":4,"SqFeet":6874,"Address1":"5 Northview Road","Address2":"10th Floor","City":"Sacramento","State":"CA","Zip":"95818","Description":null,"SalesValue":"$8700043.03"},
{"NoOfRooms":4,"NoOfBathrooms":4,"SqFeet":9559,"Address1":"77 Onsgard Trail","Address2":"1st Floor","City":"San Jose","State":"CA","Zip":"95194","Description":null,"SalesValue":"$7470095.98"},
{"NoOfRooms":1,"NoOfBathrooms":3,"SqFeet":3752,"Address1":"537 Jackson Alley","Address2":"Room 543","City":"Los Angeles","State":"CA","Zip":"90055","Description":null,"SalesValue":"$9192483.45"},
{"NoOfRooms":5,"NoOfBathrooms":3,"SqFeet":6776,"Address1":"110 Warner Alley","Address2":"Room 1283","City":"Los Angeles","State":"CA","Zip":"90030","Description":null,"SalesValue":"$5455324.44"},
{"NoOfRooms":2,"NoOfBathrooms":4,"SqFeet":9642,"Address1":"70 Westport Street","Address2":"Apt 1523","City":"Van Nuys","State":"CA","Zip":"91411","Description":null,"SalesValue":"$8845962.90"},
{"NoOfRooms":3,"NoOfBathrooms":2,"SqFeet":7077,"Address1":"105 Tennyson Alley","Address2":"Apt 1330","City":"San Francisco","State":"CA","Zip":"94147","Description":null,"SalesValue":"$9549246.61"},
{"NoOfRooms":3,"NoOfBathrooms":1,"SqFeet":2020,"Address1":"0 Sullivan Pass","Address2":"Room 1495","City":"Sacramento","State":"CA","Zip":"94237","Description":null,"SalesValue":"$6133752.34"},
{"NoOfRooms":1,"NoOfBathrooms":1,"SqFeet":8496,"Address1":"95 Lakewood Gardens Alley","Address2":"Apt 814","City":"Petaluma","State":"CA","Zip":"94975","Description":null,"SalesValue":"$4333218.50"},
{"NoOfRooms":2,"NoOfBathrooms":2,"SqFeet":3253,"Address1":"28 Westend Pass","Address2":"9th Floor","City":"Pasadena","State":"CA","Zip":"91186","Description":null,"SalesValue":"$6320666.08"},
{"NoOfRooms":3,"NoOfBathrooms":1,"SqFeet":1528,"Address1":"784 Merchant Drive","Address2":"Apt 1699","City":"San Jose","State":"CA","Zip":"95194","Description":null,"SalesValue":"$2414278.96"},
{"NoOfRooms":4,"NoOfBathrooms":4,"SqFeet":4357,"Address1":"35976 Petterle Way","Address2":"Suite 96","City":"Sacramento","State":"CA","Zip":"94273","Description":null,"SalesValue":"$564159.29"},
{"NoOfRooms":2,"NoOfBathrooms":3,"SqFeet":8829,"Address1":"6821 Bluestem Alley","Address2":"Suite 61","City":"Mountain View","State":"CA","Zip":"94042","Description":null,"SalesValue":"$7408197.90"},
{"NoOfRooms":2,"NoOfBathrooms":2,"SqFeet":6521,"Address1":"01 Dapin Circle","Address2":"Room 143","City":"Fresno","State":"CA","Zip":"93715","Description":null,"SalesValue":"$7910741.32"},
{"NoOfRooms":1,"NoOfBathrooms":3,"SqFeet":6212,"Address1":"375 Briar Crest Parkway","Address2":"Room 752","City":"Inglewood","State":"CA","Zip":"90305","Description":null,"SalesValue":"$3057839.82"},
{"NoOfRooms":5,"NoOfBathrooms":3,"SqFeet":6432,"Address1":"06565 Sunfield Way","Address2":"4th Floor","City":"San Francisco","State":"CA","Zip":"94132","Description":null,"SalesValue":"$3625515.72"},
{"NoOfRooms":5,"NoOfBathrooms":5,"SqFeet":6205,"Address1":"54665 Stuart Junction","Address2":"2nd Floor","City":"Sacramento","State":"CA","Zip":"95894","Description":null,"SalesValue":"$3659873.73"},
{"NoOfRooms":5,"NoOfBathrooms":3,"SqFeet":8878,"Address1":"8 Dwight Avenue","Address2":"Room 39","City":"Long Beach","State":"CA","Zip":"90810","Description":null,"SalesValue":"$9152783.84"},
{"NoOfRooms":1,"NoOfBathrooms":4,"SqFeet":4931,"Address1":"1880 Brickson Park Pass","Address2":"Room 32","City":"Sacramento","State":"CA","Zip":"95813","Description":null,"SalesValue":"$4285030.63"},
{"NoOfRooms":2,"NoOfBathrooms":4,"SqFeet":8948,"Address1":"122 Eliot Plaza","Address2":"Room 539","City":"San Jose","State":"CA","Zip":"95155","Description":null,"SalesValue":"$9894096.71"},
{"NoOfRooms":5,"NoOfBathrooms":5,"SqFeet":8457,"Address1":"3 Coleman Street","Address2":"PO Box 27965","City":"Garden Grove","State":"CA","Zip":"92645","Description":null,"SalesValue":"$6617105.99"},
{"NoOfRooms":4,"NoOfBathrooms":1,"SqFeet":1573,"Address1":"175 Red Cloud Avenue","Address2":"PO Box 69524","City":"Richmond","State":"CA","Zip":"94807","Description":null,"SalesValue":"$6722912.77"},
{"NoOfRooms":4,"NoOfBathrooms":3,"SqFeet":9624,"Address1":"02900 Hoard Hill","Address2":"17th Floor","City":"Chula Vista","State":"CA","Zip":"91913","Description":null,"SalesValue":"$6825154.76"},
{"NoOfRooms":5,"NoOfBathrooms":4,"SqFeet":5015,"Address1":"39 Commercial Road","Address2":"Suite 6","City":"San Francisco","State":"CA","Zip":"94169","Description":null,"SalesValue":"$6327480.74"},
{"NoOfRooms":4,"NoOfBathrooms":4,"SqFeet":7311,"Address1":"0101 Calypso Center","Address2":"Apt 1642","City":"San Bernardino","State":"CA","Zip":"92424","Description":null,"SalesValue":"$853673.60"},
{"NoOfRooms":3,"NoOfBathrooms":3,"SqFeet":5890,"Address1":"74 Declaration Parkway","Address2":"Suite 56","City":"San Francisco","State":"CA","Zip":"94105","Description":null,"SalesValue":"$4180100.83"},
{"NoOfRooms":1,"NoOfBathrooms":5,"SqFeet":2567,"Address1":"5 Bobwhite Place","Address2":"19th Floor","City":"Brea","State":"CA","Zip":"92822","Description":null,"SalesValue":"$3281437.52"},
{"NoOfRooms":3,"NoOfBathrooms":5,"SqFeet":3254,"Address1":"8888 Farwell Trail","Address2":"Suite 2","City":"Brea","State":"CA","Zip":"92822","Description":null,"SalesValue":"$6884189.51"},
{"NoOfRooms":1,"NoOfBathrooms":3,"SqFeet":9650,"Address1":"83912 Eastwood Street","Address2":"Room 1934","City":"Los Angeles","State":"CA","Zip":"90035","Description":null,"SalesValue":"$9766955.14"},
{"NoOfRooms":3,"NoOfBathrooms":3,"SqFeet":7584,"Address1":"66440 Forest Terrace","Address2":"Apt 572","City":"Stockton","State":"CA","Zip":"95210","Description":null,"SalesValue":"$9443623.87"},
{"NoOfRooms":1,"NoOfBathrooms":3,"SqFeet":5088,"Address1":"12702 Thompson Pass","Address2":"Suite 55","City":"Pomona","State":"CA","Zip":"91797","Description":null,"SalesValue":"$9254805.59"},
{"NoOfRooms":2,"NoOfBathrooms":1,"SqFeet":4753,"Address1":"7 Beilfuss Plaza","Address2":"Suite 52","City":"Anaheim","State":"CA","Zip":"92825","Description":null,"SalesValue":"$9923197.00"},
{"NoOfRooms":1,"NoOfBathrooms":2,"SqFeet":8430,"Address1":"750 Northwestern Lane","Address2":"Apt 1208","City":"Modesto","State":"CA","Zip":"95354","Description":null,"SalesValue":"$9933393.83"},
{"NoOfRooms":2,"NoOfBathrooms":4,"SqFeet":5686,"Address1":"7 Cascade Drive","Address2":"Room 1267","City":"San Jose","State":"CA","Zip":"95133","Description":null,"SalesValue":"$1932362.40"},
{"NoOfRooms":4,"NoOfBathrooms":5,"SqFeet":6417,"Address1":"5 Dennis Drive","Address2":"Suite 30","City":"Burbank","State":"CA","Zip":"91520","Description":null,"SalesValue":"$1135391.57"},
{"NoOfRooms":1,"NoOfBathrooms":3,"SqFeet":113,"Address1":"1 Summit Alley","Address2":"Room 341","City":"San Francisco","State":"CA","Zip":"94159","Description":null,"SalesValue":"$8591168.83"},
{"NoOfRooms":1,"NoOfBathrooms":3,"SqFeet":2220,"Address1":"8393 Lakeland Place","Address2":"6th Floor","City":"Sacramento","State":"CA","Zip":"95823","Description":null,"SalesValue":"$5284393.19"},
{"NoOfRooms":5,"NoOfBathrooms":4,"SqFeet":9483,"Address1":"408 Green Ridge Road","Address2":"5th Floor","City":"Palmdale","State":"CA","Zip":"93591","Description":null,"SalesValue":"$6350603.84"},
{"NoOfRooms":3,"NoOfBathrooms":4,"SqFeet":7147,"Address1":"697 Evergreen Terrace","Address2":"14th Floor","City":"Irvine","State":"CA","Zip":"92612","Description":null,"SalesValue":"$883158.36"},
{"NoOfRooms":2,"NoOfBathrooms":4,"SqFeet":8022,"Address1":"15 Montana Place","Address2":"Room 1490","City":"Fullerton","State":"CA","Zip":"92835","Description":null,"SalesValue":"$6140468.80"},
{"NoOfRooms":2,"NoOfBathrooms":3,"SqFeet":6461,"Address1":"29 Johnson Terrace","Address2":"Room 232","City":"Bakersfield","State":"CA","Zip":"93386","Description":null,"SalesValue":"$5138334.92"},
{"NoOfRooms":1,"NoOfBathrooms":5,"SqFeet":7186,"Address1":"7367 Valley Edge Center","Address2":"PO Box 93385","City":"Inglewood","State":"CA","Zip":"90398","Description":null,"SalesValue":"$4432723.39"},
{"NoOfRooms":2,"NoOfBathrooms":4,"SqFeet":9258,"Address1":"9034 Harper Point","Address2":"Room 1097","City":"Sacramento","State":"CA","Zip":"95838","Description":null,"SalesValue":"$1131389.75"},
{"NoOfRooms":4,"NoOfBathrooms":3,"SqFeet":8594,"Address1":"14714 Loomis Pass","Address2":"Apt 1646","City":"Inglewood","State":"CA","Zip":"90398","Description":null,"SalesValue":"$2167682.61"},
{"NoOfRooms":1,"NoOfBathrooms":4,"SqFeet":4755,"Address1":"98 Hovde Trail","Address2":"Apt 601","City":"Los Angeles","State":"CA","Zip":"90189","Description":null,"SalesValue":"$6152799.91"},
{"NoOfRooms":5,"NoOfBathrooms":4,"SqFeet":7354,"Address1":"7755 Victoria Avenue","Address2":"Suite 35","City":"San Diego","State":"CA","Zip":"92127","Description":null,"SalesValue":"$4758045.49"},
{"NoOfRooms":1,"NoOfBathrooms":1,"SqFeet":8296,"Address1":"7495 Quincy Circle","Address2":"17th Floor","City":"Pasadena","State":"CA","Zip":"91117","Description":null,"SalesValue":"$1414605.19"},
{"NoOfRooms":2,"NoOfBathrooms":1,"SqFeet":7212,"Address1":"7 Jana Junction","Address2":"Apt 1574","City":"Modesto","State":"CA","Zip":"95397","Description":null,"SalesValue":"$7337846.75"},
{"NoOfRooms":5,"NoOfBathrooms":2,"SqFeet":896,"Address1":"540 Lake View Pass","Address2":"Room 1657","City":"Oceanside","State":"CA","Zip":"92056","Description":null,"SalesValue":"$4397092.72"},
{"NoOfRooms":4,"NoOfBathrooms":5,"SqFeet":9355,"Address1":"4 Ilene Plaza","Address2":"PO Box 1743","City":"Berkeley","State":"CA","Zip":"94705","Description":null,"SalesValue":"$3401181.05"},
{"NoOfRooms":1,"NoOfBathrooms":5,"SqFeet":1833,"Address1":"21 Hayes Hill","Address2":"Room 1119","City":"Stockton","State":"CA","Zip":"95205","Description":null,"SalesValue":"$5355883.48"},
{"NoOfRooms":1,"NoOfBathrooms":4,"SqFeet":1871,"Address1":"976 Stephen Pass","Address2":"12th Floor","City":"Fresno","State":"CA","Zip":"93773","Description":null,"SalesValue":"$8203267.33"},
{"NoOfRooms":4,"NoOfBathrooms":3,"SqFeet":9492,"Address1":"2275 Grover Parkway","Address2":"Suite 38","City":"Hayward","State":"CA","Zip":"94544","Description":null,"SalesValue":"$6386285.06"},
{"NoOfRooms":3,"NoOfBathrooms":1,"SqFeet":8116,"Address1":"28378 Upham Plaza","Address2":"4th Floor","City":"Stockton","State":"CA","Zip":"95205","Description":null,"SalesValue":"$6130606.68"},
{"NoOfRooms":2,"NoOfBathrooms":3,"SqFeet":3775,"Address1":"8 Fulton Parkway","Address2":"Room 199","City":"Riverside","State":"CA","Zip":"92513","Description":null,"SalesValue":"$4739230.54"},
{"NoOfRooms":5,"NoOfBathrooms":3,"SqFeet":9514,"Address1":"3551 New Castle Junction","Address2":"Apt 1230","City":"Los Angeles","State":"CA","Zip":"90025","Description":null,"SalesValue":"$8223421.74"},
{"NoOfRooms":5,"NoOfBathrooms":3,"SqFeet":6357,"Address1":"57610 Larry Hill","Address2":"4th Floor","City":"Ventura","State":"CA","Zip":"93005","Description":null,"SalesValue":"$5911453.16"},
{"NoOfRooms":1,"NoOfBathrooms":3,"SqFeet":1980,"Address1":"8744 Sunnyside Court","Address2":"Apt 1515","City":"Sacramento","State":"CA","Zip":"95865","Description":null,"SalesValue":"$7527527.82"},
{"NoOfRooms":5,"NoOfBathrooms":1,"SqFeet":1543,"Address1":"24572 Mcguire Circle","Address2":"PO Box 68099","City":"Fresno","State":"CA","Zip":"93762","Description":null,"SalesValue":"$646371.20"},
{"NoOfRooms":4,"NoOfBathrooms":2,"SqFeet":4059,"Address1":"3 Jana Road","Address2":"Apt 1789","City":"Escondido","State":"CA","Zip":"92030","Description":null,"SalesValue":"$923689.44"},
{"NoOfRooms":2,"NoOfBathrooms":2,"SqFeet":7519,"Address1":"03 Emmet Pass","Address2":"18th Floor","City":"Sacramento","State":"CA","Zip":"95828","Description":null,"SalesValue":"$9019811.74"},
{"NoOfRooms":2,"NoOfBathrooms":1,"SqFeet":7952,"Address1":"30217 Fieldstone Alley","Address2":"PO Box 31015","City":"Sacramento","State":"CA","Zip":"95838","Description":null,"SalesValue":"$3608423.32"},
{"NoOfRooms":4,"NoOfBathrooms":1,"SqFeet":3208,"Address1":"64668 Cody Road","Address2":"11th Floor","City":"San Bernardino","State":"CA","Zip":"92415","Description":null,"SalesValue":"$7615144.94"},
{"NoOfRooms":5,"NoOfBathrooms":1,"SqFeet":1009,"Address1":"73486 Glendale Parkway","Address2":"18th Floor","City":"Sacramento","State":"CA","Zip":"95833","Description":null,"SalesValue":"$5328988.24"},
{"NoOfRooms":3,"NoOfBathrooms":1,"SqFeet":8106,"Address1":"5799 Sachs Parkway","Address2":"Suite 23","City":"Sacramento","State":"CA","Zip":"94291","Description":null,"SalesValue":"$1551184.86"},
{"NoOfRooms":1,"NoOfBathrooms":4,"SqFeet":1110,"Address1":"3 Mockingbird Pass","Address2":"PO Box 11181","City":"San Jose","State":"CA","Zip":"95128","Description":null,"SalesValue":"$4942285.83"},
{"NoOfRooms":2,"NoOfBathrooms":2,"SqFeet":6009,"Address1":"4 Sommers Avenue","Address2":"PO Box 48750","City":"Fresno","State":"CA","Zip":"93721","Description":null,"SalesValue":"$3272974.03"},
{"NoOfRooms":3,"NoOfBathrooms":4,"SqFeet":5111,"Address1":"2 Harbort Terrace","Address2":"PO Box 29023","City":"San Diego","State":"CA","Zip":"92137","Description":null,"SalesValue":"$5957787.04"},
{"NoOfRooms":4,"NoOfBathrooms":4,"SqFeet":8238,"Address1":"32 Little Fleur Terrace","Address2":"Suite 29","City":"Oakland","State":"CA","Zip":"94616","Description":null,"SalesValue":"$6133266.01"},
{"NoOfRooms":2,"NoOfBathrooms":4,"SqFeet":7005,"Address1":"57 New Castle Lane","Address2":"Apt 452","City":"Sacramento","State":"CA","Zip":"95833","Description":null,"SalesValue":"$1303864.95"},
{"NoOfRooms":2,"NoOfBathrooms":5,"SqFeet":5689,"Address1":"2310 Weeping Birch Plaza","Address2":"Apt 618","City":"Oakland","State":"CA","Zip":"94660","Description":null,"SalesValue":"$5975488.60"},
{"NoOfRooms":5,"NoOfBathrooms":1,"SqFeet":1087,"Address1":"937 Menomonie Drive","Address2":"Apt 1791","City":"San Jose","State":"CA","Zip":"95128","Description":null,"SalesValue":"$9610895.47"},
{"NoOfRooms":1,"NoOfBathrooms":3,"SqFeet":219,"Address1":"6 6th Trail","Address2":"20th Floor","City":"Long Beach","State":"CA","Zip":"90840","Description":null,"SalesValue":"$1694347.73"},
{"NoOfRooms":4,"NoOfBathrooms":5,"SqFeet":2026,"Address1":"45 Crowley Plaza","Address2":"Suite 87","City":"Corona","State":"CA","Zip":"92883","Description":null,"SalesValue":"$632742.48"},
{"NoOfRooms":4,"NoOfBathrooms":4,"SqFeet":1368,"Address1":"920 Beilfuss Drive","Address2":"PO Box 91300","City":"Inglewood","State":"CA","Zip":"90305","Description":null,"SalesValue":"$4014152.40"},
{"NoOfRooms":3,"NoOfBathrooms":5,"SqFeet":6667,"Address1":"0766 Ronald Regan Crossing","Address2":"Apt 522","City":"Hayward","State":"CA","Zip":"94544","Description":null,"SalesValue":"$7048619.17"},
{"NoOfRooms":1,"NoOfBathrooms":1,"SqFeet":119,"Address1":"4290 Schiller Trail","Address2":"Apt 1297","City":"Salinas","State":"CA","Zip":"93907","Description":null,"SalesValue":"$9602867.43"},
{"NoOfRooms":5,"NoOfBathrooms":4,"SqFeet":5404,"Address1":"43 Ruskin Circle","Address2":"Apt 1037","City":"Orange","State":"CA","Zip":"92867","Description":null,"SalesValue":"$5496370.84"},
{"NoOfRooms":2,"NoOfBathrooms":1,"SqFeet":7551,"Address1":"520 Rowland Plaza","Address2":"PO Box 6486","City":"Burbank","State":"CA","Zip":"91505","Description":null,"SalesValue":"$739340.69"},
{"NoOfRooms":1,"NoOfBathrooms":5,"SqFeet":3927,"Address1":"1908 Fremont Alley","Address2":"Suite 45","City":"Pasadena","State":"CA","Zip":"91199","Description":null,"SalesValue":"$2934435.30"},
{"NoOfRooms":5,"NoOfBathrooms":3,"SqFeet":2620,"Address1":"9 Twin Pines Street","Address2":"17th Floor","City":"Escondido","State":"CA","Zip":"92030","Description":null,"SalesValue":"$2377560.82"},
{"NoOfRooms":4,"NoOfBathrooms":4,"SqFeet":548,"Address1":"2152 Daystar Park","Address2":"Room 1200","City":"Oakland","State":"CA","Zip":"94616","Description":null,"SalesValue":"$7130402.33"},
{"NoOfRooms":3,"NoOfBathrooms":1,"SqFeet":673,"Address1":"88766 Manley Alley","Address2":"Apt 117","City":"Los Angeles","State":"CA","Zip":"90189","Description":null,"SalesValue":"$9024055.90"},
{"NoOfRooms":4,"NoOfBathrooms":1,"SqFeet":5041,"Address1":"25 Towne Place","Address2":"Apt 885","City":"Sacramento","State":"CA","Zip":"94237","Description":null,"SalesValue":"$7175495.51"},
{"NoOfRooms":1,"NoOfBathrooms":4,"SqFeet":7101,"Address1":"0 Thierer Avenue","Address2":"Room 810","City":"Santa Barbara","State":"CA","Zip":"93150","Description":null,"SalesValue":"$3930259.54"},
{"NoOfRooms":5,"NoOfBathrooms":1,"SqFeet":5690,"Address1":"732 Northview Alley","Address2":"PO Box 17712","City":"Sacramento","State":"CA","Zip":"94245","Description":null,"SalesValue":"$2115727.59"},
{"NoOfRooms":3,"NoOfBathrooms":1,"SqFeet":5493,"Address1":"7792 Kensington Crossing","Address2":"Room 199","City":"Los Angeles","State":"CA","Zip":"90025","Description":null,"SalesValue":"$7310181.38"},
{"NoOfRooms":1,"NoOfBathrooms":5,"SqFeet":4874,"Address1":"712 Anhalt Parkway","Address2":"Suite 92","City":"San Francisco","State":"CA","Zip":"94137","Description":null,"SalesValue":"$834225.70"},
{"NoOfRooms":5,"NoOfBathrooms":3,"SqFeet":8905,"Address1":"02 Dahle Plaza","Address2":"Room 333","City":"San Jose","State":"CA","Zip":"95173","Description":null,"SalesValue":"$5491260.38"},
{"NoOfRooms":5,"NoOfBathrooms":4,"SqFeet":6710,"Address1":"727 Mariners Cove Terrace","Address2":"PO Box 56363","City":"Sacramento","State":"CA","Zip":"95833","Description":null,"SalesValue":"$8272658.72"},
{"NoOfRooms":5,"NoOfBathrooms":2,"SqFeet":2148,"Address1":"77507 Graceland Pass","Address2":"10th Floor","City":"Petaluma","State":"CA","Zip":"94975","Description":null,"SalesValue":"$6371948.96"},
{"NoOfRooms":3,"NoOfBathrooms":5,"SqFeet":5084,"Address1":"98977 Tony Street","Address2":"Apt 1560","City":"Irvine","State":"CA","Zip":"92717","Description":null,"SalesValue":"$3983243.48"},
{"NoOfRooms":1,"NoOfBathrooms":5,"SqFeet":6312,"Address1":"95 Corscot Drive","Address2":"6th Floor","City":"North Hollywood","State":"CA","Zip":"91606","Description":null,"SalesValue":"$1516454.50"},
{"NoOfRooms":3,"NoOfBathrooms":3,"SqFeet":2867,"Address1":"79 Kenwood Junction","Address2":"Room 1760","City":"Modesto","State":"CA","Zip":"95397","Description":null,"SalesValue":"$1337492.81"},
{"NoOfRooms":4,"NoOfBathrooms":2,"SqFeet":7815,"Address1":"17499 Maple Junction","Address2":"Suite 30","City":"San Jose","State":"CA","Zip":"95118","Description":null,"SalesValue":"$5906068.49"},
{"NoOfRooms":4,"NoOfBathrooms":5,"SqFeet":1559,"Address1":"345 American Ash Way","Address2":"Room 1280","City":"Corona","State":"CA","Zip":"92883","Description":null,"SalesValue":"$5968369.19"},
{"NoOfRooms":3,"NoOfBathrooms":2,"SqFeet":5316,"Address1":"9 Harper Hill","Address2":"Suite 77","City":"Sacramento","State":"CA","Zip":"95818","Description":null,"SalesValue":"$7354999.48"},
{"NoOfRooms":2,"NoOfBathrooms":3,"SqFeet":5959,"Address1":"51 Summer Ridge Center","Address2":"PO Box 57308","City":"Oakland","State":"CA","Zip":"94616","Description":null,"SalesValue":"$2234509.08"},
{"NoOfRooms":2,"NoOfBathrooms":5,"SqFeet":6954,"Address1":"27 Ronald Regan Way","Address2":"PO Box 90159","City":"Pasadena","State":"CA","Zip":"91125","Description":null,"SalesValue":"$9173471.42"},
{"NoOfRooms":5,"NoOfBathrooms":5,"SqFeet":1037,"Address1":"1 Mccormick Center","Address2":"Suite 98","City":"San Diego","State":"CA","Zip":"92191","Description":null,"SalesValue":"$1512975.23"},
{"NoOfRooms":4,"NoOfBathrooms":2,"SqFeet":1140,"Address1":"5632 Hoffman Court","Address2":"5th Floor","City":"Los Angeles","State":"CA","Zip":"90055","Description":null,"SalesValue":"$5819233.55"},
{"NoOfRooms":3,"NoOfBathrooms":1,"SqFeet":728,"Address1":"5 Paget Hill","Address2":"Room 793","City":"San Rafael","State":"CA","Zip":"94913","Description":null,"SalesValue":"$4770399.79"},
{"NoOfRooms":1,"NoOfBathrooms":1,"SqFeet":5227,"Address1":"9966 Everett Terrace","Address2":"Suite 20","City":"Oakland","State":"CA","Zip":"94611","Description":null,"SalesValue":"$5039307.17"},
{"NoOfRooms":3,"NoOfBathrooms":4,"SqFeet":7102,"Address1":"65658 Victoria Court","Address2":"PO Box 51295","City":"Los Angeles","State":"CA","Zip":"90189","Description":null,"SalesValue":"$2242870.29"},
{"NoOfRooms":5,"NoOfBathrooms":3,"SqFeet":1038,"Address1":"36291 Esker Road","Address2":"Suite 46","City":"North Hollywood","State":"CA","Zip":"91616","Description":null,"SalesValue":"$554371.67"},
{"NoOfRooms":3,"NoOfBathrooms":2,"SqFeet":8317,"Address1":"6 Blue Bill Park Road","Address2":"5th Floor","City":"Long Beach","State":"CA","Zip":"90805","Description":null,"SalesValue":"$9921635.95"},
{"NoOfRooms":5,"NoOfBathrooms":3,"SqFeet":1313,"Address1":"659 Nobel Hill","Address2":"Suite 41","City":"Escondido","State":"CA","Zip":"92030","Description":null,"SalesValue":"$6123682.98"},
{"NoOfRooms":3,"NoOfBathrooms":5,"SqFeet":5525,"Address1":"37002 Towne Hill","Address2":"Room 903","City":"San Francisco","State":"CA","Zip":"94164","Description":null,"SalesValue":"$1839545.11"},
{"NoOfRooms":1,"NoOfBathrooms":1,"SqFeet":1330,"Address1":"50025 Hagan Way","Address2":"Suite 8","City":"Sacramento","State":"CA","Zip":"95823","Description":null,"SalesValue":"$5047367.98"},
{"NoOfRooms":5,"NoOfBathrooms":1,"SqFeet":6798,"Address1":"306 Packers Road","Address2":"Room 402","City":"Palmdale","State":"CA","Zip":"93591","Description":null,"SalesValue":"$3353189.95"},
{"NoOfRooms":1,"NoOfBathrooms":5,"SqFeet":1273,"Address1":"76 Milwaukee Trail","Address2":"Suite 90","City":"San Diego","State":"CA","Zip":"92191","Description":null,"SalesValue":"$7756472.51"},
{"NoOfRooms":2,"NoOfBathrooms":2,"SqFeet":249,"Address1":"822 Cordelia Street","Address2":"Apt 283","City":"Garden Grove","State":"CA","Zip":"92645","Description":null,"SalesValue":"$5689243.63"},
{"NoOfRooms":3,"NoOfBathrooms":4,"SqFeet":3145,"Address1":"833 Oakridge Plaza","Address2":"PO Box 27810","City":"Oceanside","State":"CA","Zip":"92056","Description":null,"SalesValue":"$6159861.53"},
{"NoOfRooms":2,"NoOfBathrooms":1,"SqFeet":6648,"Address1":"451 Golf Street","Address2":"Suite 97","City":"San Diego","State":"CA","Zip":"92160","Description":null,"SalesValue":"$5389163.49"},
{"NoOfRooms":3,"NoOfBathrooms":3,"SqFeet":8448,"Address1":"34 Arapahoe Way","Address2":"Room 552","City":"Sacramento","State":"CA","Zip":"95894","Description":null,"SalesValue":"$6032660.15"},
{"NoOfRooms":4,"NoOfBathrooms":2,"SqFeet":139,"Address1":"589 Mcbride Circle","Address2":"PO Box 97797","City":"Mountain View","State":"CA","Zip":"94042","Description":null,"SalesValue":"$7047516.88"},
{"NoOfRooms":2,"NoOfBathrooms":5,"SqFeet":4799,"Address1":"06022 Calypso Circle","Address2":"14th Floor","City":"San Bernardino","State":"CA","Zip":"92424","Description":null,"SalesValue":"$4844787.63"},
{"NoOfRooms":1,"NoOfBathrooms":4,"SqFeet":4515,"Address1":"7 Petterle Place","Address2":"PO Box 72862","City":"Sacramento","State":"CA","Zip":"94230","Description":null,"SalesValue":"$3875006.06"},
{"NoOfRooms":3,"NoOfBathrooms":3,"SqFeet":4325,"Address1":"54329 Sloan Hill","Address2":"12th Floor","City":"Palmdale","State":"CA","Zip":"93591","Description":null,"SalesValue":"$4701353.21"},
{"NoOfRooms":5,"NoOfBathrooms":1,"SqFeet":5431,"Address1":"10082 Towne Point","Address2":"Suite 74","City":"Santa Barbara","State":"CA","Zip":"93106","Description":null,"SalesValue":"$3319079.26"},
{"NoOfRooms":4,"NoOfBathrooms":1,"SqFeet":640,"Address1":"14865 Leroy Hill","Address2":"Apt 1863","City":"San Diego","State":"CA","Zip":"92121","Description":null,"SalesValue":"$6886449.83"},
{"NoOfRooms":5,"NoOfBathrooms":3,"SqFeet":7347,"Address1":"01 American Ash Hill","Address2":"Suite 54","City":"Riverside","State":"CA","Zip":"92505","Description":null,"SalesValue":"$1981850.95"},
{"NoOfRooms":1,"NoOfBathrooms":2,"SqFeet":574,"Address1":"4 Beilfuss Court","Address2":"PO Box 34234","City":"Riverside","State":"CA","Zip":"92505","Description":null,"SalesValue":"$9296648.44"},
{"NoOfRooms":4,"NoOfBathrooms":3,"SqFeet":7137,"Address1":"591 Stephen Drive","Address2":"Apt 1014","City":"Sacramento","State":"CA","Zip":"94230","Description":null,"SalesValue":"$6446782.09"},
{"NoOfRooms":5,"NoOfBathrooms":1,"SqFeet":3940,"Address1":"0981 Canary Avenue","Address2":"Suite 38","City":"San Diego","State":"CA","Zip":"92121","Description":null,"SalesValue":"$2332753.55"},
{"NoOfRooms":1,"NoOfBathrooms":4,"SqFeet":8871,"Address1":"68045 Sachs Street","Address2":"Apt 103","City":"Los Angeles","State":"CA","Zip":"90094","Description":null,"SalesValue":"$2338767.73"},
{"NoOfRooms":5,"NoOfBathrooms":4,"SqFeet":9590,"Address1":"42210 Loftsgordon Drive","Address2":"13th Floor","City":"Burbank","State":"CA","Zip":"91520","Description":null,"SalesValue":"$4813441.50"},
{"NoOfRooms":5,"NoOfBathrooms":1,"SqFeet":2685,"Address1":"48 Charing Cross Crossing","Address2":"Room 1791","City":"Bakersfield","State":"CA","Zip":"93399","Description":null,"SalesValue":"$7075225.17"},
{"NoOfRooms":2,"NoOfBathrooms":3,"SqFeet":9690,"Address1":"667 Sutherland Avenue","Address2":"7th Floor","City":"Chico","State":"CA","Zip":"95973","Description":null,"SalesValue":"$2661786.13"},
{"NoOfRooms":1,"NoOfBathrooms":2,"SqFeet":4937,"Address1":"31953 Florence Alley","Address2":"PO Box 57951","City":"Palmdale","State":"CA","Zip":"93591","Description":null,"SalesValue":"$1304614.43"},
{"NoOfRooms":3,"NoOfBathrooms":3,"SqFeet":5311,"Address1":"031 International Drive","Address2":"PO Box 61772","City":"Irvine","State":"CA","Zip":"92717","Description":null,"SalesValue":"$1423145.77"},
{"NoOfRooms":5,"NoOfBathrooms":2,"SqFeet":3814,"Address1":"25 Corben Hill","Address2":"16th Floor","City":"Modesto","State":"CA","Zip":"95397","Description":null,"SalesValue":"$2261394.16"},
{"NoOfRooms":3,"NoOfBathrooms":3,"SqFeet":2075,"Address1":"402 Alpine Trail","Address2":"Suite 42","City":"Orange","State":"CA","Zip":"92668","Description":null,"SalesValue":"$2788540.83"},
{"NoOfRooms":2,"NoOfBathrooms":5,"SqFeet":6239,"Address1":"0441 Oak Valley Crossing","Address2":"Apt 1625","City":"Northridge","State":"CA","Zip":"91328","Description":null,"SalesValue":"$7565353.34"},
{"NoOfRooms":5,"NoOfBathrooms":2,"SqFeet":3495,"Address1":"92 Mcbride Pass","Address2":"Apt 1316","City":"Anaheim","State":"CA","Zip":"92812","Description":null,"SalesValue":"$3664767.81"},
{"NoOfRooms":4,"NoOfBathrooms":3,"SqFeet":3028,"Address1":"7881 Springview Point","Address2":"PO Box 95642","City":"Chula Vista","State":"CA","Zip":"91913","Description":null,"SalesValue":"$2158060.79"},
{"NoOfRooms":1,"NoOfBathrooms":2,"SqFeet":8624,"Address1":"8 Maple Wood Lane","Address2":"Suite 73","City":"Palmdale","State":"CA","Zip":"93591","Description":null,"SalesValue":"$8831656.19"},
{"NoOfRooms":1,"NoOfBathrooms":5,"SqFeet":2560,"Address1":"92 Dixon Junction","Address2":"Apt 374","City":"Fresno","State":"CA","Zip":"93740","Description":null,"SalesValue":"$2823008.81"},
{"NoOfRooms":1,"NoOfBathrooms":1,"SqFeet":9646,"Address1":"10292 Carioca Plaza","Address2":"4th Floor","City":"Stockton","State":"CA","Zip":"95210","Description":null,"SalesValue":"$6875685.34"},
{"NoOfRooms":4,"NoOfBathrooms":1,"SqFeet":155,"Address1":"9 Twin Pines Hill","Address2":"14th Floor","City":"Pasadena","State":"CA","Zip":"91199","Description":null,"SalesValue":"$6139575.91"},
{"NoOfRooms":1,"NoOfBathrooms":5,"SqFeet":1522,"Address1":"8624 Kenwood Court","Address2":"6th Floor","City":"San Diego","State":"CA","Zip":"92127","Description":null,"SalesValue":"$2087702.01"},
{"NoOfRooms":3,"NoOfBathrooms":1,"SqFeet":3341,"Address1":"80 Mallard Trail","Address2":"Room 994","City":"Modesto","State":"CA","Zip":"95354","Description":null,"SalesValue":"$9392286.77"},
{"NoOfRooms":5,"NoOfBathrooms":5,"SqFeet":4282,"Address1":"088 Starling Way","Address2":"14th Floor","City":"San Mateo","State":"CA","Zip":"94405","Description":null,"SalesValue":"$9500960.91"},
{"NoOfRooms":2,"NoOfBathrooms":1,"SqFeet":3928,"Address1":"4872 Grover Center","Address2":"9th Floor","City":"Bakersfield","State":"CA","Zip":"93311","Description":null,"SalesValue":"$8205962.79"},
{"NoOfRooms":2,"NoOfBathrooms":2,"SqFeet":5619,"Address1":"71139 Atwood Pass","Address2":"Apt 475","City":"Van Nuys","State":"CA","Zip":"91411","Description":null,"SalesValue":"$5189001.39"},
{"NoOfRooms":1,"NoOfBathrooms":3,"SqFeet":5009,"Address1":"633 Meadow Valley Parkway","Address2":"PO Box 36579","City":"Whittier","State":"CA","Zip":"90610","Description":null,"SalesValue":"$9087610.88"},
{"NoOfRooms":4,"NoOfBathrooms":5,"SqFeet":1667,"Address1":"8 Michigan Trail","Address2":"PO Box 2397","City":"Santa Monica","State":"CA","Zip":"90410","Description":null,"SalesValue":"$7635970.01"},
{"NoOfRooms":4,"NoOfBathrooms":1,"SqFeet":3475,"Address1":"603 Memorial Road","Address2":"Apt 988","City":"Bakersfield","State":"CA","Zip":"93311","Description":null,"SalesValue":"$8015239.78"},
{"NoOfRooms":4,"NoOfBathrooms":2,"SqFeet":3489,"Address1":"1 Ohio Road","Address2":"Apt 931","City":"San Francisco","State":"CA","Zip":"94177","Description":null,"SalesValue":"$7123619.37"},
{"NoOfRooms":5,"NoOfBathrooms":4,"SqFeet":6774,"Address1":"23 Nelson Pass","Address2":"16th Floor","City":"Fresno","State":"CA","Zip":"93762","Description":null,"SalesValue":"$823443.28"},
{"NoOfRooms":2,"NoOfBathrooms":1,"SqFeet":8571,"Address1":"0 Bobwhite Crossing","Address2":"13th Floor","City":"Corona","State":"CA","Zip":"92883","Description":null,"SalesValue":"$1860196.44"},
{"NoOfRooms":4,"NoOfBathrooms":1,"SqFeet":8332,"Address1":"5 Dorton Pass","Address2":"PO Box 5445","City":"San Diego","State":"CA","Zip":"92145","Description":null,"SalesValue":"$2453475.87"},
{"NoOfRooms":4,"NoOfBathrooms":4,"SqFeet":7446,"Address1":"5252 Holmberg Street","Address2":"Room 306","City":"Los Angeles","State":"CA","Zip":"90076","Description":null,"SalesValue":"$726350.91"},
{"NoOfRooms":4,"NoOfBathrooms":5,"SqFeet":3965,"Address1":"091 East Way","Address2":"PO Box 88572","City":"Alhambra","State":"CA","Zip":"91841","Description":null,"SalesValue":"$6918662.00"},
{"NoOfRooms":4,"NoOfBathrooms":2,"SqFeet":2714,"Address1":"0909 Montana Junction","Address2":"PO Box 5006","City":"Santa Ana","State":"CA","Zip":"92725","Description":null,"SalesValue":"$7506482.28"},
{"NoOfRooms":2,"NoOfBathrooms":4,"SqFeet":4638,"Address1":"7172 Fieldstone Avenue","Address2":"Apt 597","City":"Santa Monica","State":"CA","Zip":"90405","Description":null,"SalesValue":"$6582485.12"},
{"NoOfRooms":5,"NoOfBathrooms":5,"SqFeet":647,"Address1":"90494 Meadow Valley Park","Address2":"PO Box 60250","City":"San Mateo","State":"CA","Zip":"94405","Description":null,"SalesValue":"$8927078.58"},
{"NoOfRooms":1,"NoOfBathrooms":4,"SqFeet":8895,"Address1":"47 High Crossing Circle","Address2":"9th Floor","City":"Los Angeles","State":"CA","Zip":"90005","Description":null,"SalesValue":"$600201.92"},
{"NoOfRooms":5,"NoOfBathrooms":2,"SqFeet":818,"Address1":"08640 Sutteridge Alley","Address2":"Apt 1742","City":"San Diego","State":"CA","Zip":"92127","Description":null,"SalesValue":"$1090787.24"},
{"NoOfRooms":1,"NoOfBathrooms":1,"SqFeet":6138,"Address1":"56 Thierer Street","Address2":"12th Floor","City":"Riverside","State":"CA","Zip":"92505","Description":null,"SalesValue":"$5314605.61"},
{"NoOfRooms":3,"NoOfBathrooms":3,"SqFeet":3647,"Address1":"648 Schurz Pass","Address2":"6th Floor","City":"San Bernardino","State":"CA","Zip":"92405","Description":null,"SalesValue":"$3448966.46"},
{"NoOfRooms":5,"NoOfBathrooms":3,"SqFeet":1143,"Address1":"5421 Maywood Point","Address2":"Room 403","City":"Pasadena","State":"CA","Zip":"91109","Description":null,"SalesValue":"$1098598.99"},
{"NoOfRooms":4,"NoOfBathrooms":5,"SqFeet":7963,"Address1":"14 Lotheville Point","Address2":"PO Box 24920","City":"Fresno","State":"CA","Zip":"93715","Description":null,"SalesValue":"$1051523.19"},
{"NoOfRooms":4,"NoOfBathrooms":3,"SqFeet":9985,"Address1":"174 Londonderry Lane","Address2":"PO Box 31811","City":"Sacramento","State":"CA","Zip":"94245","Description":null,"SalesValue":"$2373431.06"},
{"NoOfRooms":1,"NoOfBathrooms":4,"SqFeet":5103,"Address1":"9 Blackbird Place","Address2":"Suite 90","City":"Anaheim","State":"CA","Zip":"92825","Description":null,"SalesValue":"$6494180.14"},
{"NoOfRooms":4,"NoOfBathrooms":5,"SqFeet":9111,"Address1":"6 Maple Court","Address2":"Apt 91","City":"Simi Valley","State":"CA","Zip":"93094","Description":null,"SalesValue":"$8296195.52"},
{"NoOfRooms":3,"NoOfBathrooms":1,"SqFeet":128,"Address1":"1 Esch Lane","Address2":"Suite 68","City":"Chico","State":"CA","Zip":"95973","Description":null,"SalesValue":"$7401948.61"},
{"NoOfRooms":4,"NoOfBathrooms":1,"SqFeet":1339,"Address1":"7946 Gale Court","Address2":"8th Floor","City":"Los Angeles","State":"CA","Zip":"90005","Description":null,"SalesValue":"$746983.86"},
{"NoOfRooms":5,"NoOfBathrooms":2,"SqFeet":2091,"Address1":"27 Badeau Avenue","Address2":"Apt 1893","City":"Whittier","State":"CA","Zip":"90605","Description":null,"SalesValue":"$9798207.60"},
{"NoOfRooms":2,"NoOfBathrooms":4,"SqFeet":1382,"Address1":"3821 Almo Crossing","Address2":"PO Box 10040","City":"Fresno","State":"CA","Zip":"93704","Description":null,"SalesValue":"$7000258.27"},
{"NoOfRooms":3,"NoOfBathrooms":2,"SqFeet":8406,"Address1":"9 Crescent Oaks Junction","Address2":"PO Box 24859","City":"San Jose","State":"CA","Zip":"95128","Description":null,"SalesValue":"$7174845.23"},
{"NoOfRooms":5,"NoOfBathrooms":3,"SqFeet":1538,"Address1":"8 Caliangt Court","Address2":"Suite 7","City":"Torrance","State":"CA","Zip":"90510","Description":null,"SalesValue":"$1774730.36"},
{"NoOfRooms":5,"NoOfBathrooms":3,"SqFeet":5243,"Address1":"7 Forest Road","Address2":"Suite 71","City":"Pasadena","State":"CA","Zip":"91186","Description":null,"SalesValue":"$9882544.01"},
{"NoOfRooms":1,"NoOfBathrooms":5,"SqFeet":2167,"Address1":"4 Pearson Junction","Address2":"PO Box 85321","City":"San Diego","State":"CA","Zip":"92153","Description":null,"SalesValue":"$4691100.80"},
{"NoOfRooms":3,"NoOfBathrooms":5,"SqFeet":3816,"Address1":"8460 Barby Plaza","Address2":"Room 842","City":"Pasadena","State":"CA","Zip":"91125","Description":null,"SalesValue":"$1282314.48"},
{"NoOfRooms":5,"NoOfBathrooms":2,"SqFeet":3928,"Address1":"8 Rockefeller Plaza","Address2":"Apt 1287","City":"San Jose","State":"CA","Zip":"95155","Description":null,"SalesValue":"$1953499.28"},
{"NoOfRooms":4,"NoOfBathrooms":3,"SqFeet":296,"Address1":"23 Shelley Drive","Address2":"2nd Floor","City":"San Francisco","State":"CA","Zip":"94105","Description":null,"SalesValue":"$1673456.89"},
{"NoOfRooms":1,"NoOfBathrooms":4,"SqFeet":8606,"Address1":"177 Westerfield Road","Address2":"Suite 2","City":"Long Beach","State":"CA","Zip":"90840","Description":null,"SalesValue":"$4128388.26"},
{"NoOfRooms":4,"NoOfBathrooms":4,"SqFeet":6346,"Address1":"759 Goodland Junction","Address2":"Apt 519","City":"Sacramento","State":"CA","Zip":"94273","Description":null,"SalesValue":"$3383227.57"},
{"NoOfRooms":5,"NoOfBathrooms":5,"SqFeet":4533,"Address1":"6047 Hoard Place","Address2":"PO Box 94989","City":"Newport Beach","State":"CA","Zip":"92662","Description":null,"SalesValue":"$4553349.69"},
{"NoOfRooms":4,"NoOfBathrooms":1,"SqFeet":5914,"Address1":"36 Schmedeman Hill","Address2":"6th Floor","City":"Sacramento","State":"CA","Zip":"94250","Description":null,"SalesValue":"$1759462.33"},
{"NoOfRooms":5,"NoOfBathrooms":5,"SqFeet":1707,"Address1":"2 Badeau Street","Address2":"Room 1323","City":"Fresno","State":"CA","Zip":"93786","Description":null,"SalesValue":"$3719400.22"},
{"NoOfRooms":1,"NoOfBathrooms":4,"SqFeet":5001,"Address1":"8 Holy Cross Junction","Address2":"Apt 1290","City":"Escondido","State":"CA","Zip":"92030","Description":null,"SalesValue":"$6571146.77"},
{"NoOfRooms":1,"NoOfBathrooms":5,"SqFeet":5337,"Address1":"8226 Main Place","Address2":"Room 1252","City":"Los Angeles","State":"CA","Zip":"90081","Description":null,"SalesValue":"$641095.99"},
{"NoOfRooms":2,"NoOfBathrooms":5,"SqFeet":4508,"Address1":"520 6th Crossing","Address2":"Room 1243","City":"San Jose","State":"CA","Zip":"95118","Description":null,"SalesValue":"$4366905.76"},
{"NoOfRooms":3,"NoOfBathrooms":4,"SqFeet":1178,"Address1":"1156 Homewood Court","Address2":"Room 1365","City":"San Bernardino","State":"CA","Zip":"92424","Description":null,"SalesValue":"$8281985.99"},
{"NoOfRooms":3,"NoOfBathrooms":5,"SqFeet":5993,"Address1":"068 Lunder Road","Address2":"Apt 1987","City":"Oakland","State":"CA","Zip":"94622","Description":null,"SalesValue":"$3846647.35"},
{"NoOfRooms":5,"NoOfBathrooms":3,"SqFeet":5672,"Address1":"684 Hintze Hill","Address2":"Apt 1586","City":"San Francisco","State":"CA","Zip":"94110","Description":null,"SalesValue":"$9553193.84"},
{"NoOfRooms":2,"NoOfBathrooms":4,"SqFeet":266,"Address1":"8991 Stone Corner Parkway","Address2":"Apt 1234","City":"San Francisco","State":"CA","Zip":"94110","Description":null,"SalesValue":"$784186.98"},
{"NoOfRooms":4,"NoOfBathrooms":4,"SqFeet":6646,"Address1":"1135 Elmside Lane","Address2":"16th Floor","City":"San Diego","State":"CA","Zip":"92191","Description":null,"SalesValue":"$8064468.56"},
{"NoOfRooms":1,"NoOfBathrooms":3,"SqFeet":8944,"Address1":"3 Huxley Point","Address2":"PO Box 76008","City":"San Diego","State":"CA","Zip":"92165","Description":null,"SalesValue":"$7142981.13"},
{"NoOfRooms":3,"NoOfBathrooms":2,"SqFeet":8607,"Address1":"2 Rutledge Trail","Address2":"Suite 73","City":"Sacramento","State":"CA","Zip":"95833","Description":null,"SalesValue":"$4805240.79"},
{"NoOfRooms":5,"NoOfBathrooms":2,"SqFeet":1039,"Address1":"862 Larry Alley","Address2":"Room 1059","City":"Fresno","State":"CA","Zip":"93762","Description":null,"SalesValue":"$1160820.16"},
{"NoOfRooms":2,"NoOfBathrooms":5,"SqFeet":4642,"Address1":"79834 Loomis Lane","Address2":"Suite 52","City":"Garden Grove","State":"CA","Zip":"92844","Description":null,"SalesValue":"$6861697.07"},
{"NoOfRooms":5,"NoOfBathrooms":1,"SqFeet":970,"Address1":"20795 Fisk Terrace","Address2":"PO Box 22521","City":"San Francisco","State":"CA","Zip":"94126","Description":null,"SalesValue":"$652376.92"},
{"NoOfRooms":1,"NoOfBathrooms":1,"SqFeet":5824,"Address1":"8771 Melby Way","Address2":"Suite 41","City":"San Diego","State":"CA","Zip":"92145","Description":null,"SalesValue":"$1936973.84"},
{"NoOfRooms":5,"NoOfBathrooms":2,"SqFeet":8228,"Address1":"68149 Surrey Plaza","Address2":"14th Floor","City":"Palo Alto","State":"CA","Zip":"94302","Description":null,"SalesValue":"$7175420.39"},
{"NoOfRooms":4,"NoOfBathrooms":2,"SqFeet":9632,"Address1":"162 Scott Trail","Address2":"Room 817","City":"Pasadena","State":"CA","Zip":"91199","Description":null,"SalesValue":"$9234557.38"},
{"NoOfRooms":3,"NoOfBathrooms":2,"SqFeet":6731,"Address1":"9 Emmet Avenue","Address2":"PO Box 25480","City":"Salinas","State":"CA","Zip":"93907","Description":null,"SalesValue":"$5798771.83"},
{"NoOfRooms":2,"NoOfBathrooms":5,"SqFeet":7118,"Address1":"5 Paget Point","Address2":"6th Floor","City":"San Diego","State":"CA","Zip":"92115","Description":null,"SalesValue":"$5427654.23"},
{"NoOfRooms":4,"NoOfBathrooms":5,"SqFeet":4460,"Address1":"09 Red Cloud Road","Address2":"14th Floor","City":"Sacramento","State":"CA","Zip":"94257","Description":null,"SalesValue":"$4970201.13"},
{"NoOfRooms":2,"NoOfBathrooms":2,"SqFeet":7730,"Address1":"11 South Alley","Address2":"PO Box 77736","City":"Inglewood","State":"CA","Zip":"90310","Description":null,"SalesValue":"$3920703.06"},
{"NoOfRooms":5,"NoOfBathrooms":2,"SqFeet":7285,"Address1":"58250 American Place","Address2":"Suite 20","City":"Garden Grove","State":"CA","Zip":"92844","Description":null,"SalesValue":"$7820363.05"},
{"NoOfRooms":3,"NoOfBathrooms":1,"SqFeet":4982,"Address1":"365 American Circle","Address2":"10th Floor","City":"Inglewood","State":"CA","Zip":"90305","Description":null,"SalesValue":"$8788727.97"},
{"NoOfRooms":1,"NoOfBathrooms":3,"SqFeet":8726,"Address1":"80162 Gina Circle","Address2":"PO Box 92106","City":"San Jose","State":"CA","Zip":"95118","Description":null,"SalesValue":"$3224887.68"},
{"NoOfRooms":5,"NoOfBathrooms":3,"SqFeet":8030,"Address1":"87597 Londonderry Trail","Address2":"Apt 1","City":"San Diego","State":"CA","Zip":"92170","Description":null,"SalesValue":"$6349871.67"},
{"NoOfRooms":1,"NoOfBathrooms":5,"SqFeet":8333,"Address1":"57190 Blue Bill Park Pass","Address2":"Room 1436","City":"Sacramento","State":"CA","Zip":"94250","Description":null,"SalesValue":"$2905422.45"},
{"NoOfRooms":3,"NoOfBathrooms":3,"SqFeet":935,"Address1":"525 Manitowish Hill","Address2":"Apt 1772","City":"Fresno","State":"CA","Zip":"93709","Description":null,"SalesValue":"$5849810.91"},
{"NoOfRooms":3,"NoOfBathrooms":3,"SqFeet":9886,"Address1":"8 Summer Ridge Terrace","Address2":"Room 1576","City":"Van Nuys","State":"CA","Zip":"91406","Description":null,"SalesValue":"$2228446.72"},
{"NoOfRooms":1,"NoOfBathrooms":2,"SqFeet":4773,"Address1":"7307 Golden Leaf Crossing","Address2":"13th Floor","City":"Whittier","State":"CA","Zip":"90610","Description":null,"SalesValue":"$899132.97"},
{"NoOfRooms":5,"NoOfBathrooms":2,"SqFeet":3213,"Address1":"72311 Spenser Drive","Address2":"16th Floor","City":"Long Beach","State":"CA","Zip":"90810","Description":null,"SalesValue":"$5702082.71"},
{"NoOfRooms":4,"NoOfBathrooms":5,"SqFeet":4254,"Address1":"435 Gulseth Plaza","Address2":"PO Box 17070","City":"San Diego","State":"CA","Zip":"92137","Description":null,"SalesValue":"$2374793.26"},
{"NoOfRooms":5,"NoOfBathrooms":1,"SqFeet":2403,"Address1":"8097 Paget Hill","Address2":"Suite 86","City":"Burbank","State":"CA","Zip":"91505","Description":null,"SalesValue":"$9298269.34"},
{"NoOfRooms":4,"NoOfBathrooms":5,"SqFeet":9463,"Address1":"463 Monument Road","Address2":"Suite 82","City":"Sacramento","State":"CA","Zip":"94237","Description":null,"SalesValue":"$7003350.28"},
{"NoOfRooms":4,"NoOfBathrooms":5,"SqFeet":9456,"Address1":"163 Porter Lane","Address2":"Room 756","City":"Glendale","State":"CA","Zip":"91210","Description":null,"SalesValue":"$1122622.99"},
{"NoOfRooms":4,"NoOfBathrooms":4,"SqFeet":9622,"Address1":"4552 Tennessee Park","Address2":"Room 1024","City":"Long Beach","State":"CA","Zip":"90810","Description":null,"SalesValue":"$1112646.44"},
{"NoOfRooms":5,"NoOfBathrooms":4,"SqFeet":2034,"Address1":"8 Glendale Road","Address2":"Suite 34","City":"Stockton","State":"CA","Zip":"95205","Description":null,"SalesValue":"$5408225.29"},
{"NoOfRooms":4,"NoOfBathrooms":5,"SqFeet":8789,"Address1":"35811 Morrow Park","Address2":"Room 449","City":"Sacramento","State":"CA","Zip":"94297","Description":null,"SalesValue":"$5842507.42"},
{"NoOfRooms":2,"NoOfBathrooms":2,"SqFeet":3600,"Address1":"70186 Hoepker Trail","Address2":"PO Box 44622","City":"San Diego","State":"CA","Zip":"92153","Description":null,"SalesValue":"$8171990.13"},
{"NoOfRooms":2,"NoOfBathrooms":4,"SqFeet":3488,"Address1":"615 Loftsgordon Drive","Address2":"PO Box 26110","City":"Santa Ana","State":"CA","Zip":"92725","Description":null,"SalesValue":"$2866068.33"},
{"NoOfRooms":3,"NoOfBathrooms":2,"SqFeet":8900,"Address1":"72383 Shelley Terrace","Address2":"Room 89","City":"Los Angeles","State":"CA","Zip":"90076","Description":null,"SalesValue":"$9112318.00"},
{"NoOfRooms":1,"NoOfBathrooms":2,"SqFeet":6885,"Address1":"2 Heath Junction","Address2":"Room 1090","City":"Stockton","State":"CA","Zip":"95205","Description":null,"SalesValue":"$7330251.15"},
{"NoOfRooms":4,"NoOfBathrooms":1,"SqFeet":7680,"Address1":"69 Delaware Pass","Address2":"Room 1392","City":"Fresno","State":"CA","Zip":"93794","Description":null,"SalesValue":"$4069280.72"},
{"NoOfRooms":3,"NoOfBathrooms":5,"SqFeet":3221,"Address1":"937 Vera Crossing","Address2":"6th Floor","City":"Los Angeles","State":"CA","Zip":"90071","Description":null,"SalesValue":"$9153492.19"},
{"NoOfRooms":4,"NoOfBathrooms":1,"SqFeet":2101,"Address1":"4877 Artisan Plaza","Address2":"Room 1762","City":"Stockton","State":"CA","Zip":"95210","Description":null,"SalesValue":"$1503746.48"},
{"NoOfRooms":1,"NoOfBathrooms":5,"SqFeet":8694,"Address1":"6578 Vernon Court","Address2":"Suite 51","City":"Santa Barbara","State":"CA","Zip":"93111","Description":null,"SalesValue":"$1909388.20"},
{"NoOfRooms":2,"NoOfBathrooms":4,"SqFeet":3917,"Address1":"8 Portage Lane","Address2":"PO Box 49166","City":"San Diego","State":"CA","Zip":"92137","Description":null,"SalesValue":"$7681915.16"},
{"NoOfRooms":1,"NoOfBathrooms":2,"SqFeet":9683,"Address1":"46 Fremont Pass","Address2":"PO Box 75754","City":"Whittier","State":"CA","Zip":"90605","Description":null,"SalesValue":"$9719503.17"},
{"NoOfRooms":4,"NoOfBathrooms":2,"SqFeet":7936,"Address1":"5854 Talisman Court","Address2":"Apt 1062","City":"San Rafael","State":"CA","Zip":"94913","Description":null,"SalesValue":"$4280946.27"},
{"NoOfRooms":2,"NoOfBathrooms":1,"SqFeet":5240,"Address1":"5 Kedzie Trail","Address2":"Room 97","City":"San Francisco","State":"CA","Zip":"94147","Description":null,"SalesValue":"$6240211.73"},
{"NoOfRooms":5,"NoOfBathrooms":5,"SqFeet":6590,"Address1":"58 Lighthouse Bay Point","Address2":"PO Box 7353","City":"Pasadena","State":"CA","Zip":"91186","Description":null,"SalesValue":"$9062822.49"},
{"NoOfRooms":1,"NoOfBathrooms":4,"SqFeet":9298,"Address1":"97386 Carey Circle","Address2":"18th Floor","City":"Simi Valley","State":"CA","Zip":"93094","Description":null,"SalesValue":"$2579781.48"},
{"NoOfRooms":5,"NoOfBathrooms":4,"SqFeet":9498,"Address1":"162 Warbler Junction","Address2":"Suite 56","City":"San Mateo","State":"CA","Zip":"94405","Description":null,"SalesValue":"$1098811.82"},
{"NoOfRooms":1,"NoOfBathrooms":5,"SqFeet":388,"Address1":"82830 Browning Lane","Address2":"Apt 734","City":"Palmdale","State":"CA","Zip":"93591","Description":null,"SalesValue":"$8935615.89"},
{"NoOfRooms":3,"NoOfBathrooms":4,"SqFeet":8880,"Address1":"974 Steensland Pass","Address2":"Room 16","City":"Los Angeles","State":"CA","Zip":"90087","Description":null,"SalesValue":"$9199615.98"},
{"NoOfRooms":3,"NoOfBathrooms":2,"SqFeet":7821,"Address1":"299 Kipling Hill","Address2":"16th Floor","City":"Anaheim","State":"CA","Zip":"92805","Description":null,"SalesValue":"$2877389.97"},
{"NoOfRooms":5,"NoOfBathrooms":5,"SqFeet":5747,"Address1":"44 Lakewood Parkway","Address2":"Apt 990","City":"Irvine","State":"CA","Zip":"92717","Description":null,"SalesValue":"$3799101.51"},
{"NoOfRooms":3,"NoOfBathrooms":1,"SqFeet":7430,"Address1":"9 Dennis Crossing","Address2":"Room 10","City":"Long Beach","State":"CA","Zip":"90810","Description":null,"SalesValue":"$864613.78"},
{"NoOfRooms":4,"NoOfBathrooms":3,"SqFeet":8326,"Address1":"9315 Bunker Hill Junction","Address2":"Room 401","City":"Burbank","State":"CA","Zip":"91520","Description":null,"SalesValue":"$5802145.73"},
{"NoOfRooms":4,"NoOfBathrooms":2,"SqFeet":7425,"Address1":"4760 Michigan Avenue","Address2":"Suite 47","City":"Oakland","State":"CA","Zip":"94660","Description":null,"SalesValue":"$2972618.58"},
{"NoOfRooms":1,"NoOfBathrooms":4,"SqFeet":2837,"Address1":"846 Main Avenue","Address2":"Suite 37","City":"Oceanside","State":"CA","Zip":"92056","Description":null,"SalesValue":"$2136616.74"},
{"NoOfRooms":1,"NoOfBathrooms":4,"SqFeet":4037,"Address1":"813 Susan Place","Address2":"13th Floor","City":"Northridge","State":"CA","Zip":"91328","Description":null,"SalesValue":"$1342090.90"},
{"NoOfRooms":3,"NoOfBathrooms":5,"SqFeet":2944,"Address1":"10006 Esch Court","Address2":"PO Box 46192","City":"Whittier","State":"CA","Zip":"90610","Description":null,"SalesValue":"$6262551.02"},
{"NoOfRooms":5,"NoOfBathrooms":2,"SqFeet":1466,"Address1":"480 Rutledge Crossing","Address2":"Apt 1577","City":"Hayward","State":"CA","Zip":"94544","Description":null,"SalesValue":"$7432664.88"},
{"NoOfRooms":4,"NoOfBathrooms":5,"SqFeet":830,"Address1":"40320 Boyd Plaza","Address2":"6th Floor","City":"Sacramento","State":"CA","Zip":"95818","Description":null,"SalesValue":"$7990566.39"},
{"NoOfRooms":3,"NoOfBathrooms":4,"SqFeet":6437,"Address1":"5858 Lakewood Alley","Address2":"Apt 1699","City":"San Diego","State":"CA","Zip":"92110","Description":null,"SalesValue":"$5941213.20"},
{"NoOfRooms":3,"NoOfBathrooms":4,"SqFeet":4802,"Address1":"29 Fordem Center","Address2":"Suite 30","City":"Inglewood","State":"CA","Zip":"90305","Description":null,"SalesValue":"$8708771.05"},
{"NoOfRooms":3,"NoOfBathrooms":5,"SqFeet":7646,"Address1":"38 Nelson Hill","Address2":"Apt 1372","City":"San Diego","State":"CA","Zip":"92132","Description":null,"SalesValue":"$1402384.91"},
{"NoOfRooms":3,"NoOfBathrooms":2,"SqFeet":5759,"Address1":"2 Hansons Pass","Address2":"Room 1512","City":"Pasadena","State":"CA","Zip":"91103","Description":null,"SalesValue":"$844020.68"},
{"NoOfRooms":3,"NoOfBathrooms":3,"SqFeet":5496,"Address1":"630 Village Road","Address2":"Apt 591","City":"San Jose","State":"CA","Zip":"95160","Description":null,"SalesValue":"$5600787.79"},
{"NoOfRooms":2,"NoOfBathrooms":2,"SqFeet":6412,"Address1":"802 Algoma Place","Address2":"20th Floor","City":"Stockton","State":"CA","Zip":"95210","Description":null,"SalesValue":"$8435039.11"},
{"NoOfRooms":2,"NoOfBathrooms":5,"SqFeet":9261,"Address1":"0 Prairieview Circle","Address2":"3rd Floor","City":"Ventura","State":"CA","Zip":"93005","Description":null,"SalesValue":"$9282056.92"},
{"NoOfRooms":5,"NoOfBathrooms":3,"SqFeet":3388,"Address1":"5 Thompson Avenue","Address2":"PO Box 29136","City":"Newport Beach","State":"CA","Zip":"92662","Description":null,"SalesValue":"$5597763.91"},
{"NoOfRooms":2,"NoOfBathrooms":4,"SqFeet":6855,"Address1":"1 Hagan Parkway","Address2":"Suite 47","City":"Los Angeles","State":"CA","Zip":"90087","Description":null,"SalesValue":"$6006702.70"},
{"NoOfRooms":3,"NoOfBathrooms":5,"SqFeet":4076,"Address1":"67 Summer Ridge Terrace","Address2":"Suite 26","City":"Newport Beach","State":"CA","Zip":"92662","Description":null,"SalesValue":"$6483190.21"},
{"NoOfRooms":1,"NoOfBathrooms":1,"SqFeet":3430,"Address1":"7 Memorial Avenue","Address2":"PO Box 70047","City":"Sacramento","State":"CA","Zip":"95813","Description":null,"SalesValue":"$6518262.84"},
{"NoOfRooms":4,"NoOfBathrooms":1,"SqFeet":9287,"Address1":"4369 Eastwood Avenue","Address2":"Room 367","City":"Los Angeles","State":"CA","Zip":"90030","Description":null,"SalesValue":"$5413477.67"},
{"NoOfRooms":2,"NoOfBathrooms":2,"SqFeet":2876,"Address1":"307 Tennyson Way","Address2":"Room 791","City":"Los Angeles","State":"CA","Zip":"90020","Description":null,"SalesValue":"$4378861.28"},
{"NoOfRooms":1,"NoOfBathrooms":5,"SqFeet":4378,"Address1":"5131 Old Gate Trail","Address2":"PO Box 63080","City":"San Jose","State":"CA","Zip":"95150","Description":null,"SalesValue":"$7564560.45"},
{"NoOfRooms":2,"NoOfBathrooms":2,"SqFeet":6067,"Address1":"635 Heffernan Point","Address2":"Room 68","City":"Sacramento","State":"CA","Zip":"95828","Description":null,"SalesValue":"$2737045.10"},
{"NoOfRooms":1,"NoOfBathrooms":1,"SqFeet":8412,"Address1":"352 Old Gate Crossing","Address2":"Suite 46","City":"Chico","State":"CA","Zip":"95973","Description":null,"SalesValue":"$7769668.69"},
{"NoOfRooms":1,"NoOfBathrooms":1,"SqFeet":9897,"Address1":"92 Pawling Crossing","Address2":"Apt 1006","City":"Inglewood","State":"CA","Zip":"90310","Description":null,"SalesValue":"$7070216.69"},
{"NoOfRooms":5,"NoOfBathrooms":5,"SqFeet":6519,"Address1":"42 Karstens Avenue","Address2":"2nd Floor","City":"Mountain View","State":"CA","Zip":"94042","Description":null,"SalesValue":"$9237269.88"},
{"NoOfRooms":1,"NoOfBathrooms":1,"SqFeet":4298,"Address1":"1 Village Lane","Address2":"Apt 1529","City":"Los Angeles","State":"CA","Zip":"90025","Description":null,"SalesValue":"$5948871.14"},
{"NoOfRooms":5,"NoOfBathrooms":3,"SqFeet":8287,"Address1":"828 Old Shore Court","Address2":"PO Box 40530","City":"Chula Vista","State":"CA","Zip":"91913","Description":null,"SalesValue":"$735039.97"},
{"NoOfRooms":2,"NoOfBathrooms":1,"SqFeet":4416,"Address1":"10 Goodland Point","Address2":"Room 1391","City":"Petaluma","State":"CA","Zip":"94975","Description":null,"SalesValue":"$1817845.65"},
{"NoOfRooms":2,"NoOfBathrooms":2,"SqFeet":5072,"Address1":"80427 Shopko Court","Address2":"Apt 835","City":"Petaluma","State":"CA","Zip":"94975","Description":null,"SalesValue":"$6203560.46"},
{"NoOfRooms":5,"NoOfBathrooms":4,"SqFeet":5879,"Address1":"6 Hooker Trail","Address2":"Room 1922","City":"Los Angeles","State":"CA","Zip":"90020","Description":null,"SalesValue":"$2175004.80"},
{"NoOfRooms":5,"NoOfBathrooms":4,"SqFeet":3126,"Address1":"706 Delladonna Trail","Address2":"PO Box 65720","City":"Sacramento","State":"CA","Zip":"94286","Description":null,"SalesValue":"$6665332.67"},
{"NoOfRooms":1,"NoOfBathrooms":1,"SqFeet":1103,"Address1":"152 Norway Maple Street","Address2":"Suite 53","City":"Santa Rosa","State":"CA","Zip":"95405","Description":null,"SalesValue":"$8589991.94"},
{"NoOfRooms":3,"NoOfBathrooms":3,"SqFeet":1661,"Address1":"2 Buhler Street","Address2":"3rd Floor","City":"Sacramento","State":"CA","Zip":"95838","Description":null,"SalesValue":"$614364.12"},
{"NoOfRooms":3,"NoOfBathrooms":1,"SqFeet":9892,"Address1":"45 Warbler Circle","Address2":"Room 1348","City":"San Francisco","State":"CA","Zip":"94177","Description":null,"SalesValue":"$9229070.08"},
{"NoOfRooms":3,"NoOfBathrooms":4,"SqFeet":6982,"Address1":"6092 Dwight Terrace","Address2":"Apt 933","City":"Los Angeles","State":"CA","Zip":"90065","Description":null,"SalesValue":"$8215371.86"},
{"NoOfRooms":3,"NoOfBathrooms":3,"SqFeet":888,"Address1":"86328 Doe Crossing Hill","Address2":"Suite 80","City":"Pasadena","State":"CA","Zip":"91186","Description":null,"SalesValue":"$3102164.24"},
{"NoOfRooms":1,"NoOfBathrooms":1,"SqFeet":411,"Address1":"64 Union Drive","Address2":"9th Floor","City":"Escondido","State":"CA","Zip":"92030","Description":null,"SalesValue":"$2243011.68"},
{"NoOfRooms":2,"NoOfBathrooms":5,"SqFeet":8855,"Address1":"38284 Lakeland Terrace","Address2":"5th Floor","City":"Sacramento","State":"CA","Zip":"95865","Description":null,"SalesValue":"$2932482.40"},
{"NoOfRooms":4,"NoOfBathrooms":1,"SqFeet":2493,"Address1":"7 Rowland Circle","Address2":"Apt 1713","City":"Santa Ana","State":"CA","Zip":"92705","Description":null,"SalesValue":"$2563929.03"},
{"NoOfRooms":2,"NoOfBathrooms":3,"SqFeet":9027,"Address1":"92 Carioca Crossing","Address2":"15th Floor","City":"San Diego","State":"CA","Zip":"92121","Description":null,"SalesValue":"$5031578.43"},
{"NoOfRooms":4,"NoOfBathrooms":4,"SqFeet":1995,"Address1":"10420 Rutledge Trail","Address2":"Suite 22","City":"Sacramento","State":"CA","Zip":"95852","Description":null,"SalesValue":"$2921183.50"},
{"NoOfRooms":1,"NoOfBathrooms":2,"SqFeet":4941,"Address1":"26335 Gerald Pass","Address2":"2nd Floor","City":"San Rafael","State":"CA","Zip":"94913","Description":null,"SalesValue":"$5533797.28"},
{"NoOfRooms":4,"NoOfBathrooms":4,"SqFeet":8583,"Address1":"439 Elmside Crossing","Address2":"Apt 1353","City":"San Francisco","State":"CA","Zip":"94126","Description":null,"SalesValue":"$5424427.29"},
{"NoOfRooms":5,"NoOfBathrooms":3,"SqFeet":7589,"Address1":"041 Scott Avenue","Address2":"Room 1642","City":"Newport Beach","State":"CA","Zip":"92662","Description":null,"SalesValue":"$1106772.53"},
{"NoOfRooms":4,"NoOfBathrooms":3,"SqFeet":4801,"Address1":"7308 Vermont Court","Address2":"16th Floor","City":"Fullerton","State":"CA","Zip":"92835","Description":null,"SalesValue":"$7611194.65"},
{"NoOfRooms":5,"NoOfBathrooms":3,"SqFeet":3966,"Address1":"206 Bartelt Junction","Address2":"PO Box 48945","City":"Corona","State":"CA","Zip":"92883","Description":null,"SalesValue":"$9748360.84"},
{"NoOfRooms":4,"NoOfBathrooms":4,"SqFeet":7007,"Address1":"72 Onsgard Lane","Address2":"Suite 64","City":"Long Beach","State":"CA","Zip":"90840","Description":null,"SalesValue":"$4730448.15"},
{"NoOfRooms":1,"NoOfBathrooms":1,"SqFeet":1418,"Address1":"1169 Wayridge Road","Address2":"Room 1166","City":"San Jose","State":"CA","Zip":"95194","Description":null,"SalesValue":"$9521357.72"},
{"NoOfRooms":2,"NoOfBathrooms":2,"SqFeet":7312,"Address1":"096 Oneill Court","Address2":"9th Floor","City":"San Jose","State":"CA","Zip":"95133","Description":null,"SalesValue":"$555084.60"},
{"NoOfRooms":1,"NoOfBathrooms":1,"SqFeet":720,"Address1":"5659 Cherokee Park","Address2":"Room 1480","City":"Los Angeles","State":"CA","Zip":"90076","Description":null,"SalesValue":"$1694833.40"},
{"NoOfRooms":2,"NoOfBathrooms":2,"SqFeet":6617,"Address1":"149 Sunbrook Terrace","Address2":"17th Floor","City":"Los Angeles","State":"CA","Zip":"90087","Description":null,"SalesValue":"$3135705.58"},
{"NoOfRooms":4,"NoOfBathrooms":2,"SqFeet":6184,"Address1":"79313 Superior Lane","Address2":"PO Box 6099","City":"Pasadena","State":"CA","Zip":"91117","Description":null,"SalesValue":"$7312770.78"},
{"NoOfRooms":5,"NoOfBathrooms":1,"SqFeet":5331,"Address1":"8 Sunbrook Court","Address2":"Room 1575","City":"Hayward","State":"CA","Zip":"94544","Description":null,"SalesValue":"$2915039.94"},
{"NoOfRooms":2,"NoOfBathrooms":2,"SqFeet":4125,"Address1":"5222 Onsgard Street","Address2":"13th Floor","City":"North Hollywood","State":"CA","Zip":"91616","Description":null,"SalesValue":"$7986416.49"},
{"NoOfRooms":1,"NoOfBathrooms":5,"SqFeet":895,"Address1":"96 Acker Road","Address2":"Suite 30","City":"Fresno","State":"CA","Zip":"93704","Description":null,"SalesValue":"$9870763.73"},
{"NoOfRooms":5,"NoOfBathrooms":2,"SqFeet":6344,"Address1":"23382 Tennyson Lane","Address2":"11th Floor","City":"Sacramento","State":"CA","Zip":"95828","Description":null,"SalesValue":"$6187873.11"},
{"NoOfRooms":3,"NoOfBathrooms":2,"SqFeet":6820,"Address1":"6 Fisk Junction","Address2":"Room 985","City":"Sacramento","State":"CA","Zip":"95818","Description":null,"SalesValue":"$3080875.11"},
{"NoOfRooms":4,"NoOfBathrooms":2,"SqFeet":4536,"Address1":"82039 Melvin Alley","Address2":"Room 1931","City":"Los Angeles","State":"CA","Zip":"90071","Description":null,"SalesValue":"$5287526.69"},
{"NoOfRooms":1,"NoOfBathrooms":5,"SqFeet":7574,"Address1":"374 Mcbride Court","Address2":"Suite 94","City":"Long Beach","State":"CA","Zip":"90810","Description":null,"SalesValue":"$1226836.31"},
{"NoOfRooms":5,"NoOfBathrooms":5,"SqFeet":4158,"Address1":"266 Charing Cross Place","Address2":"Room 707","City":"San Francisco","State":"CA","Zip":"94137","Description":null,"SalesValue":"$6017602.81"},
{"NoOfRooms":4,"NoOfBathrooms":4,"SqFeet":6358,"Address1":"6546 Lakeland Crossing","Address2":"Apt 381","City":"Anaheim","State":"CA","Zip":"92825","Description":null,"SalesValue":"$2265560.10"},
{"NoOfRooms":4,"NoOfBathrooms":3,"SqFeet":7428,"Address1":"99102 Helena Terrace","Address2":"Room 1852","City":"San Jose","State":"CA","Zip":"95108","Description":null,"SalesValue":"$7065214.64"},
{"NoOfRooms":3,"NoOfBathrooms":3,"SqFeet":6240,"Address1":"22 Corscot Drive","Address2":"Apt 1551","City":"Santa Rosa","State":"CA","Zip":"95405","Description":null,"SalesValue":"$5529713.67"},
{"NoOfRooms":3,"NoOfBathrooms":5,"SqFeet":5656,"Address1":"6 Vermont Point","Address2":"17th Floor","City":"Sacramento","State":"CA","Zip":"95813","Description":null,"SalesValue":"$4590390.20"},
{"NoOfRooms":4,"NoOfBathrooms":1,"SqFeet":7725,"Address1":"835 Clemons Drive","Address2":"Suite 83","City":"Santa Barbara","State":"CA","Zip":"93150","Description":null,"SalesValue":"$5774646.49"},
{"NoOfRooms":3,"NoOfBathrooms":5,"SqFeet":2930,"Address1":"1693 Corry Street","Address2":"6th Floor","City":"San Diego","State":"CA","Zip":"92127","Description":null,"SalesValue":"$3403638.52"},
{"NoOfRooms":5,"NoOfBathrooms":4,"SqFeet":7828,"Address1":"2284 Independence Junction","Address2":"5th Floor","City":"Pasadena","State":"CA","Zip":"91103","Description":null,"SalesValue":"$7734610.42"},
{"NoOfRooms":2,"NoOfBathrooms":2,"SqFeet":1244,"Address1":"2 Karstens Court","Address2":"Apt 643","City":"San Jose","State":"CA","Zip":"95160","Description":null,"SalesValue":"$6650807.43"},
{"NoOfRooms":3,"NoOfBathrooms":3,"SqFeet":761,"Address1":"1151 American Road","Address2":"Apt 405","City":"Bakersfield","State":"CA","Zip":"93305","Description":null,"SalesValue":"$1154912.87"},
{"NoOfRooms":2,"NoOfBathrooms":4,"SqFeet":2906,"Address1":"2 Macpherson Drive","Address2":"Room 305","City":"San Mateo","State":"CA","Zip":"94405","Description":null,"SalesValue":"$2874122.89"},
{"NoOfRooms":2,"NoOfBathrooms":3,"SqFeet":8296,"Address1":"50871 Gulseth Junction","Address2":"Apt 1102","City":"Redwood City","State":"CA","Zip":"94064","Description":null,"SalesValue":"$3409822.62"},
{"NoOfRooms":5,"NoOfBathrooms":1,"SqFeet":1398,"Address1":"605 Butterfield Center","Address2":"PO Box 17633","City":"Garden Grove","State":"CA","Zip":"92844","Description":null,"SalesValue":"$4037744.38"},
{"NoOfRooms":3,"NoOfBathrooms":1,"SqFeet":9026,"Address1":"0 Merrick Road","Address2":"Apt 1490","City":"North Hollywood","State":"CA","Zip":"91606","Description":null,"SalesValue":"$9134152.16"},
{"NoOfRooms":3,"NoOfBathrooms":3,"SqFeet":8584,"Address1":"0827 Summerview Center","Address2":"3rd Floor","City":"Redwood City","State":"CA","Zip":"94064","Description":null,"SalesValue":"$6555924.38"},
{"NoOfRooms":1,"NoOfBathrooms":4,"SqFeet":7724,"Address1":"23 Veith Terrace","Address2":"Suite 80","City":"Pasadena","State":"CA","Zip":"91117","Description":null,"SalesValue":"$703953.80"},
{"NoOfRooms":1,"NoOfBathrooms":4,"SqFeet":5821,"Address1":"5 Victoria Pass","Address2":"8th Floor","City":"Oakland","State":"CA","Zip":"94611","Description":null,"SalesValue":"$7025540.73"},
{"NoOfRooms":3,"NoOfBathrooms":5,"SqFeet":6211,"Address1":"38 Knutson Drive","Address2":"Suite 40","City":"Pasadena","State":"CA","Zip":"91131","Description":null,"SalesValue":"$8730714.92"},
{"NoOfRooms":5,"NoOfBathrooms":3,"SqFeet":8601,"Address1":"1488 Stang Way","Address2":"Room 1476","City":"Bakersfield","State":"CA","Zip":"93381","Description":null,"SalesValue":"$7739267.23"},
{"NoOfRooms":5,"NoOfBathrooms":3,"SqFeet":6562,"Address1":"82484 Loeprich Drive","Address2":"Suite 41","City":"Fresno","State":"CA","Zip":"93778","Description":null,"SalesValue":"$5656027.09"},
{"NoOfRooms":3,"NoOfBathrooms":3,"SqFeet":9725,"Address1":"4499 Carey Place","Address2":"Apt 618","City":"Burbank","State":"CA","Zip":"91520","Description":null,"SalesValue":"$5862932.95"},
{"NoOfRooms":3,"NoOfBathrooms":4,"SqFeet":548,"Address1":"34272 Old Shore Junction","Address2":"Room 1419","City":"San Mateo","State":"CA","Zip":"94405","Description":null,"SalesValue":"$2696851.95"},
{"NoOfRooms":5,"NoOfBathrooms":2,"SqFeet":176,"Address1":"4 Buena Vista Alley","Address2":"Suite 47","City":"Sacramento","State":"CA","Zip":"94245","Description":null,"SalesValue":"$9087867.22"},
{"NoOfRooms":2,"NoOfBathrooms":4,"SqFeet":7235,"Address1":"77 Independence Park","Address2":"Room 1386","City":"San Diego","State":"CA","Zip":"92121","Description":null,"SalesValue":"$7345124.01"},
{"NoOfRooms":3,"NoOfBathrooms":5,"SqFeet":4203,"Address1":"421 Anhalt Avenue","Address2":"Room 1440","City":"Berkeley","State":"CA","Zip":"94705","Description":null,"SalesValue":"$2969819.72"},
{"NoOfRooms":5,"NoOfBathrooms":3,"SqFeet":9739,"Address1":"7100 Oak Circle","Address2":"Suite 91","City":"Petaluma","State":"CA","Zip":"94975","Description":null,"SalesValue":"$6256352.35"},
{"NoOfRooms":5,"NoOfBathrooms":4,"SqFeet":4085,"Address1":"6 Doe Crossing Avenue","Address2":"Apt 1048","City":"Pomona","State":"CA","Zip":"91797","Description":null,"SalesValue":"$8510998.33"},
{"NoOfRooms":4,"NoOfBathrooms":1,"SqFeet":4631,"Address1":"1 Welch Parkway","Address2":"PO Box 27026","City":"Fresno","State":"CA","Zip":"93794","Description":null,"SalesValue":"$8217809.06"},
{"NoOfRooms":2,"NoOfBathrooms":4,"SqFeet":5773,"Address1":"1365 Summerview Drive","Address2":"Apt 1523","City":"Sacramento","State":"CA","Zip":"95852","Description":null,"SalesValue":"$9706416.44"},
{"NoOfRooms":4,"NoOfBathrooms":3,"SqFeet":9502,"Address1":"6530 Westport Court","Address2":"Apt 1647","City":"Bakersfield","State":"CA","Zip":"93381","Description":null,"SalesValue":"$4400544.05"},
{"NoOfRooms":2,"NoOfBathrooms":1,"SqFeet":7685,"Address1":"4 Meadow Valley Court","Address2":"Apt 630","City":"Pasadena","State":"CA","Zip":"91117","Description":null,"SalesValue":"$8197256.02"},
{"NoOfRooms":3,"NoOfBathrooms":1,"SqFeet":3702,"Address1":"245 Gale Parkway","Address2":"Suite 84","City":"Santa Cruz","State":"CA","Zip":"95064","Description":null,"SalesValue":"$773031.74"},
{"NoOfRooms":4,"NoOfBathrooms":5,"SqFeet":9602,"Address1":"8683 Old Shore Trail","Address2":"5th Floor","City":"Sacramento","State":"CA","Zip":"94250","Description":null,"SalesValue":"$6606441.91"},
{"NoOfRooms":2,"NoOfBathrooms":2,"SqFeet":8497,"Address1":"97 Declaration Place","Address2":"Apt 1312","City":"Modesto","State":"CA","Zip":"95397","Description":null,"SalesValue":"$8295780.26"},
{"NoOfRooms":2,"NoOfBathrooms":5,"SqFeet":1857,"Address1":"9 Vernon Drive","Address2":"Room 1172","City":"San Jose","State":"CA","Zip":"95118","Description":null,"SalesValue":"$3265506.11"},
{"NoOfRooms":4,"NoOfBathrooms":3,"SqFeet":7022,"Address1":"6 Badeau Point","Address2":"Suite 94","City":"Richmond","State":"CA","Zip":"94807","Description":null,"SalesValue":"$8207990.13"},
{"NoOfRooms":4,"NoOfBathrooms":2,"SqFeet":4306,"Address1":"41517 Milwaukee Crossing","Address2":"Apt 737","City":"Van Nuys","State":"CA","Zip":"91406","Description":null,"SalesValue":"$9060652.99"},
{"NoOfRooms":1,"NoOfBathrooms":5,"SqFeet":7967,"Address1":"5 Southridge Pass","Address2":"PO Box 86460","City":"Fresno","State":"CA","Zip":"93794","Description":null,"SalesValue":"$8316286.18"},
{"NoOfRooms":5,"NoOfBathrooms":5,"SqFeet":8378,"Address1":"00 Dennis Alley","Address2":"Suite 3","City":"South Lake Tahoe","State":"CA","Zip":"96154","Description":null,"SalesValue":"$4424981.39"},
{"NoOfRooms":5,"NoOfBathrooms":4,"SqFeet":7121,"Address1":"3364 Victoria Road","Address2":"PO Box 22307","City":"Sacramento","State":"CA","Zip":"95813","Description":null,"SalesValue":"$5575783.95"},
{"NoOfRooms":2,"NoOfBathrooms":2,"SqFeet":712,"Address1":"48937 Rieder Street","Address2":"Suite 45","City":"Santa Rosa","State":"CA","Zip":"95405","Description":null,"SalesValue":"$9385460.37"},
{"NoOfRooms":5,"NoOfBathrooms":4,"SqFeet":1123,"Address1":"2624 Longview Park","Address2":"8th Floor","City":"San Francisco","State":"CA","Zip":"94177","Description":null,"SalesValue":"$2508257.64"},
{"NoOfRooms":1,"NoOfBathrooms":3,"SqFeet":4954,"Address1":"821 Welch Street","Address2":"Apt 1953","City":"Sacramento","State":"CA","Zip":"94297","Description":null,"SalesValue":"$2401485.80"},
{"NoOfRooms":3,"NoOfBathrooms":2,"SqFeet":5546,"Address1":"703 Bluestem Crossing","Address2":"PO Box 38305","City":"San Diego","State":"CA","Zip":"92115","Description":null,"SalesValue":"$7227021.20"},
{"NoOfRooms":4,"NoOfBathrooms":4,"SqFeet":3507,"Address1":"9 Melrose Center","Address2":"Room 1696","City":"Stockton","State":"CA","Zip":"95298","Description":null,"SalesValue":"$4067931.03"},
{"NoOfRooms":3,"NoOfBathrooms":2,"SqFeet":8758,"Address1":"59571 Crowley Terrace","Address2":"4th Floor","City":"Sacramento","State":"CA","Zip":"94230","Description":null,"SalesValue":"$3138485.14"},
{"NoOfRooms":4,"NoOfBathrooms":2,"SqFeet":4819,"Address1":"43780 Badeau Terrace","Address2":"Suite 6","City":"Stockton","State":"CA","Zip":"95298","Description":null,"SalesValue":"$3067645.01"},
{"NoOfRooms":5,"NoOfBathrooms":2,"SqFeet":5626,"Address1":"02426 Doe Crossing Crossing","Address2":"Apt 659","City":"San Rafael","State":"CA","Zip":"94913","Description":null,"SalesValue":"$3845876.60"},
{"NoOfRooms":3,"NoOfBathrooms":5,"SqFeet":518,"Address1":"714 Beilfuss Street","Address2":"2nd Floor","City":"San Jose","State":"CA","Zip":"95160","Description":null,"SalesValue":"$7940755.85"},
{"NoOfRooms":1,"NoOfBathrooms":2,"SqFeet":7168,"Address1":"5184 Kings Parkway","Address2":"Apt 1238","City":"San Diego","State":"CA","Zip":"92115","Description":null,"SalesValue":"$580951.87"},
{"NoOfRooms":2,"NoOfBathrooms":5,"SqFeet":9079,"Address1":"61 Mcguire Avenue","Address2":"Room 79","City":"Sacramento","State":"CA","Zip":"94297","Description":null,"SalesValue":"$1973404.65"},
{"NoOfRooms":1,"NoOfBathrooms":4,"SqFeet":9818,"Address1":"2803 Summerview Road","Address2":"Apt 447","City":"Fresno","State":"CA","Zip":"93794","Description":null,"SalesValue":"$1708558.19"},
{"NoOfRooms":3,"NoOfBathrooms":4,"SqFeet":4537,"Address1":"798 Saint Paul Plaza","Address2":"13th Floor","City":"Orange","State":"CA","Zip":"92862","Description":null,"SalesValue":"$526615.31"},
{"NoOfRooms":3,"NoOfBathrooms":4,"SqFeet":6929,"Address1":"265 Mandrake Pass","Address2":"Suite 44","City":"Stockton","State":"CA","Zip":"95219","Description":null,"SalesValue":"$7502281.87"},
{"NoOfRooms":1,"NoOfBathrooms":2,"SqFeet":539,"Address1":"8 Miller Alley","Address2":"PO Box 11408","City":"San Diego","State":"CA","Zip":"92191","Description":null,"SalesValue":"$7644587.65"},
{"NoOfRooms":5,"NoOfBathrooms":4,"SqFeet":3300,"Address1":"4900 Debs Plaza","Address2":"Suite 50","City":"Santa Ana","State":"CA","Zip":"92705","Description":null,"SalesValue":"$3469789.91"},
{"NoOfRooms":4,"NoOfBathrooms":2,"SqFeet":8642,"Address1":"62 Lake View Junction","Address2":"Suite 63","City":"San Francisco","State":"CA","Zip":"94105","Description":null,"SalesValue":"$1529961.28"},
{"NoOfRooms":1,"NoOfBathrooms":2,"SqFeet":1534,"Address1":"519 Caliangt Street","Address2":"PO Box 69613","City":"San Diego","State":"CA","Zip":"92105","Description":null,"SalesValue":"$5413463.87"},
{"NoOfRooms":2,"NoOfBathrooms":1,"SqFeet":9315,"Address1":"6372 Sycamore Pass","Address2":"Apt 936","City":"Corona","State":"CA","Zip":"92878","Description":null,"SalesValue":"$9882872.78"},
{"NoOfRooms":5,"NoOfBathrooms":4,"SqFeet":1633,"Address1":"7539 Hoard Alley","Address2":"Room 131","City":"Santa Monica","State":"CA","Zip":"90405","Description":null,"SalesValue":"$6851215.10"},
{"NoOfRooms":2,"NoOfBathrooms":5,"SqFeet":4718,"Address1":"90307 Longview Place","Address2":"Suite 54","City":"Richmond","State":"CA","Zip":"94807","Description":null,"SalesValue":"$2941076.17"},
{"NoOfRooms":3,"NoOfBathrooms":4,"SqFeet":6221,"Address1":"45795 Rockefeller Terrace","Address2":"Apt 1453","City":"San Bernardino","State":"CA","Zip":"92415","Description":null,"SalesValue":"$4235689.68"},
{"NoOfRooms":3,"NoOfBathrooms":2,"SqFeet":4673,"Address1":"417 Buena Vista Junction","Address2":"Suite 17","City":"Richmond","State":"CA","Zip":"94807","Description":null,"SalesValue":"$2389899.00"},
{"NoOfRooms":4,"NoOfBathrooms":3,"SqFeet":2344,"Address1":"3 Meadow Vale Way","Address2":"Suite 93","City":"San Francisco","State":"CA","Zip":"94116","Description":null,"SalesValue":"$5094524.00"},
{"NoOfRooms":2,"NoOfBathrooms":4,"SqFeet":2743,"Address1":"37413 Sunbrook Lane","Address2":"Apt 475","City":"San Francisco","State":"CA","Zip":"94142","Description":null,"SalesValue":"$9188644.15"},
{"NoOfRooms":3,"NoOfBathrooms":4,"SqFeet":2134,"Address1":"1601 Tomscot Trail","Address2":"Apt 73","City":"San Francisco","State":"CA","Zip":"94121","Description":null,"SalesValue":"$6018178.65"},
{"NoOfRooms":5,"NoOfBathrooms":2,"SqFeet":2614,"Address1":"545 Onsgard Court","Address2":"Apt 1948","City":"Santa Barbara","State":"CA","Zip":"93150","Description":null,"SalesValue":"$8191608.30"},
{"NoOfRooms":3,"NoOfBathrooms":3,"SqFeet":8564,"Address1":"9 Oxford Drive","Address2":"PO Box 61275","City":"Santa Barbara","State":"CA","Zip":"93150","Description":null,"SalesValue":"$5025490.78"},
{"NoOfRooms":1,"NoOfBathrooms":1,"SqFeet":7749,"Address1":"0023 Logan Circle","Address2":"8th Floor","City":"Burbank","State":"CA","Zip":"91520","Description":null,"SalesValue":"$4231926.95"},
{"NoOfRooms":2,"NoOfBathrooms":2,"SqFeet":7233,"Address1":"4753 Onsgard Way","Address2":"7th Floor","City":"Lancaster","State":"CA","Zip":"93584","Description":null,"SalesValue":"$8825507.02"},
{"NoOfRooms":5,"NoOfBathrooms":5,"SqFeet":5632,"Address1":"45 Towne Parkway","Address2":"PO Box 65720","City":"Anaheim","State":"CA","Zip":"92825","Description":null,"SalesValue":"$1237106.24"},
{"NoOfRooms":1,"NoOfBathrooms":5,"SqFeet":8763,"Address1":"5 Lighthouse Bay Road","Address2":"12th Floor","City":"San Francisco","State":"CA","Zip":"94164","Description":null,"SalesValue":"$4135843.48"},
{"NoOfRooms":1,"NoOfBathrooms":4,"SqFeet":6106,"Address1":"4648 Bellgrove Avenue","Address2":"13th Floor","City":"Oakland","State":"CA","Zip":"94605","Description":null,"SalesValue":"$4377509.75"},
{"NoOfRooms":5,"NoOfBathrooms":5,"SqFeet":1799,"Address1":"2792 Homewood Trail","Address2":"PO Box 33105","City":"Irvine","State":"CA","Zip":"92710","Description":null,"SalesValue":"$6595191.69"},
{"NoOfRooms":4,"NoOfBathrooms":1,"SqFeet":7652,"Address1":"4971 Roth Parkway","Address2":"PO Box 86567","City":"Anaheim","State":"CA","Zip":"92812","Description":null,"SalesValue":"$8522213.89"},
{"NoOfRooms":5,"NoOfBathrooms":3,"SqFeet":8679,"Address1":"74515 Gina Park","Address2":"PO Box 19442","City":"San Francisco","State":"CA","Zip":"94121","Description":null,"SalesValue":"$3037267.80"},
{"NoOfRooms":4,"NoOfBathrooms":5,"SqFeet":1426,"Address1":"2 Blaine Center","Address2":"Apt 850","City":"Los Angeles","State":"CA","Zip":"90040","Description":null,"SalesValue":"$4015097.14"},
{"NoOfRooms":2,"NoOfBathrooms":2,"SqFeet":7892,"Address1":"2023 Towne Park","Address2":"Apt 1801","City":"Anaheim","State":"CA","Zip":"92812","Description":null,"SalesValue":"$8282413.21"},
{"NoOfRooms":3,"NoOfBathrooms":3,"SqFeet":1093,"Address1":"5 Pepper Wood Way","Address2":"Room 899","City":"Los Angeles","State":"CA","Zip":"90050","Description":null,"SalesValue":"$5570186.00"},
{"NoOfRooms":4,"NoOfBathrooms":4,"SqFeet":4048,"Address1":"8461 Glacier Hill Center","Address2":"Room 752","City":"Corona","State":"CA","Zip":"92883","Description":null,"SalesValue":"$946342.73"},
{"NoOfRooms":5,"NoOfBathrooms":2,"SqFeet":9223,"Address1":"74 Holmberg Avenue","Address2":"Room 727","City":"Irvine","State":"CA","Zip":"92717","Description":null,"SalesValue":"$3864241.99"},
{"NoOfRooms":1,"NoOfBathrooms":5,"SqFeet":8619,"Address1":"07776 Loftsgordon Place","Address2":"Apt 1037","City":"Los Angeles","State":"CA","Zip":"90087","Description":null,"SalesValue":"$3556487.24"},
{"NoOfRooms":1,"NoOfBathrooms":3,"SqFeet":1370,"Address1":"52 Oak Valley Parkway","Address2":"PO Box 17180","City":"Bakersfield","State":"CA","Zip":"93305","Description":null,"SalesValue":"$1399939.79"},
{"NoOfRooms":1,"NoOfBathrooms":5,"SqFeet":3489,"Address1":"22 Atwood Circle","Address2":"Suite 75","City":"Fresno","State":"CA","Zip":"93750","Description":null,"SalesValue":"$2685572.13"},
{"NoOfRooms":1,"NoOfBathrooms":4,"SqFeet":8692,"Address1":"2628 Union Junction","Address2":"PO Box 94874","City":"Sacramento","State":"CA","Zip":"94245","Description":null,"SalesValue":"$2805824.66"},
{"NoOfRooms":3,"NoOfBathrooms":5,"SqFeet":3478,"Address1":"2660 Texas Drive","Address2":"Room 557","City":"San Francisco","State":"CA","Zip":"94105","Description":null,"SalesValue":"$6533032.06"},
{"NoOfRooms":2,"NoOfBathrooms":4,"SqFeet":4358,"Address1":"962 Dahle Place","Address2":"PO Box 19742","City":"San Bernardino","State":"CA","Zip":"92415","Description":null,"SalesValue":"$5304991.03"},
{"NoOfRooms":4,"NoOfBathrooms":2,"SqFeet":1520,"Address1":"73660 Maryland Point","Address2":"PO Box 47229","City":"Sacramento","State":"CA","Zip":"94257","Description":null,"SalesValue":"$4021307.71"},
{"NoOfRooms":4,"NoOfBathrooms":4,"SqFeet":5803,"Address1":"419 Northport Point","Address2":"Room 608","City":"Los Angeles","State":"CA","Zip":"90094","Description":null,"SalesValue":"$2581763.19"},
{"NoOfRooms":2,"NoOfBathrooms":5,"SqFeet":4447,"Address1":"678 Little Fleur Terrace","Address2":"PO Box 2360","City":"Escondido","State":"CA","Zip":"92030","Description":null,"SalesValue":"$7387181.66"},
{"NoOfRooms":1,"NoOfBathrooms":5,"SqFeet":2496,"Address1":"4568 Hoffman Circle","Address2":"Apt 906","City":"Los Angeles","State":"CA","Zip":"90045","Description":null,"SalesValue":"$612254.21"},
{"NoOfRooms":1,"NoOfBathrooms":1,"SqFeet":2420,"Address1":"0066 Roth Center","Address2":"PO Box 71592","City":"Brea","State":"CA","Zip":"92822","Description":null,"SalesValue":"$8190756.77"},
{"NoOfRooms":1,"NoOfBathrooms":3,"SqFeet":9565,"Address1":"7258 Knutson Hill","Address2":"Room 1660","City":"San Diego","State":"CA","Zip":"92110","Description":null,"SalesValue":"$2469322.00"},
{"NoOfRooms":2,"NoOfBathrooms":5,"SqFeet":665,"Address1":"7266 Oxford Court","Address2":"Room 832","City":"San Francisco","State":"CA","Zip":"94126","Description":null,"SalesValue":"$2306211.36"},
{"NoOfRooms":2,"NoOfBathrooms":3,"SqFeet":1178,"Address1":"0848 Kim Lane","Address2":"Apt 1060","City":"Santa Rosa","State":"CA","Zip":"95405","Description":null,"SalesValue":"$7961690.56"},
{"NoOfRooms":1,"NoOfBathrooms":2,"SqFeet":2728,"Address1":"80 Westerfield Way","Address2":"Suite 22","City":"Sacramento","State":"CA","Zip":"95852","Description":null,"SalesValue":"$7231622.15"},
{"NoOfRooms":3,"NoOfBathrooms":2,"SqFeet":105,"Address1":"8105 5th Terrace","Address2":"Suite 27","City":"San Diego","State":"CA","Zip":"92191","Description":null,"SalesValue":"$4409794.04"},
{"NoOfRooms":2,"NoOfBathrooms":3,"SqFeet":3850,"Address1":"1063 Caliangt Park","Address2":"3rd Floor","City":"Whittier","State":"CA","Zip":"90610","Description":null,"SalesValue":"$8269175.00"},
{"NoOfRooms":3,"NoOfBathrooms":5,"SqFeet":9101,"Address1":"992 Victoria Place","Address2":"Apt 757","City":"Oakland","State":"CA","Zip":"94622","Description":null,"SalesValue":"$3950138.79"},
{"NoOfRooms":1,"NoOfBathrooms":1,"SqFeet":9048,"Address1":"9891 Delaware Alley","Address2":"PO Box 2612","City":"San Francisco","State":"CA","Zip":"94164","Description":null,"SalesValue":"$4532620.09"},
{"NoOfRooms":2,"NoOfBathrooms":3,"SqFeet":2894,"Address1":"7 Schiller Avenue","Address2":"PO Box 91833","City":"San Francisco","State":"CA","Zip":"94177","Description":null,"SalesValue":"$2921219.64"},
{"NoOfRooms":5,"NoOfBathrooms":5,"SqFeet":1637,"Address1":"5 Manufacturers Circle","Address2":"Apt 287","City":"San Francisco","State":"CA","Zip":"94159","Description":null,"SalesValue":"$7163999.16"},
{"NoOfRooms":2,"NoOfBathrooms":1,"SqFeet":6646,"Address1":"7 Declaration Terrace","Address2":"Apt 1572","City":"Sacramento","State":"CA","Zip":"95838","Description":null,"SalesValue":"$1658121.69"},
{"NoOfRooms":1,"NoOfBathrooms":3,"SqFeet":488,"Address1":"05709 Haas Street","Address2":"Apt 873","City":"San Francisco","State":"CA","Zip":"94137","Description":null,"SalesValue":"$9433379.60"},
{"NoOfRooms":4,"NoOfBathrooms":3,"SqFeet":6993,"Address1":"89 Cambridge Crossing","Address2":"Apt 133","City":"Sacramento","State":"CA","Zip":"95818","Description":null,"SalesValue":"$3581207.61"},
{"NoOfRooms":1,"NoOfBathrooms":3,"SqFeet":9431,"Address1":"74819 Summer Ridge Terrace","Address2":"Room 885","City":"Inglewood","State":"CA","Zip":"90310","Description":null,"SalesValue":"$9600555.72"},
{"NoOfRooms":2,"NoOfBathrooms":4,"SqFeet":2502,"Address1":"22 Ridgeview Place","Address2":"5th Floor","City":"San Diego","State":"CA","Zip":"92132","Description":null,"SalesValue":"$5154904.69"},
{"NoOfRooms":3,"NoOfBathrooms":1,"SqFeet":6763,"Address1":"16731 Riverside Drive","Address2":"PO Box 4268","City":"Sacramento","State":"CA","Zip":"95818","Description":null,"SalesValue":"$2905552.67"},
{"NoOfRooms":5,"NoOfBathrooms":2,"SqFeet":6148,"Address1":"0525 Oakridge Parkway","Address2":"PO Box 18132","City":"Los Angeles","State":"CA","Zip":"90030","Description":null,"SalesValue":"$8178093.95"},
{"NoOfRooms":2,"NoOfBathrooms":4,"SqFeet":9597,"Address1":"6 Anhalt Place","Address2":"PO Box 43611","City":"Orange","State":"CA","Zip":"92862","Description":null,"SalesValue":"$6855163.07"},
{"NoOfRooms":4,"NoOfBathrooms":4,"SqFeet":1837,"Address1":"8 Troy Road","Address2":"4th Floor","City":"San Francisco","State":"CA","Zip":"94110","Description":null,"SalesValue":"$4835788.43"},
{"NoOfRooms":2,"NoOfBathrooms":4,"SqFeet":3978,"Address1":"09342 Homewood Center","Address2":"Apt 245","City":"Petaluma","State":"CA","Zip":"94975","Description":null,"SalesValue":"$3598627.94"},
{"NoOfRooms":5,"NoOfBathrooms":5,"SqFeet":1842,"Address1":"475 Calypso Hill","Address2":"Suite 92","City":"Pasadena","State":"CA","Zip":"91131","Description":null,"SalesValue":"$1024360.77"},
{"NoOfRooms":5,"NoOfBathrooms":4,"SqFeet":6519,"Address1":"4122 Heath Drive","Address2":"Suite 45","City":"Los Angeles","State":"CA","Zip":"90045","Description":null,"SalesValue":"$7734530.09"},
{"NoOfRooms":4,"NoOfBathrooms":5,"SqFeet":2242,"Address1":"5 Bluejay Drive","Address2":"Suite 95","City":"San Bernardino","State":"CA","Zip":"92405","Description":null,"SalesValue":"$1051394.36"},
{"NoOfRooms":1,"NoOfBathrooms":2,"SqFeet":5797,"Address1":"557 Gulseth Circle","Address2":"Suite 37","City":"San Diego","State":"CA","Zip":"92176","Description":null,"SalesValue":"$6165475.45"},
{"NoOfRooms":4,"NoOfBathrooms":1,"SqFeet":4884,"Address1":"87189 Mallory Center","Address2":"Room 1934","City":"San Bernardino","State":"CA","Zip":"92424","Description":null,"SalesValue":"$9865821.27"},
{"NoOfRooms":4,"NoOfBathrooms":2,"SqFeet":3459,"Address1":"54359 Sherman Avenue","Address2":"20th Floor","City":"Van Nuys","State":"CA","Zip":"91499","Description":null,"SalesValue":"$7940209.23"},
{"NoOfRooms":5,"NoOfBathrooms":3,"SqFeet":2939,"Address1":"95391 Springs Street","Address2":"PO Box 26421","City":"Pasadena","State":"CA","Zip":"91186","Description":null,"SalesValue":"$1160632.66"},
{"NoOfRooms":3,"NoOfBathrooms":1,"SqFeet":8918,"Address1":"34360 Judy Crossing","Address2":"Suite 24","City":"Pasadena","State":"CA","Zip":"91186","Description":null,"SalesValue":"$2946471.92"},
{"NoOfRooms":2,"NoOfBathrooms":4,"SqFeet":3079,"Address1":"44 Carey Avenue","Address2":"Room 1908","City":"Bakersfield","State":"CA","Zip":"93305","Description":null,"SalesValue":"$9400073.96"},
{"NoOfRooms":3,"NoOfBathrooms":5,"SqFeet":4371,"Address1":"05999 Alpine Road","Address2":"PO Box 78007","City":"Orange","State":"CA","Zip":"92668","Description":null,"SalesValue":"$7045404.18"},
{"NoOfRooms":1,"NoOfBathrooms":3,"SqFeet":5377,"Address1":"89 Algoma Trail","Address2":"6th Floor","City":"Los Angeles","State":"CA","Zip":"90050","Description":null,"SalesValue":"$4550800.09"},
{"NoOfRooms":1,"NoOfBathrooms":2,"SqFeet":5333,"Address1":"2604 Monument Terrace","Address2":"Suite 15","City":"Palo Alto","State":"CA","Zip":"94302","Description":null,"SalesValue":"$5421312.31"},
{"NoOfRooms":3,"NoOfBathrooms":1,"SqFeet":393,"Address1":"6845 Armistice Hill","Address2":"Suite 9","City":"Brea","State":"CA","Zip":"92822","Description":null,"SalesValue":"$4375640.22"},
{"NoOfRooms":4,"NoOfBathrooms":2,"SqFeet":4037,"Address1":"5055 Arizona Hill","Address2":"Suite 52","City":"San Jose","State":"CA","Zip":"95155","Description":null,"SalesValue":"$1150466.60"},
{"NoOfRooms":3,"NoOfBathrooms":3,"SqFeet":8871,"Address1":"4405 Bluejay Junction","Address2":"Room 1940","City":"Oakland","State":"CA","Zip":"94605","Description":null,"SalesValue":"$8485692.21"},
{"NoOfRooms":3,"NoOfBathrooms":4,"SqFeet":8672,"Address1":"8013 Corben Plaza","Address2":"13th Floor","City":"Santa Ana","State":"CA","Zip":"92725","Description":null,"SalesValue":"$1652955.33"},
{"NoOfRooms":4,"NoOfBathrooms":5,"SqFeet":975,"Address1":"4156 Ridgeway Center","Address2":"Suite 39","City":"San Jose","State":"CA","Zip":"95118","Description":null,"SalesValue":"$1511111.81"},
{"NoOfRooms":1,"NoOfBathrooms":2,"SqFeet":4632,"Address1":"5078 Lukken Terrace","Address2":"Suite 99","City":"San Rafael","State":"CA","Zip":"94913","Description":null,"SalesValue":"$6907450.50"},
{"NoOfRooms":1,"NoOfBathrooms":2,"SqFeet":707,"Address1":"940 Westend Court","Address2":"Suite 39","City":"Irvine","State":"CA","Zip":"92717","Description":null,"SalesValue":"$909687.39"},
{"NoOfRooms":3,"NoOfBathrooms":4,"SqFeet":4720,"Address1":"34499 Aberg Junction","Address2":"5th Floor","City":"Fullerton","State":"CA","Zip":"92835","Description":null,"SalesValue":"$1497528.46"},
{"NoOfRooms":4,"NoOfBathrooms":5,"SqFeet":4030,"Address1":"14931 Veith Junction","Address2":"Suite 74","City":"Bakersfield","State":"CA","Zip":"93399","Description":null,"SalesValue":"$1398787.06"},
{"NoOfRooms":4,"NoOfBathrooms":2,"SqFeet":7253,"Address1":"42483 Eliot Court","Address2":"18th Floor","City":"Torrance","State":"CA","Zip":"90510","Description":null,"SalesValue":"$5436484.11"},
{"NoOfRooms":1,"NoOfBathrooms":3,"SqFeet":3566,"Address1":"5 Sage Avenue","Address2":"Room 1733","City":"Sacramento","State":"CA","Zip":"95833","Description":null,"SalesValue":"$9859714.21"},
{"NoOfRooms":2,"NoOfBathrooms":1,"SqFeet":1097,"Address1":"8807 Trailsway Pass","Address2":"PO Box 16981","City":"Santa Rosa","State":"CA","Zip":"95405","Description":null,"SalesValue":"$6720462.26"},
{"NoOfRooms":2,"NoOfBathrooms":3,"SqFeet":9696,"Address1":"5 Becker Trail","Address2":"Room 925","City":"South Lake Tahoe","State":"CA","Zip":"96154","Description":null,"SalesValue":"$6722884.22"},
{"NoOfRooms":4,"NoOfBathrooms":4,"SqFeet":4760,"Address1":"3 Ramsey Road","Address2":"PO Box 69843","City":"Santa Ana","State":"CA","Zip":"92725","Description":null,"SalesValue":"$2026890.89"},
{"NoOfRooms":2,"NoOfBathrooms":4,"SqFeet":1047,"Address1":"61189 Laurel Way","Address2":"Suite 59","City":"San Jose","State":"CA","Zip":"95150","Description":null,"SalesValue":"$8889904.37"},
{"NoOfRooms":4,"NoOfBathrooms":4,"SqFeet":9150,"Address1":"31 Garrison Circle","Address2":"Room 636","City":"Sacramento","State":"CA","Zip":"95818","Description":null,"SalesValue":"$7069095.93"},
{"NoOfRooms":5,"NoOfBathrooms":1,"SqFeet":1589,"Address1":"277 Havey Circle","Address2":"12th Floor","City":"Modesto","State":"CA","Zip":"95397","Description":null,"SalesValue":"$630455.95"},
{"NoOfRooms":3,"NoOfBathrooms":4,"SqFeet":1991,"Address1":"5 Northwestern Point","Address2":"Room 1145","City":"San Bernardino","State":"CA","Zip":"92415","Description":null,"SalesValue":"$3621117.62"},
{"NoOfRooms":1,"NoOfBathrooms":1,"SqFeet":3660,"Address1":"865 Scofield Terrace","Address2":"Room 1442","City":"San Diego","State":"CA","Zip":"92170","Description":null,"SalesValue":"$6696517.92"},
{"NoOfRooms":2,"NoOfBathrooms":1,"SqFeet":3277,"Address1":"92754 Thompson Avenue","Address2":"4th Floor","City":"Sacramento","State":"CA","Zip":"95852","Description":null,"SalesValue":"$7755841.29"},
{"NoOfRooms":4,"NoOfBathrooms":5,"SqFeet":3825,"Address1":"79 Bartillon Parkway","Address2":"18th Floor","City":"Palmdale","State":"CA","Zip":"93591","Description":null,"SalesValue":"$2993149.73"},
{"NoOfRooms":5,"NoOfBathrooms":1,"SqFeet":347,"Address1":"76819 Nancy Terrace","Address2":"PO Box 58853","City":"San Francisco","State":"CA","Zip":"94177","Description":null,"SalesValue":"$2489221.73"},
{"NoOfRooms":1,"NoOfBathrooms":1,"SqFeet":4880,"Address1":"7 Briar Crest Road","Address2":"Apt 552","City":"Glendale","State":"CA","Zip":"91210","Description":null,"SalesValue":"$8025404.94"},
{"NoOfRooms":1,"NoOfBathrooms":1,"SqFeet":8077,"Address1":"6751 Browning Place","Address2":"Room 371","City":"Fresno","State":"CA","Zip":"93794","Description":null,"SalesValue":"$4710595.81"},
{"NoOfRooms":1,"NoOfBathrooms":3,"SqFeet":845,"Address1":"8576 Packers Pass","Address2":"Apt 1634","City":"Sacramento","State":"CA","Zip":"94237","Description":null,"SalesValue":"$3428510.21"},
{"NoOfRooms":1,"NoOfBathrooms":2,"SqFeet":7128,"Address1":"13 Schurz Park","Address2":"PO Box 37206","City":"Sacramento","State":"CA","Zip":"95852","Description":null,"SalesValue":"$6465532.83"},
{"NoOfRooms":2,"NoOfBathrooms":4,"SqFeet":1454,"Address1":"7937 Springview Way","Address2":"9th Floor","City":"Bakersfield","State":"CA","Zip":"93311","Description":null,"SalesValue":"$5419062.66"},
{"NoOfRooms":5,"NoOfBathrooms":5,"SqFeet":9632,"Address1":"01 Anniversary Road","Address2":"Apt 1801","City":"Glendale","State":"CA","Zip":"91210","Description":null,"SalesValue":"$2827904.40"},
{"NoOfRooms":3,"NoOfBathrooms":2,"SqFeet":4763,"Address1":"038 Haas Court","Address2":"15th Floor","City":"South Lake Tahoe","State":"CA","Zip":"96154","Description":null,"SalesValue":"$6473680.82"},
{"NoOfRooms":2,"NoOfBathrooms":3,"SqFeet":2356,"Address1":"5 Menomonie Center","Address2":"PO Box 32067","City":"Salinas","State":"CA","Zip":"93907","Description":null,"SalesValue":"$4494908.39"},
{"NoOfRooms":3,"NoOfBathrooms":2,"SqFeet":8988,"Address1":"45 Oneill Court","Address2":"Apt 1000","City":"Sacramento","State":"CA","Zip":"94257","Description":null,"SalesValue":"$4117021.79"},
{"NoOfRooms":5,"NoOfBathrooms":2,"SqFeet":6875,"Address1":"6283 Cambridge Center","Address2":"2nd Floor","City":"San Diego","State":"CA","Zip":"92115","Description":null,"SalesValue":"$7735619.91"},
{"NoOfRooms":5,"NoOfBathrooms":4,"SqFeet":9553,"Address1":"891 Hoepker Terrace","Address2":"3rd Floor","City":"San Diego","State":"CA","Zip":"92191","Description":null,"SalesValue":"$8054844.60"},
{"NoOfRooms":4,"NoOfBathrooms":5,"SqFeet":5268,"Address1":"29 Blue Bill Park Drive","Address2":"Apt 936","City":"San Francisco","State":"CA","Zip":"94154","Description":null,"SalesValue":"$3050125.39"},
{"NoOfRooms":3,"NoOfBathrooms":1,"SqFeet":4851,"Address1":"0 Washington Avenue","Address2":"PO Box 30121","City":"Bakersfield","State":"CA","Zip":"93381","Description":null,"SalesValue":"$6505948.52"},
{"NoOfRooms":1,"NoOfBathrooms":4,"SqFeet":7415,"Address1":"6215 Rieder Parkway","Address2":"Apt 543","City":"Orange","State":"CA","Zip":"92867","Description":null,"SalesValue":"$3820738.33"},
{"NoOfRooms":3,"NoOfBathrooms":4,"SqFeet":481,"Address1":"97952 Daystar Hill","Address2":"Room 1840","City":"San Jose","State":"CA","Zip":"95133","Description":null,"SalesValue":"$6441639.81"},
{"NoOfRooms":1,"NoOfBathrooms":4,"SqFeet":2149,"Address1":"9449 Vahlen Crossing","Address2":"PO Box 50434","City":"Los Angeles","State":"CA","Zip":"90015","Description":null,"SalesValue":"$3125840.34"},
{"NoOfRooms":1,"NoOfBathrooms":3,"SqFeet":8225,"Address1":"51 Center Circle","Address2":"Room 364","City":"Van Nuys","State":"CA","Zip":"91411","Description":null,"SalesValue":"$3822921.07"},
{"NoOfRooms":4,"NoOfBathrooms":4,"SqFeet":7289,"Address1":"32367 American Court","Address2":"13th Floor","City":"San Jose","State":"CA","Zip":"95133","Description":null,"SalesValue":"$8118623.41"},
{"NoOfRooms":1,"NoOfBathrooms":4,"SqFeet":345,"Address1":"1 High Crossing Hill","Address2":"19th Floor","City":"Irvine","State":"CA","Zip":"92619","Description":null,"SalesValue":"$3739470.27"},
{"NoOfRooms":2,"NoOfBathrooms":1,"SqFeet":1539,"Address1":"0 Delaware Park","Address2":"PO Box 96925","City":"Simi Valley","State":"CA","Zip":"93094","Description":null,"SalesValue":"$7768351.09"},
{"NoOfRooms":3,"NoOfBathrooms":1,"SqFeet":4564,"Address1":"41484 Northport Plaza","Address2":"Room 235","City":"Santa Barbara","State":"CA","Zip":"93111","Description":null,"SalesValue":"$5931798.89"},
{"NoOfRooms":3,"NoOfBathrooms":3,"SqFeet":7133,"Address1":"65 Manley Way","Address2":"Room 80","City":"Simi Valley","State":"CA","Zip":"93094","Description":null,"SalesValue":"$7111788.88"},
{"NoOfRooms":2,"NoOfBathrooms":5,"SqFeet":2317,"Address1":"9988 Meadow Valley Place","Address2":"5th Floor","City":"Riverside","State":"CA","Zip":"92519","Description":null,"SalesValue":"$6735230.64"},
{"NoOfRooms":2,"NoOfBathrooms":1,"SqFeet":1132,"Address1":"14 Morrow Circle","Address2":"Suite 35","City":"Sacramento","State":"CA","Zip":"94273","Description":null,"SalesValue":"$6754401.01"},
{"NoOfRooms":1,"NoOfBathrooms":5,"SqFeet":4652,"Address1":"487 Green Junction","Address2":"15th Floor","City":"Oakland","State":"CA","Zip":"94616","Description":null,"SalesValue":"$7407485.37"},
{"NoOfRooms":4,"NoOfBathrooms":3,"SqFeet":1134,"Address1":"882 Basil Hill","Address2":"PO Box 14541","City":"Santa Monica","State":"CA","Zip":"90405","Description":null,"SalesValue":"$1213378.58"},
{"NoOfRooms":2,"NoOfBathrooms":1,"SqFeet":8012,"Address1":"2002 Grasskamp Center","Address2":"15th Floor","City":"Carlsbad","State":"CA","Zip":"92013","Description":null,"SalesValue":"$9137711.63"},
{"NoOfRooms":5,"NoOfBathrooms":4,"SqFeet":4084,"Address1":"99 Maple Wood Lane","Address2":"Room 1318","City":"Glendale","State":"CA","Zip":"91205","Description":null,"SalesValue":"$3037318.52"},
{"NoOfRooms":1,"NoOfBathrooms":2,"SqFeet":1008,"Address1":"9 Anderson Terrace","Address2":"Suite 17","City":"Glendale","State":"CA","Zip":"91210","Description":null,"SalesValue":"$808606.50"},
{"NoOfRooms":5,"NoOfBathrooms":2,"SqFeet":7567,"Address1":"7 Hovde Way","Address2":"PO Box 98044","City":"Fresno","State":"CA","Zip":"93709","Description":null,"SalesValue":"$8125704.76"},
{"NoOfRooms":5,"NoOfBathrooms":4,"SqFeet":3836,"Address1":"224 Westend Crossing","Address2":"20th Floor","City":"Sacramento","State":"CA","Zip":"94230","Description":null,"SalesValue":"$4267196.13"},
{"NoOfRooms":4,"NoOfBathrooms":1,"SqFeet":5184,"Address1":"4716 Pearson Parkway","Address2":"Room 488","City":"San Francisco","State":"CA","Zip":"94121","Description":null,"SalesValue":"$4853157.61"},
{"NoOfRooms":4,"NoOfBathrooms":4,"SqFeet":1312,"Address1":"12317 Stuart Crossing","Address2":"Suite 6","City":"Los Angeles","State":"CA","Zip":"90189","Description":null,"SalesValue":"$3971247.16"},
{"NoOfRooms":1,"NoOfBathrooms":5,"SqFeet":2409,"Address1":"21390 Dixon Park","Address2":"Suite 46","City":"Mountain View","State":"CA","Zip":"94042","Description":null,"SalesValue":"$6925692.28"},
{"NoOfRooms":4,"NoOfBathrooms":5,"SqFeet":8944,"Address1":"73 Barby Plaza","Address2":"Suite 97","City":"San Diego","State":"CA","Zip":"92115","Description":null,"SalesValue":"$8447140.05"},
{"NoOfRooms":5,"NoOfBathrooms":3,"SqFeet":6180,"Address1":"2400 4th Junction","Address2":"PO Box 32506","City":"Berkeley","State":"CA","Zip":"94705","Description":null,"SalesValue":"$1067234.31"},
{"NoOfRooms":5,"NoOfBathrooms":5,"SqFeet":6810,"Address1":"74 Ludington Pass","Address2":"8th Floor","City":"San Diego","State":"CA","Zip":"92186","Description":null,"SalesValue":"$1201305.36"},
{"NoOfRooms":3,"NoOfBathrooms":2,"SqFeet":582,"Address1":"0335 Ohio Plaza","Address2":"Room 1894","City":"Long Beach","State":"CA","Zip":"90840","Description":null,"SalesValue":"$1609866.48"},
{"NoOfRooms":3,"NoOfBathrooms":1,"SqFeet":4941,"Address1":"1 Gulseth Place","Address2":"Apt 375","City":"Sacramento","State":"CA","Zip":"95838","Description":null,"SalesValue":"$3564958.80"},
{"NoOfRooms":2,"NoOfBathrooms":4,"SqFeet":2308,"Address1":"0592 Gateway Point","Address2":"PO Box 79317","City":"Visalia","State":"CA","Zip":"93291","Description":null,"SalesValue":"$5620669.71"},
{"NoOfRooms":2,"NoOfBathrooms":4,"SqFeet":9163,"Address1":"31668 Annamark Pass","Address2":"PO Box 91051","City":"Fresno","State":"CA","Zip":"93794","Description":null,"SalesValue":"$2019510.54"},
{"NoOfRooms":5,"NoOfBathrooms":4,"SqFeet":8564,"Address1":"73 Clove Alley","Address2":"Apt 1937","City":"Garden Grove","State":"CA","Zip":"92844","Description":null,"SalesValue":"$5324869.50"},
{"NoOfRooms":3,"NoOfBathrooms":5,"SqFeet":1564,"Address1":"74115 Golden Leaf Hill","Address2":"Room 1439","City":"San Bernardino","State":"CA","Zip":"92415","Description":null,"SalesValue":"$1771130.69"},
{"NoOfRooms":2,"NoOfBathrooms":1,"SqFeet":3916,"Address1":"009 Heath Junction","Address2":"Suite 50","City":"Sacramento","State":"CA","Zip":"95894","Description":null,"SalesValue":"$9759882.90"},
{"NoOfRooms":1,"NoOfBathrooms":2,"SqFeet":6150,"Address1":"657 Barnett Junction","Address2":"Suite 30","City":"Pasadena","State":"CA","Zip":"91125","Description":null,"SalesValue":"$8180065.60"},
{"NoOfRooms":1,"NoOfBathrooms":4,"SqFeet":954,"Address1":"20950 Johnson Pass","Address2":"Room 148","City":"Pasadena","State":"CA","Zip":"91186","Description":null,"SalesValue":"$2262170.33"},
{"NoOfRooms":5,"NoOfBathrooms":4,"SqFeet":1189,"Address1":"33167 Dunning Avenue","Address2":"Apt 1162","City":"Inglewood","State":"CA","Zip":"90310","Description":null,"SalesValue":"$2541186.30"},
{"NoOfRooms":2,"NoOfBathrooms":2,"SqFeet":2108,"Address1":"61945 Cottonwood Lane","Address2":"Apt 472","City":"Lancaster","State":"CA","Zip":"93584","Description":null,"SalesValue":"$1437496.73"},
{"NoOfRooms":1,"NoOfBathrooms":5,"SqFeet":9838,"Address1":"7850 Kings Hill","Address2":"9th Floor","City":"Orange","State":"CA","Zip":"92867","Description":null,"SalesValue":"$1722652.12"},
{"NoOfRooms":2,"NoOfBathrooms":4,"SqFeet":7504,"Address1":"5949 Harper Junction","Address2":"1st Floor","City":"Los Angeles","State":"CA","Zip":"90025","Description":null,"SalesValue":"$6626276.39"},
{"NoOfRooms":4,"NoOfBathrooms":4,"SqFeet":9552,"Address1":"2896 Jana Pass","Address2":"Room 898","City":"Modesto","State":"CA","Zip":"95354","Description":null,"SalesValue":"$8295244.86"},
{"NoOfRooms":2,"NoOfBathrooms":3,"SqFeet":2925,"Address1":"2163 Trailsway Road","Address2":"PO Box 73567","City":"Fresno","State":"CA","Zip":"93773","Description":null,"SalesValue":"$9179778.20"},
{"NoOfRooms":1,"NoOfBathrooms":5,"SqFeet":1459,"Address1":"72795 Larry Court","Address2":"Suite 15","City":"Los Angeles","State":"CA","Zip":"90040","Description":null,"SalesValue":"$6773951.41"},
{"NoOfRooms":1,"NoOfBathrooms":4,"SqFeet":8021,"Address1":"5184 Bultman Road","Address2":"PO Box 58155","City":"San Francisco","State":"CA","Zip":"94126","Description":null,"SalesValue":"$7537503.89"},
{"NoOfRooms":3,"NoOfBathrooms":1,"SqFeet":4017,"Address1":"61 Hanover Hill","Address2":"Suite 24","City":"Pasadena","State":"CA","Zip":"91186","Description":null,"SalesValue":"$2276189.45"},
{"NoOfRooms":2,"NoOfBathrooms":1,"SqFeet":1066,"Address1":"70845 Monument Alley","Address2":"PO Box 63957","City":"San Francisco","State":"CA","Zip":"94147","Description":null,"SalesValue":"$6919420.86"},
{"NoOfRooms":2,"NoOfBathrooms":5,"SqFeet":3139,"Address1":"769 Burrows Point","Address2":"Apt 257","City":"Concord","State":"CA","Zip":"94522","Description":null,"SalesValue":"$2144871.12"},
{"NoOfRooms":1,"NoOfBathrooms":1,"SqFeet":3667,"Address1":"88 Vernon Trail","Address2":"Suite 82","City":"Long Beach","State":"CA","Zip":"90810","Description":null,"SalesValue":"$9707342.83"},
{"NoOfRooms":5,"NoOfBathrooms":5,"SqFeet":8947,"Address1":"8 Becker Trail","Address2":"Suite 11","City":"Sacramento","State":"CA","Zip":"94273","Description":null,"SalesValue":"$9582745.53"},
{"NoOfRooms":4,"NoOfBathrooms":5,"SqFeet":3552,"Address1":"0256 Jenna Crossing","Address2":"Room 8","City":"San Jose","State":"CA","Zip":"95128","Description":null,"SalesValue":"$3643595.04"},
{"NoOfRooms":1,"NoOfBathrooms":4,"SqFeet":586,"Address1":"28 Dryden Hill","Address2":"5th Floor","City":"Bakersfield","State":"CA","Zip":"93311","Description":null,"SalesValue":"$923064.33"},
{"NoOfRooms":1,"NoOfBathrooms":1,"SqFeet":9201,"Address1":"81 Spenser Street","Address2":"PO Box 75740","City":"Irvine","State":"CA","Zip":"92612","Description":null,"SalesValue":"$9385690.53"},
{"NoOfRooms":5,"NoOfBathrooms":3,"SqFeet":6377,"Address1":"3 Mccormick Parkway","Address2":"Room 1373","City":"Oakland","State":"CA","Zip":"94627","Description":null,"SalesValue":"$3097460.73"},
{"NoOfRooms":5,"NoOfBathrooms":1,"SqFeet":6982,"Address1":"2776 Mayfield Parkway","Address2":"Room 535","City":"Santa Cruz","State":"CA","Zip":"95064","Description":null,"SalesValue":"$802537.49"},
{"NoOfRooms":2,"NoOfBathrooms":5,"SqFeet":6188,"Address1":"7 Trailsway Lane","Address2":"Suite 59","City":"San Jose","State":"CA","Zip":"95123","Description":null,"SalesValue":"$8609156.17"},
{"NoOfRooms":5,"NoOfBathrooms":4,"SqFeet":9404,"Address1":"88 Hoffman Avenue","Address2":"Room 1762","City":"South Lake Tahoe","State":"CA","Zip":"96154","Description":null,"SalesValue":"$657306.47"},
{"NoOfRooms":4,"NoOfBathrooms":5,"SqFeet":3647,"Address1":"84 Spaight Plaza","Address2":"PO Box 49567","City":"Brea","State":"CA","Zip":"92822","Description":null,"SalesValue":"$7964976.65"},
{"NoOfRooms":1,"NoOfBathrooms":5,"SqFeet":6349,"Address1":"347 Harper Center","Address2":"Apt 1227","City":"Whittier","State":"CA","Zip":"90610","Description":null,"SalesValue":"$1871561.30"},
{"NoOfRooms":3,"NoOfBathrooms":5,"SqFeet":7957,"Address1":"38 4th Avenue","Address2":"17th Floor","City":"Sacramento","State":"CA","Zip":"95813","Description":null,"SalesValue":"$4200746.12"},
{"NoOfRooms":5,"NoOfBathrooms":2,"SqFeet":9349,"Address1":"6 Glendale Street","Address2":"Apt 580","City":"Riverside","State":"CA","Zip":"92519","Description":null,"SalesValue":"$9751812.05"},
{"NoOfRooms":4,"NoOfBathrooms":3,"SqFeet":3588,"Address1":"0 Sunbrook Trail","Address2":"Apt 1435","City":"Los Angeles","State":"CA","Zip":"90040","Description":null,"SalesValue":"$6260341.12"},
{"NoOfRooms":2,"NoOfBathrooms":2,"SqFeet":9096,"Address1":"44061 Larry Park","Address2":"Room 162","City":"Newport Beach","State":"CA","Zip":"92662","Description":null,"SalesValue":"$976431.24"},
{"NoOfRooms":1,"NoOfBathrooms":1,"SqFeet":2231,"Address1":"58277 Loeprich Crossing","Address2":"PO Box 3195","City":"Orange","State":"CA","Zip":"92668","Description":null,"SalesValue":"$3150991.83"},
{"NoOfRooms":2,"NoOfBathrooms":4,"SqFeet":3201,"Address1":"347 Kim Parkway","Address2":"1st Floor","City":"Glendale","State":"CA","Zip":"91210","Description":null,"SalesValue":"$3091207.52"},
{"NoOfRooms":5,"NoOfBathrooms":3,"SqFeet":2126,"Address1":"1047 Everett Trail","Address2":"Apt 1061","City":"Sunnyvale","State":"CA","Zip":"94089","Description":null,"SalesValue":"$4853628.90"},
{"NoOfRooms":5,"NoOfBathrooms":1,"SqFeet":1875,"Address1":"48 Mcguire Lane","Address2":"5th Floor","City":"San Francisco","State":"CA","Zip":"94121","Description":null,"SalesValue":"$5437022.53"},
{"NoOfRooms":5,"NoOfBathrooms":4,"SqFeet":8998,"Address1":"61 Texas Point","Address2":"Apt 1699","City":"Los Angeles","State":"CA","Zip":"90050","Description":null,"SalesValue":"$1422068.40"},
{"NoOfRooms":2,"NoOfBathrooms":1,"SqFeet":726,"Address1":"5 Warbler Court","Address2":"11th Floor","City":"Pasadena","State":"CA","Zip":"91131","Description":null,"SalesValue":"$1675262.32"},
{"NoOfRooms":4,"NoOfBathrooms":2,"SqFeet":4264,"Address1":"57 Stephen Pass","Address2":"Suite 97","City":"Los Angeles","State":"CA","Zip":"90071","Description":null,"SalesValue":"$3803118.12"},
{"NoOfRooms":1,"NoOfBathrooms":3,"SqFeet":8902,"Address1":"35784 Florence Terrace","Address2":"Room 1941","City":"San Diego","State":"CA","Zip":"92137","Description":null,"SalesValue":"$4043410.10"},
{"NoOfRooms":2,"NoOfBathrooms":3,"SqFeet":2973,"Address1":"3 Lerdahl Drive","Address2":"Room 287","City":"San Jose","State":"CA","Zip":"95118","Description":null,"SalesValue":"$8414937.48"},
{"NoOfRooms":1,"NoOfBathrooms":1,"SqFeet":8358,"Address1":"69537 Bultman Avenue","Address2":"10th Floor","City":"Modesto","State":"CA","Zip":"95397","Description":null,"SalesValue":"$5229941.71"},
{"NoOfRooms":4,"NoOfBathrooms":4,"SqFeet":126,"Address1":"235 Morrow Alley","Address2":"Suite 66","City":"San Bernardino","State":"CA","Zip":"92405","Description":null,"SalesValue":"$9172407.31"},
{"NoOfRooms":5,"NoOfBathrooms":1,"SqFeet":4790,"Address1":"0 Weeping Birch Alley","Address2":"Suite 32","City":"Orange","State":"CA","Zip":"92668","Description":null,"SalesValue":"$4559524.70"},
{"NoOfRooms":3,"NoOfBathrooms":4,"SqFeet":5591,"Address1":"3 Laurel Alley","Address2":"Apt 1036","City":"Los Angeles","State":"CA","Zip":"90030","Description":null,"SalesValue":"$2981209.73"},
{"NoOfRooms":1,"NoOfBathrooms":2,"SqFeet":1633,"Address1":"327 Lindbergh Drive","Address2":"Apt 1163","City":"San Francisco","State":"CA","Zip":"94105","Description":null,"SalesValue":"$9714278.44"},
{"NoOfRooms":5,"NoOfBathrooms":3,"SqFeet":3413,"Address1":"2 Esker Hill","Address2":"Suite 35","City":"San Bernardino","State":"CA","Zip":"92424","Description":null,"SalesValue":"$5082428.25"},
{"NoOfRooms":5,"NoOfBathrooms":3,"SqFeet":3552,"Address1":"34190 Lake View Place","Address2":"2nd Floor","City":"San Jose","State":"CA","Zip":"95138","Description":null,"SalesValue":"$1762500.86"},
{"NoOfRooms":5,"NoOfBathrooms":1,"SqFeet":297,"Address1":"77 Village Court","Address2":"Suite 65","City":"Sacramento","State":"CA","Zip":"95823","Description":null,"SalesValue":"$9127191.13"},
{"NoOfRooms":1,"NoOfBathrooms":5,"SqFeet":5873,"Address1":"48 Valley Edge Road","Address2":"Apt 1307","City":"Bakersfield","State":"CA","Zip":"93305","Description":null,"SalesValue":"$1295950.24"},
{"NoOfRooms":3,"NoOfBathrooms":1,"SqFeet":637,"Address1":"1 Ridge Oak Alley","Address2":"Room 1882","City":"Whittier","State":"CA","Zip":"90610","Description":null,"SalesValue":"$9341497.48"}]